{"geometry": {"coordinates": [-123.206061, 45.116007], "type": "Point"}, "id": "nK87w0cIKbN575b8ShM8Mpm_gQY=", "properties": {"@source_uri": "https://tools.usps.com/UspsToolsRestServices/rest/POLocator/findLocations", "@spider": "usps_collection_boxes", "addr:city": "AMITY", "addr:country": "US", "addr:postcode": "97101", "addr:state": "OR", "addr:street_address": "105 WOODSON ST", "amenity": "post_box", "collection_times": "Mo-Fr 16:45; Sa 10:00", "note": "ON 12/24 AND 12/31, THIS BOX MAY BE COLLECTED AS EARLY AS 12 NOON.", "nsi_id": "unitedstatespostalservice-a77078", "operator": "United States Postal Service", "operator:short": "USPS", "operator:type": "public", "operator:wikidata": "Q668687", "ref": "9710100001"}, "type": "Feature"}
{"geometry": {"coordinates": [-123.20610855, 45.115947034], "type": "Point"}, "id": "G2mP7_BDQQTMwT1Dra6FfW5UXAo=", "properties": {"@source_uri": "https://tools.usps.com/UspsToolsRestServices/rest/POLocator/findLocations", "@spider": "usps_collection_boxes", "addr:city": "AMITY", "addr:country": "US", "addr:postcode": "97101", "addr:state": "OR", "addr:street_address": "105 WOODSON ST", "amenity": "post_box", "collection_times": "Mo-Fr 17:00", "indoor": "yes", "note": "ON 12/24 AND 12/31, THIS BOX MAY BE COLLECTED AS EARLY AS 12 NOON.", "nsi_id": "unitedstatespostalservice-a77078", "operator": "United States Postal Service", "operator:short": "USPS", "operator:type": "public", "operator:wikidata": "Q668687", "ref": "9710100003"}, "type": "Feature"}
{"geometry": {"coordinates": [-123.8351868935, 46.1897180242], "type": "Point"}, "id": "aFJ73nUCZ7zwawbBV_DGnozT3qM=", "properties": {"@source_uri": "https://tools.usps.com/UspsToolsRestServices/rest/POLocator/findLocations", "@spider": "usps_collection_boxes", "addr:city": "ASTORIA", "addr:country": "US", "addr:postcode": "97103", "addr:state": "OR", "addr:street_address": "749 BOND ST", "amenity": "post_box", "collection_times": "Mo-Fr 17:00; Sa 15:00", "note": "ON 12/24 AND 12/31, THIS BOX MAY BE COLLECTED AS EARLY AS 12 NOON.", "nsi_id": "unitedstatespostalservice-a77078", "operator": "United States Postal Service", "operator:short": "USPS", "operator:type": "public", "operator:wikidata": "Q668687", "ref": "9710300009"}, "type": "Feature"}
{"geometry": {"coordinates": [-123.8449840359, 46.1902430124], "type": "Point"}, "id": "XdqwG6fkQgKnq3r39Yuquo-toUM=", "properties": {"@source_uri": "https://tools.usps.com/UspsToolsRestServices/rest/POLocator/findLocations", "@spider": "usps_collection_boxes", "addr:city": "ASTORIA", "addr:country": "US", "addr:postcode": "97103", "addr:state": "OR", "addr:street_address": "95 W MARINE DR", "amenity": "post_box", "collection_times": "Mo-Sa 10:30", "nsi_id": "unitedstatespostalservice-a77078", "operator": "United States Postal Service", "operator:short": "USPS", "operator:type": "public", "operator:wikidata": "Q668687", "ref": "9710300010"}, "type": "Feature"}
{"geometry": {"coordinates": [-123.830349, 46.188373], "type": "Point"}, "id": "hNAgdL0pLCP1orjSvJhEi07p0kk=", "properties": {"@source_uri": "https://tools.usps.com/UspsToolsRestServices/rest/POLocator/findLocations", "@spider": "usps_collection_boxes", "addr:city": "ASTORIA", "addr:country": "US", "addr:postcode": "97103", "addr:state": "OR", "addr:street_address": "1201 DUANE ST", "amenity": "post_box", "collection_times": "Mo-Fr 15:00; Sa 12:00", "note": "ON 12/24 AND 12/31, THIS BOX MAY BE COLLECTED AS EARLY AS 12 NOON.", "nsi_id": "unitedstatespostalservice-a77078", "operator": "United States Postal Service", "operator:short": "USPS", "operator:type": "public", "operator:wikidata": "Q668687", "ref": "9710300015"}, "type": "Feature"}
{"geometry": {"coordinates": [-123.828877, 46.188467], "type": "Point"}, "id": "YFbzKbodEOq2uRcW-NVNEdV8EM8=", "properties": {"@source_uri": "https://tools.usps.com/UspsToolsRestServices/rest/POLocator/findLocations", "@spider": "usps_collection_boxes", "addr:city": "ASTORIA", "addr:country": "US", "addr:postcode": "97103", "addr:state": "OR", "addr:street_address": "1390 DUANE ST", "amenity": "post_box", "collection_times": "Mo-Fr 15:00; Sa 12:00", "note": "ON 12/24 AND 12/31, THIS BOX MAY BE COLLECTED AS EARLY AS 12 NOON.", "nsi_id": "unitedstatespostalservice-a77078", "operator": "United States Postal Service", "operator:short": "USPS", "operator:type": "public", "operator:wikidata": "Q668687", "ref": "9710300017"}, "type": "Feature"}
{"geometry": {"coordinates": [-123.831484, 46.188998], "type": "Point"}, "id": "OpNVDoSTjXktiYYgOa0dK3Oakgo=", "properties": {"@source_uri": "https://tools.usps.com/UspsToolsRestServices/rest/POLocator/findLocations", "@spider": "usps_collection_boxes", "addr:city": "ASTORIA", "addr:country": "US", "addr:postcode": "97103", "addr:state": "OR", "addr:street_address": "1105 COMMERCIAL ST", "amenity": "post_box", "collection_times": "Mo-Fr 15:00; Sa 12:00", "note": "ON 12/24 AND 12/31, THIS BOX MAY BE COLLECTED AS EARLY AS 12 NOON.", "nsi_id": "unitedstatespostalservice-a77078", "operator": "United States Postal Service", "operator:short": "USPS", "operator:type": "public", "operator:wikidata": "Q668687", "ref": "9710300021"}, "type": "Feature"}
{"geometry": {"coordinates": [-123.827529, 46.189112], "type": "Point"}, "id": "SBTLx3-P4HwIm4t1lqmle3NzTCY=", "properties": {"@source_uri": "https://tools.usps.com/UspsToolsRestServices/rest/POLocator/findLocations", "@spider": "usps_collection_boxes", "addr:city": "ASTORIA", "addr:country": "US", "addr:postcode": "97103", "addr:state": "OR", "addr:street_address": "1490 COMMERCIAL ST", "amenity": "post_box", "collection_times": "Mo-Fr 15:00; Sa 12:00", "note": "ON 12/24 AND 12/31, THIS BOX MAY BE COLLECTED AS EARLY AS 12 NOON.", "nsi_id": "unitedstatespostalservice-a77078", "operator": "United States Postal Service", "operator:short": "USPS", "operator:type": "public", "operator:wikidata": "Q668687", "ref": "9710300025"}, "type": "Feature"}
{"geometry": {"coordinates": [-123.828382, 46.189005], "type": "Point"}, "id": "VRoTvJcAiVKANx_KQzpcWgDksbs=", "properties": {"@source_uri": "https://tools.usps.com/UspsToolsRestServices/rest/POLocator/findLocations", "@spider": "usps_collection_boxes", "addr:city": "ASTORIA", "addr:country": "US", "addr:postcode": "97103", "addr:state": "OR", "addr:street_address": "1405 COMMERCIAL ST", "amenity": "post_box", "collection_times": "Mo-Fr 15:00; Sa 12:00", "note": "ON 12/24 AND 12/31, THIS BOX MAY BE COLLECTED AS EARLY AS 12 NOON.", "nsi_id": "unitedstatespostalservice-a77078", "operator": "United States Postal Service", "operator:short": "USPS", "operator:type": "public", "operator:wikidata": "Q668687", "ref": "9710300026"}, "type": "Feature"}
{"geometry": {"coordinates": [-123.835237, 46.189548], "type": "Point"}, "id": "4AYAeme_AqWNx3qkRYjp5OGnUY4=", "properties": {"@source_uri": "https://tools.usps.com/UspsToolsRestServices/rest/POLocator/findLocations", "@spider": "usps_collection_boxes", "addr:city": "ASTORIA", "addr:country": "US", "addr:postcode": "97103", "addr:state": "OR", "addr:street_address": "750 COMMERCIAL ST", "amenity": "post_box", "collection_times": "Mo-Fr 17:00; Sa 15:00", "indoor": "yes", "note": "ON 12/24 AND 12/31, THIS BOX MAY BE COLLECTED AS EARLY AS 12 NOON.", "nsi_id": "unitedstatespostalservice-a77078", "operator": "United States Postal Service", "operator:short": "USPS", "operator:type": "public", "operator:wikidata": "Q668687", "ref": "9710300028"}, "type": "Feature"}
{"geometry": {"coordinates": [-123.835237, 46.189548], "type": "Point"}, "id": "Bbgc9n5wVMb_Z7ThJQ3a235_d24=", "properties": {"@source_uri": "https://tools.usps.com/UspsToolsRestServices/rest/POLocator/findLocations", "@spider": "usps_collection_boxes", "addr:city": "ASTORIA", "addr:country": "US", "addr:postcode": "97103", "addr:state": "OR", "addr:street_address": "750 COMMERCIAL ST", "amenity": "post_box", "collection_times": "Mo-Fr 17:00; Sa 15:00", "indoor": "yes", "note": "ON 12/24 AND 12/31, THIS BOX MAY BE COLLECTED AS EARLY AS 12 NOON.", "nsi_id": "unitedstatespostalservice-a77078", "operator": "United States Postal Service", "operator:short": "USPS", "operator:type": "public", "operator:wikidata": "Q668687", "ref": "9710300029"}, "type": "Feature"}
{"geometry": {"coordinates": [-123.582212, 46.168464], "type": "Point"}, "id": "HCkwCymvKuIaRi3f7f-c3pLO5Eo=", "properties": {"@source_uri": "https://tools.usps.com/UspsToolsRestServices/rest/POLocator/findLocations", "@spider": "usps_collection_boxes", "addr:city": "ASTORIA", "addr:country": "US", "addr:postcode": "97103", "addr:state": "OR", "addr:street_address": "42930 HIGHWAY 30", "amenity": "post_box", "collection_times": "Mo-Sa 10:30", "nsi_id": "unitedstatespostalservice-a77078", "operator": "United States Postal Service", "operator:short": "USPS", "operator:type": "public", "operator:wikidata": "Q668687", "ref": "9710300032"}, "type": "Feature"}
{"geometry": {"coordinates": [-123.8351941634, 46.1891470988], "type": "Point"}, "id": "Xh51mVQ_P056xgRDHPOxXHNLTg4=", "properties": {"@source_uri": "https://tools.usps.com/UspsToolsRestServices/rest/POLocator/findLocations", "@spider": "usps_collection_boxes", "addr:city": "ASTORIA", "addr:country": "US", "addr:postcode": "97103", "addr:state": "OR", "addr:street_address": "750 COMMERCIAL ST", "amenity": "post_box", "collection_times": "Mo-Sa 17:00", "note": "ON 12/24 AND 12/31, THIS BOX MAY BE COLLECTED AS EARLY AS 12 NOON.", "nsi_id": "unitedstatespostalservice-a77078", "operator": "United States Postal Service", "operator:short": "USPS", "operator:type": "public", "operator:wikidata": "Q668687", "ref": "9710300036"}, "type": "Feature"}
{"geometry": {"coordinates": [-123.806433, 46.193031], "type": "Point"}, "id": "7V8fwAsAaw_mYmdAg7tg0flqQvg=", "properties": {"@source_uri": "https://tools.usps.com/UspsToolsRestServices/rest/POLocator/findLocations", "@spider": "usps_collection_boxes", "addr:city": "ASTORIA", "addr:country": "US", "addr:postcode": "97103", "addr:state": "OR", "addr:street_address": "3250 LEIF ERIKSON DR", "amenity": "post_box", "collection_times": "Mo-Sa 12:00", "nsi_id": "unitedstatespostalservice-a77078", "operator": "United States Postal Service", "operator:short": "USPS", "operator:type": "public", "operator:wikidata": "Q668687", "ref": "9710300037"}, "type": "Feature"}
{"geometry": {"coordinates": [-123.8398688608, 46.1733154971], "type": "Point"}, "id": "diGZSLVrrnH2fArPwxCWKM_BrwQ=", "properties": {"@source_uri": "https://tools.usps.com/UspsToolsRestServices/rest/POLocator/findLocations", "@spider": "usps_collection_boxes", "addr:city": "ASTORIA", "addr:country": "US", "addr:postcode": "97103", "addr:state": "OR", "addr:street_address": "318 OLNEY AVE", "amenity": "post_box", "collection_times": "Mo-Sa 12:00", "nsi_id": "unitedstatespostalservice-a77078", "operator": "United States Postal Service", "operator:short": "USPS", "operator:type": "public", "operator:wikidata": "Q668687", "ref": "9710300038"}, "type": "Feature"}
{"geometry": {"coordinates": [-123.831855758, 46.188452279], "type": "Point"}, "id": "T6gTA3frGollXOquahJEN8cZJPw=", "properties": {"@source_uri": "https://tools.usps.com/UspsToolsRestServices/rest/POLocator/findLocations", "@spider": "usps_collection_boxes", "addr:city": "ASTORIA", "addr:country": "US", "addr:postcode": "97103", "addr:state": "OR", "addr:street_address": "1098 DUANE ST", "amenity": "post_box", "collection_times": "Mo-Fr 15:00; Sa 12:00", "note": "ON 12/24 AND 12/31, THIS BOX MAY BE COLLECTED AS EARLY AS 12 NOON.", "nsi_id": "unitedstatespostalservice-a77078", "operator": "United States Postal Service", "operator:short": "USPS", "operator:type": "public", "operator:wikidata": "Q668687", "ref": "9710300039"}, "type": "Feature"}
{"geometry": {"coordinates": [-123.6607478135, 46.1655017102], "type": "Point"}, "id": "K6Wa87CfYmsjJrzpI_yOO09zRRY=", "properties": {"@source_uri": "https://tools.usps.com/UspsToolsRestServices/rest/POLocator/findLocations", "@spider": "usps_collection_boxes", "addr:city": "ASTORIA", "addr:country": "US", "addr:postcode": "97103", "addr:state": "OR", "addr:street_address": "40490 OLD US HWY 30", "amenity": "post_box", "collection_times": "Mo-Sa 10:30", "nsi_id": "unitedstatespostalservice-a77078", "operator": "United States Postal Service", "operator:short": "USPS", "operator:type": "public", "operator:wikidata": "Q668687", "ref": "9710300040"}, "type": "Feature"}
{"geometry": {"coordinates": [-123.835197582, 46.189171346], "type": "Point"}, "id": "c5Fv6LHmIwrJhDs8fynQn--Onpg=", "properties": {"@source_uri": "https://tools.usps.com/UspsToolsRestServices/rest/POLocator/findLocations", "@spider": "usps_collection_boxes", "addr:city": "ASTORIA", "addr:country": "US", "addr:postcode": "97103", "addr:state": "OR", "addr:street_address": "750 COMMERCIAL ST", "amenity": "post_box", "collection_times": "Mo-Fr 17:00", "indoor": "yes", "note": "ON 12/24 AND 12/31, THIS BOX MAY BE COLLECTED AS EARLY AS 12 NOON.", "nsi_id": "unitedstatespostalservice-a77078", "operator": "United States Postal Service", "operator:short": "USPS", "operator:type": "public", "operator:wikidata": "Q668687", "ref": "9710300041"}, "type": "Feature"}
{"geometry": {"coordinates": [-123.1124, 45.610528], "type": "Point"}, "id": "xTHZhARIvjkFZwgNnzHRy03bOaU=", "properties": {"@source_uri": "https://tools.usps.com/UspsToolsRestServices/rest/POLocator/findLocations", "@spider": "usps_collection_boxes", "addr:city": "BANKS", "addr:country": "US", "addr:postcode": "97106", "addr:state": "OR", "addr:street_address": "42355 NW OAK WAY", "amenity": "post_box", "collection_times": "Mo-Fr 16:00; Sa 09:00", "note": "ON 12/24 AND 12/31, THIS BOX MAY BE COLLECTED AS EARLY AS 12 NOON.", "nsi_id": "unitedstatespostalservice-a77078", "operator": "United States Postal Service", "operator:short": "USPS", "operator:type": "public", "operator:wikidata": "Q668687", "ref": "9710600002"}, "type": "Feature"}
{"geometry": {"coordinates": [-123.112679, 45.610567], "type": "Point"}, "id": "8f88vxoc7NL5rOV3iurn_uXKLV0=", "properties": {"@source_uri": "https://tools.usps.com/UspsToolsRestServices/rest/POLocator/findLocations", "@spider": "usps_collection_boxes", "addr:city": "BANKS", "addr:country": "US", "addr:postcode": "97106", "addr:state": "OR", "addr:street_address": "42355 NW OAK WAY", "amenity": "post_box", "collection_times": "Mo-Fr 17:00; Sa 09:00", "indoor": "yes", "note": "ON 12/24 AND 12/31, THIS BOX MAY BE COLLECTED AS EARLY AS 12 NOON.", "nsi_id": "unitedstatespostalservice-a77078", "operator": "United States Postal Service", "operator:short": "USPS", "operator:type": "public", "operator:wikidata": "Q668687", "ref": "9710600003"}, "type": "Feature"}
{"geometry": {"coordinates": [-123.112683304, 45.610564493], "type": "Point"}, "id": "qavfTZ7KV-UoQjyOwxA_qQ3Sjv4=", "properties": {"@source_uri": "https://tools.usps.com/UspsToolsRestServices/rest/POLocator/findLocations", "@spider": "usps_collection_boxes", "addr:city": "BANKS", "addr:country": "US", "addr:postcode": "97106", "addr:state": "OR", "addr:street_address": "42355 NW OAK WAY", "amenity": "post_box", "collection_times": "Mo-Fr 17:00", "indoor": "yes", "note": "ON 12/24 AND 12/31, THIS BOX MAY BE COLLECTED AS EARLY AS 12 NOON.", "nsi_id": "unitedstatespostalservice-a77078", "operator": "United States Postal Service", "operator:short": "USPS", "operator:type": "public", "operator:wikidata": "Q668687", "ref": "9710600004"}, "type": "Feature"}
{"geometry": {"coordinates": [-123.963773, 45.80447], "type": "Point"}, "id": "sjCg8UmUTNsaNe4vg4ojJ_2CiZc=", "properties": {"@source_uri": "https://tools.usps.com/UspsToolsRestServices/rest/POLocator/findLocations", "@spider": "usps_collection_boxes", "addr:city": "ARCH CAPE", "addr:country": "US", "addr:postcode": "97110", "addr:state": "OR", "addr:street_address": "79816 E BEACH RD", "amenity": "post_box", "collection_times": "Mo-Fr 15:15; Sa 14:30", "note": "ON 12/24 AND 12/31, THIS BOX MAY BE COLLECTED AS EARLY AS 12 NOON.", "nsi_id": "unitedstatespostalservice-a77078", "operator": "United States Postal Service", "operator:short": "USPS", "operator:type": "public", "operator:wikidata": "Q668687", "ref": "9711000001"}, "type": "Feature"}
{"geometry": {"coordinates": [-123.962031, 45.888498], "type": "Point"}, "id": "axM57SrbS94jz5h3K2Zm4gFasjU=", "properties": {"@source_uri": "https://tools.usps.com/UspsToolsRestServices/rest/POLocator/findLocations", "@spider": "usps_collection_boxes", "addr:city": "ARCH CAPE", "addr:country": "US", "addr:postcode": "97110", "addr:state": "OR", "addr:street_address": "1315 S HEMLOCK ST", "amenity": "post_box", "collection_times": "Mo-Fr 15:45; Sa 13:45", "note": "ON 12/24 AND 12/31, THIS BOX MAY BE COLLECTED AS EARLY AS 12 NOON.", "nsi_id": "unitedstatespostalservice-a77078", "operator": "United States Postal Service", "operator:short": "USPS", "operator:type": "public", "operator:wikidata": "Q668687", "ref": "9711000003"}, "type": "Feature"}
{"geometry": {"coordinates": [-123.960852484, 45.8975611676], "type": "Point"}, "id": "W-z9GP19Otmj8GEeGr1e44LXY9U=", "properties": {"@source_uri": "https://tools.usps.com/UspsToolsRestServices/rest/POLocator/findLocations", "@spider": "usps_collection_boxes", "addr:city": "ARCH CAPE", "addr:country": "US", "addr:postcode": "97110", "addr:state": "OR", "addr:street_address": "163 N HEMLOCK", "amenity": "post_box", "collection_times": "Mo-Fr 15:30; Sa 14:00", "note": "ON 12/24 AND 12/31, THIS BOX MAY BE COLLECTED AS EARLY AS 12 NOON.", "nsi_id": "unitedstatespostalservice-a77078", "operator": "United States Postal Service", "operator:short": "USPS", "operator:type": "public", "operator:wikidata": "Q668687", "ref": "9711000004"}, "type": "Feature"}
{"geometry": {"coordinates": [-123.960886, 45.897633], "type": "Point"}, "id": "h-E7C6u2fO9sBrNT_bb2WjsNnSg=", "properties": {"@source_uri": "https://tools.usps.com/UspsToolsRestServices/rest/POLocator/findLocations", "@spider": "usps_collection_boxes", "addr:city": "ARCH CAPE", "addr:country": "US", "addr:postcode": "97110", "addr:state": "OR", "addr:street_address": "163 N HEMLOCK", "amenity": "post_box", "collection_times": "Mo-Fr 15:30; Sa 10:00", "indoor": "yes", "note": "ON 12/24 AND 12/31, THIS BOX MAY BE COLLECTED AS EARLY AS 12 NOON.", "nsi_id": "unitedstatespostalservice-a77078", "operator": "United States Postal Service", "operator:short": "USPS", "operator:type": "public", "operator:wikidata": "Q668687", "ref": "9711000005"}, "type": "Feature"}
{"geometry": {"coordinates": [-123.960852484, 45.897552168], "type": "Point"}, "id": "PSiAHm_iN2Nug_6sWLFGhJh6CAg=", "properties": {"@source_uri": "https://tools.usps.com/UspsToolsRestServices/rest/POLocator/findLocations", "@spider": "usps_collection_boxes", "addr:city": "ARCH CAPE", "addr:country": "US", "addr:postcode": "97110", "addr:state": "OR", "addr:street_address": "163 N HEMLOCK", "amenity": "post_box", "collection_times": "Mo-Fr 15:45", "indoor": "yes", "note": "ON 12/24 AND 12/31, THIS BOX MAY BE COLLECTED AS EARLY AS 12 NOON.", "nsi_id": "unitedstatespostalservice-a77078", "operator": "United States Postal Service", "operator:short": "USPS", "operator:type": "public", "operator:wikidata": "Q668687", "ref": "9711000008"}, "type": "Feature"}
{"geometry": {"coordinates": [-123.180212, 45.293856], "type": "Point"}, "id": "zPv91Hwprg8iHxK6qXcmIYzEAT0=", "properties": {"@source_uri": "https://tools.usps.com/UspsToolsRestServices/rest/POLocator/findLocations", "@spider": "usps_collection_boxes", "addr:city": "CARLTON", "addr:country": "US", "addr:postcode": "97111", "addr:state": "OR", "addr:street_address": "438 W MAIN ST", "amenity": "post_box", "collection_times": "Mo-Fr 16:30; Sa 10:00", "note": "ON 12/24 AND 12/31, THIS BOX MAY BE COLLECTED AS EARLY AS 12 NOON.", "nsi_id": "unitedstatespostalservice-a77078", "operator": "United States Postal Service", "operator:short": "USPS", "operator:type": "public", "operator:wikidata": "Q668687", "ref": "9711100001"}, "type": "Feature"}
{"geometry": {"coordinates": [-123.180212, 45.293856], "type": "Point"}, "id": "rmi-J3i9HrjD3eoQlvEG-srd2J0=", "properties": {"@source_uri": "https://tools.usps.com/UspsToolsRestServices/rest/POLocator/findLocations", "@spider": "usps_collection_boxes", "addr:city": "CARLTON", "addr:country": "US", "addr:postcode": "97111", "addr:state": "OR", "addr:street_address": "438 W MAIN ST", "amenity": "post_box", "collection_times": "Mo-Fr 16:30; Sa 10:00", "indoor": "yes", "note": "ON 12/24 AND 12/31, THIS BOX MAY BE COLLECTED AS EARLY AS 12 NOON.", "nsi_id": "unitedstatespostalservice-a77078", "operator": "United States Postal Service", "operator:short": "USPS", "operator:type": "public", "operator:wikidata": "Q668687", "ref": "9711100003"}, "type": "Feature"}
{"geometry": {"coordinates": [-123.180212, 45.293856], "type": "Point"}, "id": "PhJmSmLv38PXGiW363itjw5N9dU=", "properties": {"@source_uri": "https://tools.usps.com/UspsToolsRestServices/rest/POLocator/findLocations", "@spider": "usps_collection_boxes", "addr:city": "CARLTON", "addr:country": "US", "addr:postcode": "97111", "addr:state": "OR", "addr:street_address": "438 W MAIN ST", "amenity": "post_box", "collection_times": "Mo-Fr 16:30; Sa 10:00", "indoor": "yes", "note": "ON 12/24 AND 12/31, THIS BOX MAY BE COLLECTED AS EARLY AS 12 NOON.", "nsi_id": "unitedstatespostalservice-a77078", "operator": "United States Postal Service", "operator:short": "USPS", "operator:type": "public", "operator:wikidata": "Q668687", "ref": "9711100004"}, "type": "Feature"}
{"geometry": {"coordinates": [-123.180462, 45.294222532], "type": "Point"}, "id": "q6dU2KIvWTGojGq0WChdy7Sk6Kk=", "properties": {"@source_uri": "https://tools.usps.com/UspsToolsRestServices/rest/POLocator/findLocations", "@spider": "usps_collection_boxes", "addr:city": "CARLTON", "addr:country": "US", "addr:postcode": "97111", "addr:state": "OR", "addr:street_address": "438 W MAIN ST", "amenity": "post_box", "collection_times": "Mo-Fr 16:30", "indoor": "yes", "note": "ON 12/24 AND 12/31, THIS BOX MAY BE COLLECTED AS EARLY AS 12 NOON.", "nsi_id": "unitedstatespostalservice-a77078", "operator": "United States Postal Service", "operator:short": "USPS", "operator:type": "public", "operator:wikidata": "Q668687", "ref": "9711100005"}, "type": "Feature"}
{"geometry": {"coordinates": [-123.890707, 45.205857], "type": "Point"}, "id": "dKC0hxTeIKqBpWAn09dG78EY0qQ=", "properties": {"@source_uri": "https://tools.usps.com/UspsToolsRestServices/rest/POLocator/findLocations", "@spider": "usps_collection_boxes", "addr:city": "CLOVERDALE", "addr:country": "US", "addr:postcode": "97112", "addr:state": "OR", "addr:street_address": "34480 HIGHWAY 101 S", "amenity": "post_box", "collection_times": "Mo-Fr 16:00; Sa 09:30", "note": "ON 12/24 AND 12/31, THIS BOX MAY BE COLLECTED AS EARLY AS 12 NOON.", "nsi_id": "unitedstatespostalservice-a77078", "operator": "United States Postal Service", "operator:short": "USPS", "operator:type": "public", "operator:wikidata": "Q668687", "ref": "9711200001"}, "type": "Feature"}
{"geometry": {"coordinates": [-123.890707, 45.205857], "type": "Point"}, "id": "oJmC5FNxpOalfOk-cT_u7x32_zE=", "properties": {"@source_uri": "https://tools.usps.com/UspsToolsRestServices/rest/POLocator/findLocations", "@spider": "usps_collection_boxes", "addr:city": "CLOVERDALE", "addr:country": "US", "addr:postcode": "97112", "addr:state": "OR", "addr:street_address": "34480 HIGHWAY 101 S", "amenity": "post_box", "collection_times": "Mo-Fr 16:00", "indoor": "yes", "note": "ON 12/24 AND 12/31, THIS BOX MAY BE COLLECTED AS EARLY AS 12 NOON.", "nsi_id": "unitedstatespostalservice-a77078", "operator": "United States Postal Service", "operator:short": "USPS", "operator:type": "public", "operator:wikidata": "Q668687", "ref": "9711200004"}, "type": "Feature"}
{"geometry": {"coordinates": [-123.890689899, 45.205941897], "type": "Point"}, "id": "4YmIlC0EDGp7dPEWPmzLsjeDWJY=", "properties": {"@source_uri": "https://tools.usps.com/UspsToolsRestServices/rest/POLocator/findLocations", "@spider": "usps_collection_boxes", "addr:city": "CLOVERDALE", "addr:country": "US", "addr:postcode": "97112", "addr:state": "OR", "addr:street_address": "34480 HIGHWAY 101 S", "amenity": "post_box", "collection_times": "Mo-Fr 16:00", "indoor": "yes", "note": "ON 12/24 AND 12/31, THIS BOX MAY BE COLLECTED AS EARLY AS 12 NOON.", "nsi_id": "unitedstatespostalservice-a77078", "operator": "United States Postal Service", "operator:short": "USPS", "operator:type": "public", "operator:wikidata": "Q668687", "ref": "9711200005"}, "type": "Feature"}
{"geometry": {"coordinates": [-123.044807996, 45.521886985], "type": "Point"}, "id": "TG29fZckSaFhE0YEP8M21NyCWiw=", "properties": {"@source_uri": "https://tools.usps.com/UspsToolsRestServices/rest/POLocator/findLocations", "@spider": "usps_collection_boxes", "addr:city": "CORNELIUS", "addr:country": "US", "addr:postcode": "97113", "addr:state": "OR", "addr:street_address": "2200 BASELINE ST", "amenity": "post_box", "collection_times": "Mo-Sa 12:30", "note": "ON 12/24 AND 12/31, THIS BOX MAY BE COLLECTED AS EARLY AS 12 NOON.", "nsi_id": "unitedstatespostalservice-a77078", "operator": "United States Postal Service", "operator:short": "USPS", "operator:type": "public", "operator:wikidata": "Q668687", "ref": "9711300003"}, "type": "Feature"}
{"geometry": {"coordinates": [-123.052004, 45.520067], "type": "Point"}, "id": "SbDc8DLH53kolr_cq0fv7Zdm3tU=", "properties": {"@source_uri": "https://tools.usps.com/UspsToolsRestServices/rest/POLocator/findLocations", "@spider": "usps_collection_boxes", "addr:city": "CORNELIUS", "addr:country": "US", "addr:postcode": "97113", "addr:state": "OR", "addr:street_address": "1639 BASELINE ST", "amenity": "post_box", "collection_times": "Mo-Fr 17:00; Sa 09:00", "indoor": "yes", "note": "ON 12/24 AND 12/31, THIS BOX MAY BE COLLECTED AS EARLY AS 12 NOON.", "nsi_id": "unitedstatespostalservice-a77078", "operator": "United States Postal Service", "operator:short": "USPS", "operator:type": "public", "operator:wikidata": "Q668687", "ref": "9711300004"}, "type": "Feature"}
{"geometry": {"coordinates": [-123.052404, 45.519809], "type": "Point"}, "id": "BSQUPIYFsSd8ocdlrpSZA3OSuyo=", "properties": {"@source_uri": "https://tools.usps.com/UspsToolsRestServices/rest/POLocator/findLocations", "@spider": "usps_collection_boxes", "addr:city": "CORNELIUS", "addr:country": "US", "addr:postcode": "97113", "addr:state": "OR", "addr:street_address": "1639 BASELINE ST", "amenity": "post_box", "collection_times": "Mo-Fr 16:30; Sa 12:30", "note": "ON 12/24 AND 12/31, THIS BOX MAY BE COLLECTED AS EARLY AS 12 NOON.", "nsi_id": "unitedstatespostalservice-a77078", "operator": "United States Postal Service", "operator:short": "USPS", "operator:type": "public", "operator:wikidata": "Q668687", "ref": "9711300005"}, "type": "Feature"}
{"geometry": {"coordinates": [-123.052004, 45.520067], "type": "Point"}, "id": "CLM6aECrw2cYUxHYYHPGujBBsn4=", "properties": {"@source_uri": "https://tools.usps.com/UspsToolsRestServices/rest/POLocator/findLocations", "@spider": "usps_collection_boxes", "addr:city": "CORNELIUS", "addr:country": "US", "addr:postcode": "97113", "addr:state": "OR", "addr:street_address": "1639 BASELINE ST", "amenity": "post_box", "collection_times": "Mo-Fr 17:00; Sa 09:00", "indoor": "yes", "note": "ON 12/24 AND 12/31, THIS BOX MAY BE COLLECTED AS EARLY AS 12 NOON.", "nsi_id": "unitedstatespostalservice-a77078", "operator": "United States Postal Service", "operator:short": "USPS", "operator:type": "public", "operator:wikidata": "Q668687", "ref": "9711300006"}, "type": "Feature"}
{"geometry": {"coordinates": [-123.052491891, 45.520036514], "type": "Point"}, "id": "AFUdMOt5gU3P5pLBc-feEaTdbV4=", "properties": {"@source_uri": "https://tools.usps.com/UspsToolsRestServices/rest/POLocator/findLocations", "@spider": "usps_collection_boxes", "addr:city": "CORNELIUS", "addr:country": "US", "addr:postcode": "97113", "addr:state": "OR", "addr:street_address": "1639 BASELINE ST", "amenity": "post_box", "collection_times": "Mo-Fr 17:00", "indoor": "yes", "note": "ON 12/24 AND 12/31, THIS BOX MAY BE COLLECTED AS EARLY AS 12 NOON.", "nsi_id": "unitedstatespostalservice-a77078", "operator": "United States Postal Service", "operator:short": "USPS", "operator:type": "public", "operator:wikidata": "Q668687", "ref": "9711300007"}, "type": "Feature"}
{"geometry": {"coordinates": [-123.078473, 45.219165], "type": "Point"}, "id": "AdGJ4STnfTusme1HDbU-n-KKVp0=", "properties": {"@source_uri": "https://tools.usps.com/UspsToolsRestServices/rest/POLocator/findLocations", "@spider": "usps_collection_boxes", "addr:city": "DAYTON", "addr:country": "US", "addr:postcode": "97114", "addr:state": "OR", "addr:street_address": "530 FERRY ST", "amenity": "post_box", "collection_times": "Mo-Fr 16:45; Sa 09:30", "note": "ON 12/24 AND 12/31, THIS BOX MAY BE COLLECTED AS EARLY AS 12 NOON.", "nsi_id": "unitedstatespostalservice-a77078", "operator": "United States Postal Service", "operator:short": "USPS", "operator:type": "public", "operator:wikidata": "Q668687", "ref": "9711400001"}, "type": "Feature"}
{"geometry": {"coordinates": [-123.078473, 45.219165], "type": "Point"}, "id": "PgEzptsNtaccndoMkL0GsKNSw84=", "properties": {"@source_uri": "https://tools.usps.com/UspsToolsRestServices/rest/POLocator/findLocations", "@spider": "usps_collection_boxes", "addr:city": "DAYTON", "addr:country": "US", "addr:postcode": "97114", "addr:state": "OR", "addr:street_address": "530 FERRY ST", "amenity": "post_box", "collection_times": "Mo-Fr 16:45; Sa 09:30", "indoor": "yes", "note": "ON 12/24 AND 12/31, THIS BOX MAY BE COLLECTED AS EARLY AS 12 NOON.", "nsi_id": "unitedstatespostalservice-a77078", "operator": "United States Postal Service", "operator:short": "USPS", "operator:type": "public", "operator:wikidata": "Q668687", "ref": "9711400005"}, "type": "Feature"}
{"geometry": {"coordinates": [-123.07948963, 45.218593416], "type": "Point"}, "id": "rEVwFcKipd38_JhEwISNEHPvYeE=", "properties": {"@source_uri": "https://tools.usps.com/UspsToolsRestServices/rest/POLocator/findLocations", "@spider": "usps_collection_boxes", "addr:city": "DAYTON", "addr:country": "US", "addr:postcode": "97114", "addr:state": "OR", "addr:street_address": "530 FERRY ST", "amenity": "post_box", "collection_times": "Mo-Fr 17:00", "indoor": "yes", "note": "ON 12/24 AND 12/31, THIS BOX MAY BE COLLECTED AS EARLY AS 12 NOON.", "nsi_id": "unitedstatespostalservice-a77078", "operator": "United States Postal Service", "operator:short": "USPS", "operator:type": "public", "operator:wikidata": "Q668687", "ref": "9711400006"}, "type": "Feature"}
{"geometry": {"coordinates": [-123.011268, 45.280111], "type": "Point"}, "id": "HVsbnxBWJB2OswDic0F2pMxDH5g=", "properties": {"@source_uri": "https://tools.usps.com/UspsToolsRestServices/rest/POLocator/findLocations", "@spider": "usps_collection_boxes", "addr:city": "DUNDEE", "addr:country": "US", "addr:postcode": "97115", "addr:state": "OR", "addr:street_address": "279 SW 5TH ST", "amenity": "post_box", "collection_times": "Mo-Fr 16:45; Sa 09:30", "note": "ON 12/24 AND 12/31, THIS BOX MAY BE COLLECTED AS EARLY AS 12 NOON.", "nsi_id": "unitedstatespostalservice-a77078", "operator": "United States Postal Service", "operator:short": "USPS", "operator:type": "public", "operator:wikidata": "Q668687", "ref": "9711500002"}, "type": "Feature"}
{"geometry": {"coordinates": [-123.011268, 45.280111], "type": "Point"}, "id": "nr41sXUKfnh0Rcwxc2SyVCHiaLo=", "properties": {"@source_uri": "https://tools.usps.com/UspsToolsRestServices/rest/POLocator/findLocations", "@spider": "usps_collection_boxes", "addr:city": "DUNDEE", "addr:country": "US", "addr:postcode": "97115", "addr:state": "OR", "addr:street_address": "279 SW 5TH ST", "amenity": "post_box", "collection_times": "Mo-Fr 17:00; Sa 09:30", "indoor": "yes", "note": "ON 12/24 AND 12/31, THIS BOX MAY BE COLLECTED AS EARLY AS 12 NOON.", "nsi_id": "unitedstatespostalservice-a77078", "operator": "United States Postal Service", "operator:short": "USPS", "operator:type": "public", "operator:wikidata": "Q668687", "ref": "9711500004"}, "type": "Feature"}
{"geometry": {"coordinates": [-123.011268, 45.280111], "type": "Point"}, "id": "UuJT-SC1bHKU8kpKQb0-SRKlMR0=", "properties": {"@source_uri": "https://tools.usps.com/UspsToolsRestServices/rest/POLocator/findLocations", "@spider": "usps_collection_boxes", "addr:city": "DUNDEE", "addr:country": "US", "addr:postcode": "97115", "addr:state": "OR", "addr:street_address": "279 SW 5TH ST", "amenity": "post_box", "collection_times": "Mo-Fr 17:00; Sa 09:30", "indoor": "yes", "note": "ON 12/24 AND 12/31, THIS BOX MAY BE COLLECTED AS EARLY AS 12 NOON.", "nsi_id": "unitedstatespostalservice-a77078", "operator": "United States Postal Service", "operator:short": "USPS", "operator:type": "public", "operator:wikidata": "Q668687", "ref": "9711500005"}, "type": "Feature"}
{"geometry": {"coordinates": [-123.010451614, 45.279924683], "type": "Point"}, "id": "bJBXsi6C3a0Me2qwGrEEc3mmtsI=", "properties": {"@source_uri": "https://tools.usps.com/UspsToolsRestServices/rest/POLocator/findLocations", "@spider": "usps_collection_boxes", "addr:city": "DUNDEE", "addr:country": "US", "addr:postcode": "97115", "addr:state": "OR", "addr:street_address": "279 SW 5TH ST", "amenity": "post_box", "collection_times": "Mo-Fr 17:00", "indoor": "yes", "note": "ON 12/24 AND 12/31, THIS BOX MAY BE COLLECTED AS EARLY AS 12 NOON.", "nsi_id": "unitedstatespostalservice-a77078", "operator": "United States Postal Service", "operator:short": "USPS", "operator:type": "public", "operator:wikidata": "Q668687", "ref": "9711500006"}, "type": "Feature"}
{"geometry": {"coordinates": [-123.1078, 45.519612], "type": "Point"}, "id": "qC6I__5I60T88Uh5fBA-Z3e4x6Q=", "properties": {"@source_uri": "https://tools.usps.com/UspsToolsRestServices/rest/POLocator/findLocations", "@spider": "usps_collection_boxes", "addr:city": "FOREST GROVE", "addr:country": "US", "addr:postcode": "97116", "addr:state": "OR", "addr:street_address": "2214 PACIFIC AVE", "amenity": "post_box", "collection_times": "Mo-Fr 17:05; Sa 15:00", "note": "ON 12/24 AND 12/31, THIS BOX MAY BE COLLECTED AS EARLY AS 12 NOON.", "nsi_id": "unitedstatespostalservice-a77078", "operator": "United States Postal Service", "operator:short": "USPS", "operator:type": "public", "operator:wikidata": "Q668687", "ref": "9711600002"}, "type": "Feature"}
{"geometry": {"coordinates": [-123.073727, 45.510961], "type": "Point"}, "id": "1ynDVP3-08dofzAdiyU4ONnbtv4=", "properties": {"@source_uri": "https://tools.usps.com/UspsToolsRestServices/rest/POLocator/findLocations", "@spider": "usps_collection_boxes", "addr:city": "FOREST GROVE", "addr:country": "US", "addr:postcode": "97116", "addr:state": "OR", "addr:street_address": "4300 SETTLERS LOOP", "amenity": "post_box", "collection_times": "Mo-Sa 10:00", "nsi_id": "unitedstatespostalservice-a77078", "operator": "United States Postal Service", "operator:short": "USPS", "operator:type": "public", "operator:wikidata": "Q668687", "ref": "9711600009"}, "type": "Feature"}
{"geometry": {"coordinates": [-123.112305, 45.519717], "type": "Point"}, "id": "JKHKU_2GiDelcElsLLZkVS0SEvI=", "properties": {"@source_uri": "https://tools.usps.com/UspsToolsRestServices/rest/POLocator/findLocations", "@spider": "usps_collection_boxes", "addr:city": "FOREST GROVE", "addr:country": "US", "addr:postcode": "97116", "addr:state": "OR", "addr:street_address": "1945 PACIFIC AVE", "amenity": "post_box", "collection_times": "Mo-Sa 08:45", "nsi_id": "unitedstatespostalservice-a77078", "operator": "United States Postal Service", "operator:short": "USPS", "operator:type": "public", "operator:wikidata": "Q668687", "ref": "9711600013"}, "type": "Feature"}
{"geometry": {"coordinates": [-123.11069, 45.518453], "type": "Point"}, "id": "lQ8jevfTY0YS3aENwq-T5P9m67c=", "properties": {"@source_uri": "https://tools.usps.com/UspsToolsRestServices/rest/POLocator/findLocations", "@spider": "usps_collection_boxes", "addr:city": "FOREST GROVE", "addr:country": "US", "addr:postcode": "97116", "addr:state": "OR", "addr:street_address": "2003 19TH AVE", "amenity": "post_box", "collection_times": "Mo-Sa 09:00", "nsi_id": "unitedstatespostalservice-a77078", "operator": "United States Postal Service", "operator:short": "USPS", "operator:type": "public", "operator:wikidata": "Q668687", "ref": "9711600014"}, "type": "Feature"}
{"geometry": {"coordinates": [-123.104431, 45.519569], "type": "Point"}, "id": "uNjItrDnFCGG-OQ_Sd9WU60gazQ=", "properties": {"@source_uri": "https://tools.usps.com/UspsToolsRestServices/rest/POLocator/findLocations", "@spider": "usps_collection_boxes", "addr:city": "FOREST GROVE", "addr:country": "US", "addr:postcode": "97116", "addr:state": "OR", "addr:street_address": "2403 PACIFIC AVE", "amenity": "post_box", "collection_times": "Mo-Sa 08:45", "nsi_id": "unitedstatespostalservice-a77078", "operator": "United States Postal Service", "operator:short": "USPS", "operator:type": "public", "operator:wikidata": "Q668687", "ref": "9711600015"}, "type": "Feature"}
{"geometry": {"coordinates": [-123.094284, 45.519016], "type": "Point"}, "id": "A6kP6uzikYusZPjLc6OtawNZ07Q=", "properties": {"@source_uri": "https://tools.usps.com/UspsToolsRestServices/rest/POLocator/findLocations", "@spider": "usps_collection_boxes", "addr:city": "FOREST GROVE", "addr:country": "US", "addr:postcode": "97116", "addr:state": "OR", "addr:street_address": "3010 PACIFIC AVE", "amenity": "post_box", "collection_times": "Mo-Sa 09:00", "nsi_id": "unitedstatespostalservice-a77078", "operator": "United States Postal Service", "operator:short": "USPS", "operator:type": "public", "operator:wikidata": "Q668687", "ref": "9711600025"}, "type": "Feature"}
{"geometry": {"coordinates": [-123.1078, 45.519612], "type": "Point"}, "id": "BeF2BeJZyLMD_mAK6mnhzmQ2h2o=", "properties": {"@source_uri": "https://tools.usps.com/UspsToolsRestServices/rest/POLocator/findLocations", "@spider": "usps_collection_boxes", "addr:city": "FOREST GROVE", "addr:country": "US", "addr:postcode": "97116", "addr:state": "OR", "addr:street_address": "2214 PACIFIC AVE", "amenity": "post_box", "collection_times": "Mo-Fr 17:05; Sa 15:00", "indoor": "yes", "note": "ON 12/24 AND 12/31, THIS BOX MAY BE COLLECTED AS EARLY AS 12 NOON.", "nsi_id": "unitedstatespostalservice-a77078", "operator": "United States Postal Service", "operator:short": "USPS", "operator:type": "public", "operator:wikidata": "Q668687", "ref": "9711600028"}, "type": "Feature"}
{"geometry": {"coordinates": [-123.1078005, 45.519604536], "type": "Point"}, "id": "IcSkbBHuVYIR9q6fOR0RYPtLzeo=", "properties": {"@source_uri": "https://tools.usps.com/UspsToolsRestServices/rest/POLocator/findLocations", "@spider": "usps_collection_boxes", "addr:city": "FOREST GROVE", "addr:country": "US", "addr:postcode": "97116", "addr:state": "OR", "addr:street_address": "2214 PACIFIC AVE", "amenity": "post_box", "collection_times": "Mo-Fr 17:15", "indoor": "yes", "note": "ON 12/24 AND 12/31, THIS BOX MAY BE COLLECTED AS EARLY AS 12 NOON.", "nsi_id": "unitedstatespostalservice-a77078", "operator": "United States Postal Service", "operator:short": "USPS", "operator:type": "public", "operator:wikidata": "Q668687", "ref": "9711600036"}, "type": "Feature"}
{"geometry": {"coordinates": [-123.913147, 45.560063], "type": "Point"}, "id": "zHE6HFus0Puq8tE0yiKYswEmCJM=", "properties": {"@source_uri": "https://tools.usps.com/UspsToolsRestServices/rest/POLocator/findLocations", "@spider": "usps_collection_boxes", "addr:city": "GARIBALDI", "addr:country": "US", "addr:postcode": "97118", "addr:state": "OR", "addr:street_address": "511 ACACIA ST", "amenity": "post_box", "collection_times": "Mo-Fr 14:00; Sa 10:15", "note": "ON 12/24 AND 12/31, THIS BOX MAY BE COLLECTED AS EARLY AS 12 NOON.", "nsi_id": "unitedstatespostalservice-a77078", "operator": "United States Postal Service", "operator:short": "USPS", "operator:type": "public", "operator:wikidata": "Q668687", "ref": "9711800001"}, "type": "Feature"}
{"geometry": {"coordinates": [-123.913633751, 45.560071521], "type": "Point"}, "id": "Kk3yG183FkzMZv6JZBL-F9dS_K8=", "properties": {"@source_uri": "https://tools.usps.com/UspsToolsRestServices/rest/POLocator/findLocations", "@spider": "usps_collection_boxes", "addr:city": "GARIBALDI", "addr:country": "US", "addr:postcode": "97118", "addr:state": "OR", "addr:street_address": "511 ACACIA ST", "amenity": "post_box", "collection_times": "Mo-Fr 16:45", "indoor": "yes", "note": "ON 12/24 AND 12/31, THIS BOX MAY BE COLLECTED AS EARLY AS 12 NOON.", "nsi_id": "unitedstatespostalservice-a77078", "operator": "United States Postal Service", "operator:short": "USPS", "operator:type": "public", "operator:wikidata": "Q668687", "ref": "9711800003"}, "type": "Feature"}
{"geometry": {"coordinates": [-123.139652, 45.433061], "type": "Point"}, "id": "yVd0PAis0wkfU00gL7ir1xccxcU=", "properties": {"@source_uri": "https://tools.usps.com/UspsToolsRestServices/rest/POLocator/findLocations", "@spider": "usps_collection_boxes", "addr:city": "GASTON", "addr:country": "US", "addr:postcode": "97119", "addr:state": "OR", "addr:street_address": "29895 NW OLSON RD", "amenity": "post_box", "collection_times": "Mo-Fr 16:30; Sa 09:30", "note": "ON 12/24 AND 12/31, THIS BOX MAY BE COLLECTED AS EARLY AS 12 NOON.", "nsi_id": "unitedstatespostalservice-a77078", "operator": "United States Postal Service", "operator:short": "USPS", "operator:type": "public", "operator:wikidata": "Q668687", "ref": "9711900001"}, "type": "Feature"}
{"geometry": {"coordinates": [-123.139717, 45.433148], "type": "Point"}, "id": "XcJtDEWvAIYJBKSfFYVwuaQeNsU=", "properties": {"@source_uri": "https://tools.usps.com/UspsToolsRestServices/rest/POLocator/findLocations", "@spider": "usps_collection_boxes", "addr:city": "GASTON", "addr:country": "US", "addr:postcode": "97119", "addr:state": "OR", "addr:street_address": "29895 NW OLSON RD", "amenity": "post_box", "collection_times": "Mo-Fr 16:30; Sa 09:30", "indoor": "yes", "note": "ON 12/24 AND 12/31, THIS BOX MAY BE COLLECTED AS EARLY AS 12 NOON.", "nsi_id": "unitedstatespostalservice-a77078", "operator": "United States Postal Service", "operator:short": "USPS", "operator:type": "public", "operator:wikidata": "Q668687", "ref": "9711900002"}, "type": "Feature"}
{"geometry": {"coordinates": [-123.139321945, 45.432740283], "type": "Point"}, "id": "COMsedFfhn4YNop5zCA01MBlXxY=", "properties": {"@source_uri": "https://tools.usps.com/UspsToolsRestServices/rest/POLocator/findLocations", "@spider": "usps_collection_boxes", "addr:city": "GASTON", "addr:country": "US", "addr:postcode": "97119", "addr:state": "OR", "addr:street_address": "29895 NW OLSON RD", "amenity": "post_box", "collection_times": "Mo-Fr 16:30", "indoor": "yes", "note": "ON 12/24 AND 12/31, THIS BOX MAY BE COLLECTED AS EARLY AS 12 NOON.", "nsi_id": "unitedstatespostalservice-a77078", "operator": "United States Postal Service", "operator:short": "USPS", "operator:type": "public", "operator:wikidata": "Q668687", "ref": "9711900003"}, "type": "Feature"}
{"geometry": {"coordinates": [-123.949571, 46.199221], "type": "Point"}, "id": "i7LT4qLRqbzfEq2Rr8qCDWnmPS4=", "properties": {"@source_uri": "https://tools.usps.com/UspsToolsRestServices/rest/POLocator/findLocations", "@spider": "usps_collection_boxes", "addr:city": "HAMMOND", "addr:country": "US", "addr:postcode": "97121", "addr:state": "OR", "addr:street_address": "906 PACIFIC DR", "amenity": "post_box", "collection_times": "Mo-Fr 16:30; Sa 10:30", "note": "ON 12/24 AND 12/31, THIS BOX MAY BE COLLECTED AS EARLY AS 12 NOON.", "nsi_id": "unitedstatespostalservice-a77078", "operator": "United States Postal Service", "operator:short": "USPS", "operator:type": "public", "operator:wikidata": "Q668687", "ref": "9712100001"}, "type": "Feature"}
{"geometry": {"coordinates": [-123.9495681787, 46.199225474], "type": "Point"}, "id": "ZgKQciHQKQ-tKeKjXUF4w6S5yEI=", "properties": {"@source_uri": "https://tools.usps.com/UspsToolsRestServices/rest/POLocator/findLocations", "@spider": "usps_collection_boxes", "addr:city": "HAMMOND", "addr:country": "US", "addr:postcode": "97121", "addr:state": "OR", "addr:street_address": "906 PACIFIC DR", "amenity": "post_box", "collection_times": "Mo-Fr 14:00; Sa 10:30", "indoor": "yes", "note": "ON 12/24 AND 12/31, THIS BOX MAY BE COLLECTED AS EARLY AS 12 NOON.", "nsi_id": "unitedstatespostalservice-a77078", "operator": "United States Postal Service", "operator:short": "USPS", "operator:type": "public", "operator:wikidata": "Q668687", "ref": "9712100002"}, "type": "Feature"}
{"geometry": {"coordinates": [-123.9495681787, 46.199225474], "type": "Point"}, "id": "QZJcwq9bAHTYQMyqwfey4XctwTk=", "properties": {"@source_uri": "https://tools.usps.com/UspsToolsRestServices/rest/POLocator/findLocations", "@spider": "usps_collection_boxes", "addr:city": "HAMMOND", "addr:country": "US", "addr:postcode": "97121", "addr:state": "OR", "addr:street_address": "906 PACIFIC DR", "amenity": "post_box", "collection_times": "Mo-Fr 14:00", "indoor": "yes", "note": "ON 12/24 AND 12/31, THIS BOX MAY BE COLLECTED AS EARLY AS 12 NOON.", "nsi_id": "unitedstatespostalservice-a77078", "operator": "United States Postal Service", "operator:short": "USPS", "operator:type": "public", "operator:wikidata": "Q668687", "ref": "9712100003"}, "type": "Feature"}
{"geometry": {"coordinates": [-123.862306, 45.229584], "type": "Point"}, "id": "sy-d2Bq95VjaSIu5DkgYb1SIxNM=", "properties": {"@source_uri": "https://tools.usps.com/UspsToolsRestServices/rest/POLocator/findLocations", "@spider": "usps_collection_boxes", "addr:city": "HEBO", "addr:country": "US", "addr:postcode": "97122", "addr:state": "OR", "addr:street_address": "31155 HIGHWAY 101 S", "amenity": "post_box", "collection_times": "Mo-Fr 15:45; Sa 09:30", "note": "ON 12/24 AND 12/31, THIS BOX MAY BE COLLECTED AS EARLY AS 12 NOON.", "nsi_id": "unitedstatespostalservice-a77078", "operator": "United States Postal Service", "operator:short": "USPS", "operator:type": "public", "operator:wikidata": "Q668687", "ref": "9712200001"}, "type": "Feature"}
{"geometry": {"coordinates": [-123.862306, 45.229584], "type": "Point"}, "id": "B4noqVc8y4EHivyL6nKfGyUfCKs=", "properties": {"@source_uri": "https://tools.usps.com/UspsToolsRestServices/rest/POLocator/findLocations", "@spider": "usps_collection_boxes", "addr:city": "HEBO", "addr:country": "US", "addr:postcode": "97122", "addr:state": "OR", "addr:street_address": "31155 HIGHWAY 101 S", "amenity": "post_box", "collection_times": "Mo-Fr 13:00; Sa 09:30", "indoor": "yes", "note": "ON 12/24 AND 12/31, THIS BOX MAY BE COLLECTED AS EARLY AS 12 NOON.", "nsi_id": "unitedstatespostalservice-a77078", "operator": "United States Postal Service", "operator:short": "USPS", "operator:type": "public", "operator:wikidata": "Q668687", "ref": "9712200002"}, "type": "Feature"}
{"geometry": {"coordinates": [-123.862249845, 45.229606387], "type": "Point"}, "id": "rh-0ohBiVKi_L4NvghOovEDpmIk=", "properties": {"@source_uri": "https://tools.usps.com/UspsToolsRestServices/rest/POLocator/findLocations", "@spider": "usps_collection_boxes", "addr:city": "HEBO", "addr:country": "US", "addr:postcode": "97122", "addr:state": "OR", "addr:street_address": "31155 HIGHWAY 101 S", "amenity": "post_box", "collection_times": "Mo-Fr 16:00", "indoor": "yes", "note": "ON 12/24 AND 12/31, THIS BOX MAY BE COLLECTED AS EARLY AS 12 NOON.", "nsi_id": "unitedstatespostalservice-a77078", "operator": "United States Postal Service", "operator:short": "USPS", "operator:type": "public", "operator:wikidata": "Q668687", "ref": "9712200003"}, "type": "Feature"}
{"geometry": {"coordinates": [-122.9751434177, 45.5187185323], "type": "Point"}, "id": "EveqnwC0ksCMGgUguocTpyhb6uE=", "properties": {"@source_uri": "https://tools.usps.com/UspsToolsRestServices/rest/POLocator/findLocations", "@spider": "usps_collection_boxes", "addr:city": "HILLSBORO", "addr:country": "US", "addr:postcode": "97123", "addr:state": "OR", "addr:street_address": "900 SE OAK ST", "amenity": "post_box", "collection_times": "Mo-Sa 09:45", "nsi_id": "unitedstatespostalservice-a77078", "operator": "United States Postal Service", "operator:short": "USPS", "operator:type": "public", "operator:wikidata": "Q668687", "ref": "9712300003"}, "type": "Feature"}
{"geometry": {"coordinates": [-122.983802361, 45.522570492], "type": "Point"}, "id": "l8skW8bPReoQnnGX-SnOk12C5YM=", "properties": {"@source_uri": "https://tools.usps.com/UspsToolsRestServices/rest/POLocator/findLocations", "@spider": "usps_collection_boxes", "addr:city": "HILLSBORO", "addr:country": "US", "addr:postcode": "97123", "addr:state": "OR", "addr:street_address": "400 E MAIN ST", "amenity": "post_box", "collection_times": "Mo-Sa 09:45", "nsi_id": "unitedstatespostalservice-a77078", "operator": "United States Postal Service", "operator:short": "USPS", "operator:type": "public", "operator:wikidata": "Q668687", "ref": "9712300005"}, "type": "Feature"}
{"geometry": {"coordinates": [-122.986388, 45.522694], "type": "Point"}, "id": "U3JUzoBrnwLSik-IWpwvYLs0JeQ=", "properties": {"@source_uri": "https://tools.usps.com/UspsToolsRestServices/rest/POLocator/findLocations", "@spider": "usps_collection_boxes", "addr:city": "HILLSBORO", "addr:country": "US", "addr:postcode": "97123", "addr:state": "OR", "addr:street_address": "300 E MAIN ST", "amenity": "post_box", "collection_times": "Mo-Sa 09:45", "nsi_id": "unitedstatespostalservice-a77078", "operator": "United States Postal Service", "operator:short": "USPS", "operator:type": "public", "operator:wikidata": "Q668687", "ref": "9712300007"}, "type": "Feature"}
{"geometry": {"coordinates": [-122.987973, 45.5228], "type": "Point"}, "id": "XlXzYBr8FTIVw29fz-VHkuXOKo0=", "properties": {"@source_uri": "https://tools.usps.com/UspsToolsRestServices/rest/POLocator/findLocations", "@spider": "usps_collection_boxes", "addr:city": "HILLSBORO", "addr:country": "US", "addr:postcode": "97123", "addr:state": "OR", "addr:street_address": "200 E MAIN ST", "amenity": "post_box", "collection_times": "Mo-Sa 10:00", "nsi_id": "unitedstatespostalservice-a77078", "operator": "United States Postal Service", "operator:short": "USPS", "operator:type": "public", "operator:wikidata": "Q668687", "ref": "9712300013"}, "type": "Feature"}
{"geometry": {"coordinates": [-122.96216, 45.508829], "type": "Point"}, "id": "2QFUtsIA71F8aPjT_ohAjOxVW-w=", "properties": {"@source_uri": "https://tools.usps.com/UspsToolsRestServices/rest/POLocator/findLocations", "@spider": "usps_collection_boxes", "addr:city": "HILLSBORO", "addr:country": "US", "addr:postcode": "97123", "addr:state": "OR", "addr:street_address": "2075 SE TUALATIN VALLEY HWY", "amenity": "post_box", "collection_times": "Mo-Sa 10:00", "nsi_id": "unitedstatespostalservice-a77078", "operator": "United States Postal Service", "operator:short": "USPS", "operator:type": "public", "operator:wikidata": "Q668687", "ref": "9712300017"}, "type": "Feature"}
{"geometry": {"coordinates": [-122.972013, 45.512446], "type": "Point"}, "id": "9d9_6yuCKTQp_HRFMJIUG1Ya4YY=", "properties": {"@source_uri": "https://tools.usps.com/UspsToolsRestServices/rest/POLocator/findLocations", "@spider": "usps_collection_boxes", "addr:city": "HILLSBORO", "addr:country": "US", "addr:postcode": "97123", "addr:state": "OR", "addr:street_address": "1001 SE TV HWY", "amenity": "post_box", "collection_times": "Mo-Sa 09:45", "nsi_id": "unitedstatespostalservice-a77078", "operator": "United States Postal Service", "operator:short": "USPS", "operator:type": "public", "operator:wikidata": "Q668687", "ref": "9712300018"}, "type": "Feature"}
{"geometry": {"coordinates": [-122.955308, 45.506229], "type": "Point"}, "id": "ukO2o8JdioHuK11u-YBSZ7DKfXg=", "properties": {"@source_uri": "https://tools.usps.com/UspsToolsRestServices/rest/POLocator/findLocations", "@spider": "usps_collection_boxes", "addr:city": "HILLSBORO", "addr:country": "US", "addr:postcode": "97123", "addr:state": "OR", "addr:street_address": "2459 SE TUALATIN VALLEY HWY", "amenity": "post_box", "collection_times": "Mo-Sa 10:00", "nsi_id": "unitedstatespostalservice-a77078", "operator": "United States Postal Service", "operator:short": "USPS", "operator:type": "public", "operator:wikidata": "Q668687", "ref": "9712300026"}, "type": "Feature"}
{"geometry": {"coordinates": [-122.98983, 45.52226], "type": "Point"}, "id": "JHmiyIa0u5XsBu4c8uFvg-1qanw=", "properties": {"@source_uri": "https://tools.usps.com/UspsToolsRestServices/rest/POLocator/findLocations", "@spider": "usps_collection_boxes", "addr:city": "HILLSBORO", "addr:country": "US", "addr:postcode": "97123", "addr:state": "OR", "addr:street_address": "125 S 1ST AVE", "amenity": "post_box", "collection_times": "Mo-Fr 16:45; Sa 13:15", "note": "ON 12/24 AND 12/31, THIS BOX MAY BE COLLECTED AS EARLY AS 12 NOON.", "nsi_id": "unitedstatespostalservice-a77078", "operator": "United States Postal Service", "operator:short": "USPS", "operator:type": "public", "operator:wikidata": "Q668687", "ref": "9712300031"}, "type": "Feature"}
{"geometry": {"coordinates": [-122.98983, 45.52226], "type": "Point"}, "id": "WX0Sincrxnh-6_fnC48gcZUBqTw=", "properties": {"@source_uri": "https://tools.usps.com/UspsToolsRestServices/rest/POLocator/findLocations", "@spider": "usps_collection_boxes", "addr:city": "HILLSBORO", "addr:country": "US", "addr:postcode": "97123", "addr:state": "OR", "addr:street_address": "125 S 1ST AVE", "amenity": "post_box", "collection_times": "Mo-Fr 16:45; Sa 13:15", "note": "ON 12/24 AND 12/31, THIS BOX MAY BE COLLECTED AS EARLY AS 12 NOON.", "nsi_id": "unitedstatespostalservice-a77078", "operator": "United States Postal Service", "operator:short": "USPS", "operator:type": "public", "operator:wikidata": "Q668687", "ref": "9712300032"}, "type": "Feature"}
{"geometry": {"coordinates": [-122.98983, 45.52226], "type": "Point"}, "id": "GSJIsT1RFEabtA1K6Ov1iBAbV5o=", "properties": {"@source_uri": "https://tools.usps.com/UspsToolsRestServices/rest/POLocator/findLocations", "@spider": "usps_collection_boxes", "addr:city": "HILLSBORO", "addr:country": "US", "addr:postcode": "97123", "addr:state": "OR", "addr:street_address": "125 S 1ST AVE", "amenity": "post_box", "collection_times": "Mo-Fr 17:00; Sa 13:30", "indoor": "yes", "note": "ON 12/24 AND 12/31, THIS BOX MAY BE COLLECTED AS EARLY AS 12 NOON.", "nsi_id": "unitedstatespostalservice-a77078", "operator": "United States Postal Service", "operator:short": "USPS", "operator:type": "public", "operator:wikidata": "Q668687", "ref": "9712300051"}, "type": "Feature"}
{"geometry": {"coordinates": [-122.9789706545, 45.5199549874], "type": "Point"}, "id": "x-zf409BcMRXK5-vHJKTSJ6hf_I=", "properties": {"@source_uri": "https://tools.usps.com/UspsToolsRestServices/rest/POLocator/findLocations", "@spider": "usps_collection_boxes", "addr:city": "HILLSBORO", "addr:country": "US", "addr:postcode": "97123", "addr:state": "OR", "addr:street_address": "6495 SW TV HWY", "amenity": "post_box", "collection_times": "Mo-Sa 15:00", "note": "ON 12/24 AND 12/31, THIS BOX MAY BE COLLECTED AS EARLY AS 12 NOON.", "nsi_id": "unitedstatespostalservice-a77078", "operator": "United States Postal Service", "operator:short": "USPS", "operator:type": "public", "operator:wikidata": "Q668687", "ref": "9712300055"}, "type": "Feature"}
{"geometry": {"coordinates": [-122.951945, 45.503014], "type": "Point"}, "id": "4AYLO3yvjhytce4emzmVvIQ12Ps=", "properties": {"@source_uri": "https://tools.usps.com/UspsToolsRestServices/rest/POLocator/findLocations", "@spider": "usps_collection_boxes", "addr:city": "HILLSBORO", "addr:country": "US", "addr:postcode": "97123", "addr:state": "OR", "addr:street_address": "6495 SW TUALATIN VALLEY HWY", "amenity": "post_box", "collection_times": "Mo-Sa 15:00", "note": "ON 12/24 AND 12/31, THIS BOX MAY BE COLLECTED AS EARLY AS 12 NOON.", "nsi_id": "unitedstatespostalservice-a77078", "operator": "United States Postal Service", "operator:short": "USPS", "operator:type": "public", "operator:wikidata": "Q668687", "ref": "9712300056"}, "type": "Feature"}
{"geometry": {"coordinates": [-122.98983, 45.52226], "type": "Point"}, "id": "SsCpvG0l__JVY3HmFcvCpx4DUkE=", "properties": {"@source_uri": "https://tools.usps.com/UspsToolsRestServices/rest/POLocator/findLocations", "@spider": "usps_collection_boxes", "addr:city": "HILLSBORO", "addr:country": "US", "addr:postcode": "97123", "addr:state": "OR", "addr:street_address": "125 S 1ST AVE", "amenity": "post_box", "collection_times": "Mo-Fr 17:00; Sa 13:30", "indoor": "yes", "note": "ON 12/24 AND 12/31, THIS BOX MAY BE COLLECTED AS EARLY AS 12 NOON.", "nsi_id": "unitedstatespostalservice-a77078", "operator": "United States Postal Service", "operator:short": "USPS", "operator:type": "public", "operator:wikidata": "Q668687", "ref": "9712300057"}, "type": "Feature"}
{"geometry": {"coordinates": [-122.97943, 45.518795], "type": "Point"}, "id": "6zEznxObnPT9CtIkxGicMYwxdtw=", "properties": {"@source_uri": "https://tools.usps.com/UspsToolsRestServices/rest/POLocator/findLocations", "@spider": "usps_collection_boxes", "addr:city": "HILLSBORO", "addr:country": "US", "addr:postcode": "97123", "addr:state": "OR", "addr:street_address": "1330 SW WALNUT ST", "amenity": "post_box", "collection_times": "Mo-Fr 17:00; Sa 13:00", "note": "ON 12/24 AND 12/31, THIS BOX MAY BE COLLECTED AS EARLY AS 12 NOON.", "nsi_id": "unitedstatespostalservice-a77078", "operator": "United States Postal Service", "operator:short": "USPS", "operator:type": "public", "operator:wikidata": "Q668687", "ref": "9712300059"}, "type": "Feature"}
{"geometry": {"coordinates": [-122.923, 45.531834], "type": "Point"}, "id": "PWBWFNS9Pi5l7y7_rI8QhCtdumk=", "properties": {"@source_uri": "https://tools.usps.com/UspsToolsRestServices/rest/POLocator/findLocations", "@spider": "usps_collection_boxes", "addr:city": "HILLSBORO", "addr:country": "US", "addr:postcode": "97123", "addr:state": "OR", "addr:street_address": "5625 NE ELAM YOUNG PKWY", "amenity": "post_box", "collection_times": "Mo-Fr 14:45", "note": "ON 12/24 AND 12/31, THIS BOX MAY BE COLLECTED AS EARLY AS 12 NOON.", "nsi_id": "unitedstatespostalservice-a77078", "operator": "United States Postal Service", "operator:short": "USPS", "operator:type": "public", "operator:wikidata": "Q668687", "ref": "9712300061"}, "type": "Feature"}
{"geometry": {"coordinates": [-122.98983, 45.52226], "type": "Point"}, "id": "7RNXxqRTqWrMddGfi1AoHI-ARpY=", "properties": {"@source_uri": "https://tools.usps.com/UspsToolsRestServices/rest/POLocator/findLocations", "@spider": "usps_collection_boxes", "addr:city": "HILLSBORO", "addr:country": "US", "addr:postcode": "97123", "addr:state": "OR", "addr:street_address": "125 S 1ST AVE", "amenity": "post_box", "collection_times": "Mo-Fr 17:00; Sa 13:30", "name": "USPS COLLECTION BOX - APC", "note": "ON 12/24 AND 12/31, THIS BOX MAY BE COLLECTED AS EARLY AS 12 NOON.", "nsi_id": "unitedstatespostalservice-a77078", "operator": "United States Postal Service", "operator:short": "USPS", "operator:type": "public", "operator:wikidata": "Q668687", "ref": "9712300062"}, "type": "Feature"}
{"geometry": {"coordinates": [-123.003947, 45.517295], "type": "Point"}, "id": "Xizq_XyuZmNXbI32JjOmboQ6hsI=", "properties": {"@source_uri": "https://tools.usps.com/UspsToolsRestServices/rest/POLocator/findLocations", "@spider": "usps_collection_boxes", "addr:city": "HILLSBORO", "addr:country": "US", "addr:postcode": "97123", "addr:state": "OR", "addr:street_address": "1330 SW WALNUT ST", "amenity": "post_box", "collection_times": "Mo-Fr 17:00; Sa 13:00", "indoor": "yes", "note": "ON 12/24 AND 12/31, THIS BOX MAY BE COLLECTED AS EARLY AS 12 NOON.", "nsi_id": "unitedstatespostalservice-a77078", "operator": "United States Postal Service", "operator:short": "USPS", "operator:type": "public", "operator:wikidata": "Q668687", "ref": "9712300063"}, "type": "Feature"}
{"geometry": {"coordinates": [-122.9021101155, 45.4989953511], "type": "Point"}, "id": "COHcxuLCCk6vj-Wt14C3sR02Mkk=", "properties": {"@source_uri": "https://tools.usps.com/UspsToolsRestServices/rest/POLocator/findLocations", "@spider": "usps_collection_boxes", "addr:city": "HILLSBORO", "addr:country": "US", "addr:postcode": "97123", "addr:state": "OR", "addr:street_address": "2900 SW CORNELIUS PASS RD", "amenity": "post_box", "collection_times": "Mo-Sa 10:00", "nsi_id": "unitedstatespostalservice-a77078", "operator": "United States Postal Service", "operator:short": "USPS", "operator:type": "public", "operator:wikidata": "Q668687", "ref": "9712300067"}, "type": "Feature"}
{"geometry": {"coordinates": [-122.9898327396, 45.5222608637], "type": "Point"}, "id": "rHMjNtn9wRTVygw8Qry7d0mmdy4=", "properties": {"@source_uri": "https://tools.usps.com/UspsToolsRestServices/rest/POLocator/findLocations", "@spider": "usps_collection_boxes", "addr:city": "HILLSBORO", "addr:country": "US", "addr:postcode": "97123", "addr:state": "OR", "addr:street_address": "125 S 1ST AVE", "amenity": "post_box", "collection_times": "Mo-Fr 17:00; Sa 13:30", "indoor": "yes", "note": "ON 12/24 AND 12/31, THIS BOX MAY BE COLLECTED AS EARLY AS 12 NOON.", "nsi_id": "unitedstatespostalservice-a77078", "operator": "United States Postal Service", "operator:short": "USPS", "operator:type": "public", "operator:wikidata": "Q668687", "ref": "9712300068"}, "type": "Feature"}
{"geometry": {"coordinates": [-122.869449, 45.536625], "type": "Point"}, "id": "Ic88US8R2VaswPNYDZyNP7u7jdk=", "properties": {"@source_uri": "https://tools.usps.com/UspsToolsRestServices/rest/POLocator/findLocations", "@spider": "usps_collection_boxes", "addr:city": "HILLSBORO", "addr:country": "US", "addr:postcode": "97124", "addr:state": "OR", "addr:street_address": "2285 NW 185TH AVE", "amenity": "post_box", "collection_times": "Mo-Sa 11:30", "nsi_id": "unitedstatespostalservice-a77078", "operator": "United States Postal Service", "operator:short": "USPS", "operator:type": "public", "operator:wikidata": "Q668687", "ref": "9712400002"}, "type": "Feature"}
{"geometry": {"coordinates": [-122.947471, 45.532953], "type": "Point"}, "id": "nw4H8Rw_dwPTIVCZSv-S8rjqLSo=", "properties": {"@source_uri": "https://tools.usps.com/UspsToolsRestServices/rest/POLocator/findLocations", "@spider": "usps_collection_boxes", "addr:city": "HILLSBORO", "addr:country": "US", "addr:postcode": "97124", "addr:state": "OR", "addr:street_address": "3355 NE CORNELL RD", "amenity": "post_box", "collection_times": "Mo-Fr 14:30; Sa 13:00", "note": "ON 12/24 AND 12/31, THIS BOX MAY BE COLLECTED AS EARLY AS 12 NOON.", "nsi_id": "unitedstatespostalservice-a77078", "operator": "United States Postal Service", "operator:short": "USPS", "operator:type": "public", "operator:wikidata": "Q668687", "ref": "9712400008"}, "type": "Feature"}
{"geometry": {"coordinates": [-122.9189, 45.534534], "type": "Point"}, "id": "mNz4s2q5uPPRXpmw16VqjssyOac=", "properties": {"@source_uri": "https://tools.usps.com/UspsToolsRestServices/rest/POLocator/findLocations", "@spider": "usps_collection_boxes", "addr:city": "HILLSBORO", "addr:country": "US", "addr:postcode": "97124", "addr:state": "OR", "addr:street_address": "1443 NE 61ST AVE", "amenity": "post_box", "collection_times": "Mo-Sa 12:00", "nsi_id": "unitedstatespostalservice-a77078", "operator": "United States Postal Service", "operator:short": "USPS", "operator:type": "public", "operator:wikidata": "Q668687", "ref": "9712400011"}, "type": "Feature"}
{"geometry": {"coordinates": [-122.9466858, 45.5511004], "type": "Point"}, "id": "ikZodx5RbXrxijVm3ghBZNPATWA=", "properties": {"@source_uri": "https://tools.usps.com/UspsToolsRestServices/rest/POLocator/findLocations", "@spider": "usps_collection_boxes", "addr:city": "HILLSBORO", "addr:country": "US", "addr:postcode": "97124", "addr:state": "OR", "addr:street_address": "1443 NE 61ST AVE", "amenity": "post_box", "collection_times": "Mo-Sa 12:00", "nsi_id": "unitedstatespostalservice-a77078", "operator": "United States Postal Service", "operator:short": "USPS", "operator:type": "public", "operator:wikidata": "Q668687", "ref": "9712400012"}, "type": "Feature"}
{"geometry": {"coordinates": [-122.9468630907, 45.5713744755], "type": "Point"}, "id": "MMxM-TlLyPCIe8rQmJVjEV3iIh0=", "properties": {"@source_uri": "https://tools.usps.com/UspsToolsRestServices/rest/POLocator/findLocations", "@spider": "usps_collection_boxes", "addr:city": "HILLSBORO", "addr:country": "US", "addr:postcode": "97124", "addr:state": "OR", "addr:street_address": "22075 NE IMBRIE DR", "amenity": "post_box", "collection_times": "Mo-Sa 12:00", "nsi_id": "unitedstatespostalservice-a77078", "operator": "United States Postal Service", "operator:short": "USPS", "operator:type": "public", "operator:wikidata": "Q668687", "ref": "9712400013"}, "type": "Feature"}
{"geometry": {"coordinates": [-122.9336, 45.545847], "type": "Point"}, "id": "oKzwa-HRtGErwdvYFfyleZXIqws=", "properties": {"@source_uri": "https://tools.usps.com/UspsToolsRestServices/rest/POLocator/findLocations", "@spider": "usps_collection_boxes", "addr:city": "HILLSBORO", "addr:country": "US", "addr:postcode": "97124", "addr:state": "OR", "addr:street_address": "3083 NE 49TH PL", "amenity": "post_box", "collection_times": "Mo-Fr 14:30", "note": "ON 12/24 AND 12/31, THIS BOX MAY BE COLLECTED AS EARLY AS 12 NOON.", "nsi_id": "unitedstatespostalservice-a77078", "operator": "United States Postal Service", "operator:short": "USPS", "operator:type": "public", "operator:wikidata": "Q668687", "ref": "9712400018"}, "type": "Feature"}
{"geometry": {"coordinates": [-122.91616, 45.52828], "type": "Point"}, "id": "IwNmfMqf6jjeJcpkitkM1s80AQc=", "properties": {"@source_uri": "https://tools.usps.com/UspsToolsRestServices/rest/POLocator/findLocations", "@spider": "usps_collection_boxes", "addr:city": "HILLSBORO", "addr:country": "US", "addr:postcode": "97124", "addr:state": "OR", "addr:street_address": "3685 NE ALOCLEK DR", "amenity": "post_box", "collection_times": "Mo-Fr 14:30; Sa 13:00", "note": "ON 12/24 AND 12/31, THIS BOX MAY BE COLLECTED AS EARLY AS 12 NOON.", "nsi_id": "unitedstatespostalservice-a77078", "operator": "United States Postal Service", "operator:short": "USPS", "operator:type": "public", "operator:wikidata": "Q668687", "ref": "9712400020"}, "type": "Feature"}
{"geometry": {"coordinates": [-122.902715, 45.551482], "type": "Point"}, "id": "Pa2Qjaj7seCKggkxoqhe3EJdis4=", "properties": {"@source_uri": "https://tools.usps.com/UspsToolsRestServices/rest/POLocator/findLocations", "@spider": "usps_collection_boxes", "addr:city": "HILLSBORO", "addr:country": "US", "addr:postcode": "97124", "addr:state": "OR", "addr:street_address": "22075 NW IMBRIE DR", "amenity": "post_box", "collection_times": "Mo-Sa 12:00", "nsi_id": "unitedstatespostalservice-a77078", "operator": "United States Postal Service", "operator:short": "USPS", "operator:type": "public", "operator:wikidata": "Q668687", "ref": "9712400023"}, "type": "Feature"}
{"geometry": {"coordinates": [-122.870084039, 45.535510008], "type": "Point"}, "id": "F_qLYTw_k72O2vSqJxJW0CIHTyk=", "properties": {"@source_uri": "https://tools.usps.com/UspsToolsRestServices/rest/POLocator/findLocations", "@spider": "usps_collection_boxes", "addr:city": "HILLSBORO", "addr:country": "US", "addr:postcode": "97124", "addr:state": "OR", "addr:street_address": "2121 NW 185TH AVE", "amenity": "post_box", "collection_times": "Mo-Sa 11:30", "nsi_id": "unitedstatespostalservice-a77078", "operator": "United States Postal Service", "operator:short": "USPS", "operator:type": "public", "operator:wikidata": "Q668687", "ref": "9712400025"}, "type": "Feature"}
{"geometry": {"coordinates": [-123.113453, 45.243625], "type": "Point"}, "id": "vx0mcPAJv0D7kbqfeEdl2XKGgkM=", "properties": {"@source_uri": "https://tools.usps.com/UspsToolsRestServices/rest/POLocator/findLocations", "@spider": "usps_collection_boxes", "addr:city": "LAFAYETTE", "addr:country": "US", "addr:postcode": "97127", "addr:state": "OR", "addr:street_address": "491 3RD ST", "amenity": "post_box", "collection_times": "Mo-Fr 16:45; Sa 09:30", "note": "ON 12/24 AND 12/31, THIS BOX MAY BE COLLECTED AS EARLY AS 12 NOON.", "nsi_id": "unitedstatespostalservice-a77078", "operator": "United States Postal Service", "operator:short": "USPS", "operator:type": "public", "operator:wikidata": "Q668687", "ref": "9712700001"}, "type": "Feature"}
{"geometry": {"coordinates": [-123.113453, 45.243625], "type": "Point"}, "id": "MNqBwX6j2ki1g4IsaKzLQI1Kenk=", "properties": {"@source_uri": "https://tools.usps.com/UspsToolsRestServices/rest/POLocator/findLocations", "@spider": "usps_collection_boxes", "addr:city": "LAFAYETTE", "addr:country": "US", "addr:postcode": "97127", "addr:state": "OR", "addr:street_address": "491 3RD ST", "amenity": "post_box", "collection_times": "Mo-Fr 16:30; Sa 09:30", "indoor": "yes", "note": "ON 12/24 AND 12/31, THIS BOX MAY BE COLLECTED AS EARLY AS 12 NOON.", "nsi_id": "unitedstatespostalservice-a77078", "operator": "United States Postal Service", "operator:short": "USPS", "operator:type": "public", "operator:wikidata": "Q668687", "ref": "9712700003"}, "type": "Feature"}
{"geometry": {"coordinates": [-123.113369655, 45.243724842], "type": "Point"}, "id": "OpZ3c_-BH-DGLl8to9df17NOylo=", "properties": {"@source_uri": "https://tools.usps.com/UspsToolsRestServices/rest/POLocator/findLocations", "@spider": "usps_collection_boxes", "addr:city": "LAFAYETTE", "addr:country": "US", "addr:postcode": "97127", "addr:state": "OR", "addr:street_address": "491 3RD ST", "amenity": "post_box", "collection_times": "Mo-Fr 17:00", "indoor": "yes", "note": "ON 12/24 AND 12/31, THIS BOX MAY BE COLLECTED AS EARLY AS 12 NOON.", "nsi_id": "unitedstatespostalservice-a77078", "operator": "United States Postal Service", "operator:short": "USPS", "operator:type": "public", "operator:wikidata": "Q668687", "ref": "9712700004"}, "type": "Feature"}
{"geometry": {"coordinates": [-123.185245, 45.226681], "type": "Point"}, "id": "9U_ioB9Y0LZeGtfMXYmAMalAPs0=", "properties": {"@source_uri": "https://tools.usps.com/UspsToolsRestServices/rest/POLocator/findLocations", "@spider": "usps_collection_boxes", "addr:city": "MCMINNVILLE", "addr:country": "US", "addr:postcode": "97128", "addr:state": "OR", "addr:street_address": "1371 NE HIGHWAY 99W", "amenity": "post_box", "collection_times": "Mo-Fr 17:00", "note": "ON 12/24 AND 12/31, THIS BOX MAY BE COLLECTED AS EARLY AS 12 NOON.", "nsi_id": "unitedstatespostalservice-a77078", "operator": "United States Postal Service", "operator:short": "USPS", "operator:type": "public", "operator:wikidata": "Q668687", "ref": "9712800005"}, "type": "Feature"}
{"geometry": {"coordinates": [-123.18687, 45.225049], "type": "Point"}, "id": "XX3bg7YX4dqYM0jYYI4vAz_CGvk=", "properties": {"@source_uri": "https://tools.usps.com/UspsToolsRestServices/rest/POLocator/findLocations", "@spider": "usps_collection_boxes", "addr:city": "MCMINNVILLE", "addr:country": "US", "addr:postcode": "97128", "addr:state": "OR", "addr:street_address": "1150 NE HIGHWAY 99W", "amenity": "post_box", "collection_times": "Mo-Fr 17:00", "note": "ON 12/24 AND 12/31, THIS BOX MAY BE COLLECTED AS EARLY AS 12 NOON.", "nsi_id": "unitedstatespostalservice-a77078", "operator": "United States Postal Service", "operator:short": "USPS", "operator:type": "public", "operator:wikidata": "Q668687", "ref": "9712800006"}, "type": "Feature"}
{"geometry": {"coordinates": [-123.193712, 45.211504], "type": "Point"}, "id": "SHSD8DM9EhahbCMmCbljXzoMWrY=", "properties": {"@source_uri": "https://tools.usps.com/UspsToolsRestServices/rest/POLocator/findLocations", "@spider": "usps_collection_boxes", "addr:city": "MCMINNVILLE", "addr:country": "US", "addr:postcode": "97128", "addr:state": "OR", "addr:street_address": "535 E 5TH ST", "amenity": "post_box", "collection_times": "Mo-Fr 16:30", "note": "ON 12/24 AND 12/31, THIS BOX MAY BE COLLECTED AS EARLY AS 12 NOON.", "nsi_id": "unitedstatespostalservice-a77078", "operator": "United States Postal Service", "operator:short": "USPS", "operator:type": "public", "operator:wikidata": "Q668687", "ref": "9712800007"}, "type": "Feature"}
{"geometry": {"coordinates": [-123.197554, 45.217649], "type": "Point"}, "id": "f6xeWCAyyJifkdhCY0zs8yTy_38=", "properties": {"@source_uri": "https://tools.usps.com/UspsToolsRestServices/rest/POLocator/findLocations", "@spider": "usps_collection_boxes", "addr:city": "MCMINNVILLE", "addr:country": "US", "addr:postcode": "97128", "addr:state": "OR", "addr:street_address": "1470 NE BAKER ST", "amenity": "post_box", "collection_times": "Mo-Fr 16:45", "note": "ON 12/24 AND 12/31, THIS BOX MAY BE COLLECTED AS EARLY AS 12 NOON.", "nsi_id": "unitedstatespostalservice-a77078", "operator": "United States Postal Service", "operator:short": "USPS", "operator:type": "public", "operator:wikidata": "Q668687", "ref": "9712800008"}, "type": "Feature"}
{"geometry": {"coordinates": [-123.19233, 45.209272], "type": "Point"}, "id": "lz4G7LGMLEdhP-wRvbRV4ZQHVNA=", "properties": {"@source_uri": "https://tools.usps.com/UspsToolsRestServices/rest/POLocator/findLocations", "@spider": "usps_collection_boxes", "addr:city": "MCMINNVILLE", "addr:country": "US", "addr:postcode": "97128", "addr:state": "OR", "addr:street_address": "650 NE 2ND ST", "amenity": "post_box", "collection_times": "Mo-Fr 17:30; Sa 16:15", "note": "ON 12/24 AND 12/31, THIS BOX MAY BE COLLECTED AS EARLY AS 12 NOON.", "nsi_id": "unitedstatespostalservice-a77078", "operator": "United States Postal Service", "operator:short": "USPS", "operator:type": "public", "operator:wikidata": "Q668687", "ref": "9712800012"}, "type": "Feature"}
{"geometry": {"coordinates": [-123.19574, 45.210157], "type": "Point"}, "id": "Z2cp_wFrDKp9eyKXYoo9BpqDHLY=", "properties": {"@source_uri": "https://tools.usps.com/UspsToolsRestServices/rest/POLocator/findLocations", "@spider": "usps_collection_boxes", "addr:city": "MCMINNVILLE", "addr:country": "US", "addr:postcode": "97128", "addr:state": "OR", "addr:street_address": "335 NE 3RD ST", "amenity": "post_box", "collection_times": "Mo-Fr 16:30", "note": "ON 12/24 AND 12/31, THIS BOX MAY BE COLLECTED AS EARLY AS 12 NOON.", "nsi_id": "unitedstatespostalservice-a77078", "operator": "United States Postal Service", "operator:short": "USPS", "operator:type": "public", "operator:wikidata": "Q668687", "ref": "9712800013"}, "type": "Feature"}
{"geometry": {"coordinates": [-123.173649, 45.227516], "type": "Point"}, "id": "A3a0UDipzjXQ5zd7GCBy3wHLxZc=", "properties": {"@source_uri": "https://tools.usps.com/UspsToolsRestServices/rest/POLocator/findLocations", "@spider": "usps_collection_boxes", "addr:city": "MCMINNVILLE", "addr:country": "US", "addr:postcode": "97128", "addr:state": "OR", "addr:street_address": "2410 NE HIGHWAY 99W", "amenity": "post_box", "collection_times": "Mo-Fr 17:00", "note": "ON 12/24 AND 12/31, THIS BOX MAY BE COLLECTED AS EARLY AS 12 NOON.", "nsi_id": "unitedstatespostalservice-a77078", "operator": "United States Postal Service", "operator:short": "USPS", "operator:type": "public", "operator:wikidata": "Q668687", "ref": "9712800017"}, "type": "Feature"}
{"geometry": {"coordinates": [-123.207331, 45.197806], "type": "Point"}, "id": "3VERYJoshOPlwjUyequoh6V54Tk=", "properties": {"@source_uri": "https://tools.usps.com/UspsToolsRestServices/rest/POLocator/findLocations", "@spider": "usps_collection_boxes", "addr:city": "MCMINNVILLE", "addr:country": "US", "addr:postcode": "97128", "addr:state": "OR", "addr:street_address": "1595 SW BAKER ST", "amenity": "post_box", "collection_times": "Mo-Fr 16:45", "note": "ON 12/24 AND 12/31, THIS BOX MAY BE COLLECTED AS EARLY AS 12 NOON.", "nsi_id": "unitedstatespostalservice-a77078", "operator": "United States Postal Service", "operator:short": "USPS", "operator:type": "public", "operator:wikidata": "Q668687", "ref": "9712800020"}, "type": "Feature"}
{"geometry": {"coordinates": [-123.165016, 45.199465], "type": "Point"}, "id": "NVZ1hRCVaS7P8SG0qGaeGXHOBu0=", "properties": {"@source_uri": "https://tools.usps.com/UspsToolsRestServices/rest/POLocator/findLocations", "@spider": "usps_collection_boxes", "addr:city": "MCMINNVILLE", "addr:country": "US", "addr:postcode": "97128", "addr:state": "OR", "addr:street_address": "2700 SE THREE MILE LN", "amenity": "post_box", "collection_times": "Mo-Fr 16:30", "note": "ON 12/24 AND 12/31, THIS BOX MAY BE COLLECTED AS EARLY AS 12 NOON.", "nsi_id": "unitedstatespostalservice-a77078", "operator": "United States Postal Service", "operator:short": "USPS", "operator:type": "public", "operator:wikidata": "Q668687", "ref": "9712800021"}, "type": "Feature"}
{"geometry": {"coordinates": [-123.19233, 45.209272], "type": "Point"}, "id": "SNYKvhi4XHLjpdY1sQhgWEFkRAU=", "properties": {"@source_uri": "https://tools.usps.com/UspsToolsRestServices/rest/POLocator/findLocations", "@spider": "usps_collection_boxes", "addr:city": "MCMINNVILLE", "addr:country": "US", "addr:postcode": "97128", "addr:state": "OR", "addr:street_address": "650 NE 2ND ST", "amenity": "post_box", "collection_times": "Mo-Fr 17:30; Sa 16:15", "name": "USPS COLLECTION BOX - APC", "note": "ON 12/24 AND 12/31, THIS BOX MAY BE COLLECTED AS EARLY AS 12 NOON.", "nsi_id": "unitedstatespostalservice-a77078", "operator": "United States Postal Service", "operator:short": "USPS", "operator:type": "public", "operator:wikidata": "Q668687", "ref": "9712800024"}, "type": "Feature"}
{"geometry": {"coordinates": [-123.192332832, 45.209271532], "type": "Point"}, "id": "qlethuZzCAMGXZawIJn_Q434S7g=", "properties": {"@source_uri": "https://tools.usps.com/UspsToolsRestServices/rest/POLocator/findLocations", "@spider": "usps_collection_boxes", "addr:city": "MCMINNVILLE", "addr:country": "US", "addr:postcode": "97128", "addr:state": "OR", "addr:street_address": "650 NE 2ND ST", "amenity": "post_box", "collection_times": "Mo-Fr 17:30", "indoor": "yes", "note": "ON 12/24 AND 12/31, THIS BOX MAY BE COLLECTED AS EARLY AS 12 NOON.", "nsi_id": "unitedstatespostalservice-a77078", "operator": "United States Postal Service", "operator:short": "USPS", "operator:type": "public", "operator:wikidata": "Q668687", "ref": "9712800026"}, "type": "Feature"}
{"geometry": {"coordinates": [-123.935421, 45.718572], "type": "Point"}, "id": "zA80JgC-CjLqKPut9s98BXD5UpA=", "properties": {"@source_uri": "https://tools.usps.com/UspsToolsRestServices/rest/POLocator/findLocations", "@spider": "usps_collection_boxes", "addr:city": "MANZANITA", "addr:country": "US", "addr:postcode": "97130", "addr:state": "OR", "addr:street_address": "370 LANEDA AVE", "amenity": "post_box", "collection_times": "Mo-Fr 15:00; Sa 10:15", "note": "ON 12/24 AND 12/31, THIS BOX MAY BE COLLECTED AS EARLY AS 12 NOON.", "nsi_id": "unitedstatespostalservice-a77078", "operator": "United States Postal Service", "operator:short": "USPS", "operator:type": "public", "operator:wikidata": "Q668687", "ref": "9713000001"}, "type": "Feature"}
{"geometry": {"coordinates": [-123.935421, 45.718572], "type": "Point"}, "id": "eXM81urT-DtLxYdD7w8m4md9jWI=", "properties": {"@source_uri": "https://tools.usps.com/UspsToolsRestServices/rest/POLocator/findLocations", "@spider": "usps_collection_boxes", "addr:city": "MANZANITA", "addr:country": "US", "addr:postcode": "97130", "addr:state": "OR", "addr:street_address": "370 LANEDA AVE", "amenity": "post_box", "collection_times": "Mo-Fr 15:00; Sa 10:15", "indoor": "yes", "note": "ON 12/24 AND 12/31, THIS BOX MAY BE COLLECTED AS EARLY AS 12 NOON.", "nsi_id": "unitedstatespostalservice-a77078", "operator": "United States Postal Service", "operator:short": "USPS", "operator:type": "public", "operator:wikidata": "Q668687", "ref": "9713000002"}, "type": "Feature"}
{"geometry": {"coordinates": [-123.935397854, 45.718516665], "type": "Point"}, "id": "yaYOqu9BaXEPuhosN522_Ph1_FQ=", "properties": {"@source_uri": "https://tools.usps.com/UspsToolsRestServices/rest/POLocator/findLocations", "@spider": "usps_collection_boxes", "addr:city": "MANZANITA", "addr:country": "US", "addr:postcode": "97130", "addr:state": "OR", "addr:street_address": "370 LANEDA AVE", "amenity": "post_box", "collection_times": "Mo-Fr 15:30", "indoor": "yes", "note": "ON 12/24 AND 12/31, THIS BOX MAY BE COLLECTED AS EARLY AS 12 NOON.", "nsi_id": "unitedstatespostalservice-a77078", "operator": "United States Postal Service", "operator:short": "USPS", "operator:type": "public", "operator:wikidata": "Q668687", "ref": "9713000003"}, "type": "Feature"}
{"geometry": {"coordinates": [-123.896921, 45.717697], "type": "Point"}, "id": "7oQLxtIj-VNY3g55iwMA4Jfv6wU=", "properties": {"@source_uri": "https://tools.usps.com/UspsToolsRestServices/rest/POLocator/findLocations", "@spider": "usps_collection_boxes", "addr:city": "NEHALEM", "addr:country": "US", "addr:postcode": "97131", "addr:state": "OR", "addr:street_address": "12810 H ST", "amenity": "post_box", "collection_times": "Mo-Fr 16:00; Sa 10:00", "note": "ON 12/24 AND 12/31, THIS BOX MAY BE COLLECTED AS EARLY AS 12 NOON.", "nsi_id": "unitedstatespostalservice-a77078", "operator": "United States Postal Service", "operator:short": "USPS", "operator:type": "public", "operator:wikidata": "Q668687", "ref": "9713100002"}, "type": "Feature"}
{"geometry": {"coordinates": [-123.896921, 45.717697], "type": "Point"}, "id": "X2PJpm9uilr0nPJesH3kkgcF2QY=", "properties": {"@source_uri": "https://tools.usps.com/UspsToolsRestServices/rest/POLocator/findLocations", "@spider": "usps_collection_boxes", "addr:city": "NEHALEM", "addr:country": "US", "addr:postcode": "97131", "addr:state": "OR", "addr:street_address": "12810 H ST", "amenity": "post_box", "collection_times": "Mo-Fr 15:30", "note": "ON 12/24 AND 12/31, THIS BOX MAY BE COLLECTED AS EARLY AS 12 NOON.", "nsi_id": "unitedstatespostalservice-a77078", "operator": "United States Postal Service", "operator:short": "USPS", "operator:type": "public", "operator:wikidata": "Q668687", "ref": "9713100003"}, "type": "Feature"}
{"geometry": {"coordinates": [-123.897010751, 45.717695475], "type": "Point"}, "id": "QJ9FpwtTdhB6N77lsYZ9M9sxqZg=", "properties": {"@source_uri": "https://tools.usps.com/UspsToolsRestServices/rest/POLocator/findLocations", "@spider": "usps_collection_boxes", "addr:city": "NEHALEM", "addr:country": "US", "addr:postcode": "97131", "addr:state": "OR", "addr:street_address": "12810 H ST", "amenity": "post_box", "collection_times": "Mo-Fr 16:15", "indoor": "yes", "note": "ON 12/24 AND 12/31, THIS BOX MAY BE COLLECTED AS EARLY AS 12 NOON.", "nsi_id": "unitedstatespostalservice-a77078", "operator": "United States Postal Service", "operator:short": "USPS", "operator:type": "public", "operator:wikidata": "Q668687", "ref": "9713100004"}, "type": "Feature"}
{"geometry": {"coordinates": [-122.945969, 45.30757], "type": "Point"}, "id": "f4E6gBqyEJA-sArAnRYQ7jgiMN4=", "properties": {"@source_uri": "https://tools.usps.com/UspsToolsRestServices/rest/POLocator/findLocations", "@spider": "usps_collection_boxes", "addr:city": "NEWBERG", "addr:country": "US", "addr:postcode": "97132", "addr:state": "OR", "addr:street_address": "1000 N SPRINGBROOK RD", "amenity": "post_box", "collection_times": "Mo-Fr 14:00; Sa 12:45", "note": "ON 12/24 AND 12/31, THIS BOX MAY BE COLLECTED AS EARLY AS 12 NOON.", "nsi_id": "unitedstatespostalservice-a77078", "operator": "United States Postal Service", "operator:short": "USPS", "operator:type": "public", "operator:wikidata": "Q668687", "ref": "9713200006"}, "type": "Feature"}
{"geometry": {"coordinates": [-122.960067, 45.301687], "type": "Point"}, "id": "Kd2g2uBGUK9D9wOOLJbmBNrtJlE=", "properties": {"@source_uri": "https://tools.usps.com/UspsToolsRestServices/rest/POLocator/findLocations", "@spider": "usps_collection_boxes", "addr:city": "NEWBERG", "addr:country": "US", "addr:postcode": "97132", "addr:state": "OR", "addr:street_address": "124 N EVEREST RD", "amenity": "post_box", "collection_times": "Mo-Fr 14:00; Sa 15:00", "note": "ON 12/24 AND 12/31, THIS BOX MAY BE COLLECTED AS EARLY AS 12 NOON.", "nsi_id": "unitedstatespostalservice-a77078", "operator": "United States Postal Service", "operator:short": "USPS", "operator:type": "public", "operator:wikidata": "Q668687", "ref": "9713200008"}, "type": "Feature"}
{"geometry": {"coordinates": [-122.972751, 45.298693], "type": "Point"}, "id": "R6Mu9BLP7AqKk6QXGNtpcXHeQmY=", "properties": {"@source_uri": "https://tools.usps.com/UspsToolsRestServices/rest/POLocator/findLocations", "@spider": "usps_collection_boxes", "addr:city": "NEWBERG", "addr:country": "US", "addr:postcode": "97132", "addr:state": "OR", "addr:street_address": "701 E 3RD ST", "amenity": "post_box", "collection_times": "Mo-Sa 11:00", "nsi_id": "unitedstatespostalservice-a77078", "operator": "United States Postal Service", "operator:short": "USPS", "operator:type": "public", "operator:wikidata": "Q668687", "ref": "9713200011"}, "type": "Feature"}
{"geometry": {"coordinates": [-122.968679, 45.297933], "type": "Point"}, "id": "ryXioEa8xWazb1H-O9wYr4naUIc=", "properties": {"@source_uri": "https://tools.usps.com/UspsToolsRestServices/rest/POLocator/findLocations", "@spider": "usps_collection_boxes", "addr:city": "NEWBERG", "addr:country": "US", "addr:postcode": "97132", "addr:state": "OR", "addr:street_address": "301 S RIVER ST", "amenity": "post_box", "collection_times": "Mo-Sa 09:30", "nsi_id": "unitedstatespostalservice-a77078", "operator": "United States Postal Service", "operator:short": "USPS", "operator:type": "public", "operator:wikidata": "Q668687", "ref": "9713200012"}, "type": "Feature"}
{"geometry": {"coordinates": [-122.943715, 45.306356], "type": "Point"}, "id": "vBXBKsl79u7appo22B1gQpvaoT4=", "properties": {"@source_uri": "https://tools.usps.com/UspsToolsRestServices/rest/POLocator/findLocations", "@spider": "usps_collection_boxes", "addr:city": "NEWBERG", "addr:country": "US", "addr:postcode": "97132", "addr:state": "OR", "addr:street_address": "3300 PORTLAND RD", "amenity": "post_box", "collection_times": "Mo-Fr 14:00; Sa 12:45", "note": "ON 12/24 AND 12/31, THIS BOX MAY BE COLLECTED AS EARLY AS 12 NOON.", "nsi_id": "unitedstatespostalservice-a77078", "operator": "United States Postal Service", "operator:short": "USPS", "operator:type": "public", "operator:wikidata": "Q668687", "ref": "9713200021"}, "type": "Feature"}
{"geometry": {"coordinates": [-122.975929, 45.300401], "type": "Point"}, "id": "YsUlgDxVPAzTI6CznfPm40O8e4k=", "properties": {"@source_uri": "https://tools.usps.com/UspsToolsRestServices/rest/POLocator/findLocations", "@spider": "usps_collection_boxes", "addr:city": "NEWBERG", "addr:country": "US", "addr:postcode": "97132", "addr:state": "OR", "addr:street_address": "401 E 1ST ST", "amenity": "post_box", "collection_times": "Mo-Fr 16:45; Sa 15:00", "note": "ON 12/24 AND 12/31, THIS BOX MAY BE COLLECTED AS EARLY AS 12 NOON.", "nsi_id": "unitedstatespostalservice-a77078", "operator": "United States Postal Service", "operator:short": "USPS", "operator:type": "public", "operator:wikidata": "Q668687", "ref": "9713200022"}, "type": "Feature"}
{"geometry": {"coordinates": [-122.969228, 45.310219], "type": "Point"}, "id": "7ByMa3FgMMT8TYCaMbrzo1YPXuI=", "properties": {"@source_uri": "https://tools.usps.com/UspsToolsRestServices/rest/POLocator/findLocations", "@spider": "usps_collection_boxes", "addr:city": "NEWBERG", "addr:country": "US", "addr:postcode": "97132", "addr:state": "OR", "addr:street_address": "116 N EVEREST RD", "amenity": "post_box", "collection_times": "Mo-Fr 17:00; Sa 15:00", "indoor": "yes", "note": "ON 12/24 AND 12/31, THIS BOX MAY BE COLLECTED AS EARLY AS 12 NOON.", "nsi_id": "unitedstatespostalservice-a77078", "operator": "United States Postal Service", "operator:short": "USPS", "operator:type": "public", "operator:wikidata": "Q668687", "ref": "9713200023"}, "type": "Feature"}
{"geometry": {"coordinates": [-122.975829, 45.300506], "type": "Point"}, "id": "xaI0Sn_q7eO4Vdcupnw_7GZBizc=", "properties": {"@source_uri": "https://tools.usps.com/UspsToolsRestServices/rest/POLocator/findLocations", "@spider": "usps_collection_boxes", "addr:city": "NEWBERG", "addr:country": "US", "addr:postcode": "97132", "addr:state": "OR", "addr:street_address": "401 E 1ST ST", "amenity": "post_box", "collection_times": "Mo-Fr 17:00; Sa 14:00", "indoor": "yes", "note": "ON 12/24 AND 12/31, THIS BOX MAY BE COLLECTED AS EARLY AS 12 NOON.", "nsi_id": "unitedstatespostalservice-a77078", "operator": "United States Postal Service", "operator:short": "USPS", "operator:type": "public", "operator:wikidata": "Q668687", "ref": "9713200025"}, "type": "Feature"}
{"geometry": {"coordinates": [-122.978851, 45.300311], "type": "Point"}, "id": "1R-zLK7aHRzmN2I6S9FiYhEkd9Q=", "properties": {"@source_uri": "https://tools.usps.com/UspsToolsRestServices/rest/POLocator/findLocations", "@spider": "usps_collection_boxes", "addr:city": "NEWBERG", "addr:country": "US", "addr:postcode": "97132", "addr:state": "OR", "addr:street_address": "112 E 1ST ST", "amenity": "post_box", "collection_times": "Mo-Sa 09:30", "nsi_id": "unitedstatespostalservice-a77078", "operator": "United States Postal Service", "operator:short": "USPS", "operator:type": "public", "operator:wikidata": "Q668687", "ref": "9713200027"}, "type": "Feature"}
{"geometry": {"coordinates": [-122.969228, 45.310219], "type": "Point"}, "id": "R9HfqctFG76fM8JqY0EqIX6cE9Q=", "properties": {"@source_uri": "https://tools.usps.com/UspsToolsRestServices/rest/POLocator/findLocations", "@spider": "usps_collection_boxes", "addr:city": "NEWBERG", "addr:country": "US", "addr:postcode": "97132", "addr:state": "OR", "addr:street_address": "401 E 1ST ST", "amenity": "post_box", "collection_times": "Mo-Fr 17:00", "note": "ON 12/24 AND 12/31, THIS BOX MAY BE COLLECTED AS EARLY AS 12 NOON.", "nsi_id": "unitedstatespostalservice-a77078", "operator": "United States Postal Service", "operator:short": "USPS", "operator:type": "public", "operator:wikidata": "Q668687", "ref": "9713200028"}, "type": "Feature"}
{"geometry": {"coordinates": [-122.941430631, 45.308159776], "type": "Point"}, "id": "WCavl8dFSv_rltB6TQDGhmb_RQQ=", "properties": {"@source_uri": "https://tools.usps.com/UspsToolsRestServices/rest/POLocator/findLocations", "@spider": "usps_collection_boxes", "addr:city": "NEWBERG", "addr:country": "US", "addr:postcode": "97132", "addr:state": "OR", "addr:street_address": "3745 PORTLAND RD", "amenity": "post_box", "collection_times": "Mo-Sa 14:30", "indoor": "yes", "note": "ON 12/24 AND 12/31, THIS BOX MAY BE COLLECTED AS EARLY AS 12 NOON.", "nsi_id": "unitedstatespostalservice-a77078", "operator": "United States Postal Service", "operator:short": "USPS", "operator:type": "public", "operator:wikidata": "Q668687", "ref": "9713200030"}, "type": "Feature"}
{"geometry": {"coordinates": [-123.003753, 45.598022], "type": "Point"}, "id": "u6tOME1QCEYjcjff6_dQlRJecII=", "properties": {"@source_uri": "https://tools.usps.com/UspsToolsRestServices/rest/POLocator/findLocations", "@spider": "usps_collection_boxes", "addr:city": "NORTH PLAINS", "addr:country": "US", "addr:postcode": "97133", "addr:state": "OR", "addr:street_address": "31700 NW COMMERCIAL ST", "amenity": "post_box", "collection_times": "Mo-Fr 17:00; Sa 09:30", "note": "ON 12/24 AND 12/31, THIS BOX MAY BE COLLECTED AS EARLY AS 12 NOON.", "nsi_id": "unitedstatespostalservice-a77078", "operator": "United States Postal Service", "operator:short": "USPS", "operator:type": "public", "operator:wikidata": "Q668687", "ref": "9713300001"}, "type": "Feature"}
{"geometry": {"coordinates": [-123.003753, 45.598022], "type": "Point"}, "id": "WoMkfiI8KS0GQrUBs1-jRv9r4Q8=", "properties": {"@source_uri": "https://tools.usps.com/UspsToolsRestServices/rest/POLocator/findLocations", "@spider": "usps_collection_boxes", "addr:city": "NORTH PLAINS", "addr:country": "US", "addr:postcode": "97133", "addr:state": "OR", "addr:street_address": "31700 NW COMMERCIAL ST", "amenity": "post_box", "collection_times": "Mo-Fr 17:00; Sa 09:30", "indoor": "yes", "note": "ON 12/24 AND 12/31, THIS BOX MAY BE COLLECTED AS EARLY AS 12 NOON.", "nsi_id": "unitedstatespostalservice-a77078", "operator": "United States Postal Service", "operator:short": "USPS", "operator:type": "public", "operator:wikidata": "Q668687", "ref": "9713300002"}, "type": "Feature"}
{"geometry": {"coordinates": [-123.003754868, 45.598017576], "type": "Point"}, "id": "CCKGAHFWYXUQCUjERbTa-PQxU6A=", "properties": {"@source_uri": "https://tools.usps.com/UspsToolsRestServices/rest/POLocator/findLocations", "@spider": "usps_collection_boxes", "addr:city": "NORTH PLAINS", "addr:country": "US", "addr:postcode": "97133", "addr:state": "OR", "addr:street_address": "31700 NW COMMERCIAL ST", "amenity": "post_box", "collection_times": "Mo-Fr 17:00", "indoor": "yes", "note": "ON 12/24 AND 12/31, THIS BOX MAY BE COLLECTED AS EARLY AS 12 NOON.", "nsi_id": "unitedstatespostalservice-a77078", "operator": "United States Postal Service", "operator:short": "USPS", "operator:type": "public", "operator:wikidata": "Q668687", "ref": "9713300005"}, "type": "Feature"}
{"geometry": {"coordinates": [-123.969368, 45.460116], "type": "Point"}, "id": "LrOlvKvc0G3DMDXzAeRSEhE-FPY=", "properties": {"@source_uri": "https://tools.usps.com/UspsToolsRestServices/rest/POLocator/findLocations", "@spider": "usps_collection_boxes", "addr:city": "OCEANSIDE", "addr:country": "US", "addr:postcode": "97134", "addr:state": "OR", "addr:street_address": "1540 PACIFIC AVE", "amenity": "post_box", "collection_times": "Mo-Fr 12:30; Sa 09:45", "indoor": "yes", "note": "ON 12/24 AND 12/31, THIS BOX MAY BE COLLECTED AS EARLY AS 12 NOON.", "nsi_id": "unitedstatespostalservice-a77078", "operator": "United States Postal Service", "operator:short": "USPS", "operator:type": "public", "operator:wikidata": "Q668687", "ref": "9713400001"}, "type": "Feature"}
{"geometry": {"coordinates": [-123.96937, 45.46019], "type": "Point"}, "id": "qrWFdpoug07IknaF2u5tnYo4eX4=", "properties": {"@source_uri": "https://tools.usps.com/UspsToolsRestServices/rest/POLocator/findLocations", "@spider": "usps_collection_boxes", "addr:city": "OCEANSIDE", "addr:country": "US", "addr:postcode": "97134", "addr:state": "OR", "addr:street_address": "1540 PACIFIC AVE", "amenity": "post_box", "collection_times": "Mo-Fr 12:30; Sa 09:45", "note": "ON 12/24 AND 12/31, THIS BOX MAY BE COLLECTED AS EARLY AS 12 NOON.", "nsi_id": "unitedstatespostalservice-a77078", "operator": "United States Postal Service", "operator:short": "USPS", "operator:type": "public", "operator:wikidata": "Q668687", "ref": "9713400002"}, "type": "Feature"}
{"geometry": {"coordinates": [-123.969352829, 45.460085187], "type": "Point"}, "id": "t94tLpCAXvSOiqhZWxti7CERdwE=", "properties": {"@source_uri": "https://tools.usps.com/UspsToolsRestServices/rest/POLocator/findLocations", "@spider": "usps_collection_boxes", "addr:city": "OCEANSIDE", "addr:country": "US", "addr:postcode": "97134", "addr:state": "OR", "addr:street_address": "1540 PACIFIC AVE", "amenity": "post_box", "collection_times": "Mo-Fr 12:30; Sa 09:45", "indoor": "yes", "note": "ON 12/24 AND 12/31, THIS BOX MAY BE COLLECTED AS EARLY AS 12 NOON.", "nsi_id": "unitedstatespostalservice-a77078", "operator": "United States Postal Service", "operator:short": "USPS", "operator:type": "public", "operator:wikidata": "Q668687", "ref": "9713400003"}, "type": "Feature"}
{"geometry": {"coordinates": [-123.961681, 45.20016], "type": "Point"}, "id": "tHsZmRHsaCufVdtqXKe1SZM5k7c=", "properties": {"@source_uri": "https://tools.usps.com/UspsToolsRestServices/rest/POLocator/findLocations", "@spider": "usps_collection_boxes", "addr:city": "PACIFIC CITY", "addr:country": "US", "addr:postcode": "97135", "addr:state": "OR", "addr:street_address": "35230 BROOTEN RD", "amenity": "post_box", "collection_times": "Mo-Fr 15:00; Sa 10:00", "note": "ON 12/24 AND 12/31, THIS BOX MAY BE COLLECTED AS EARLY AS 12 NOON.", "nsi_id": "unitedstatespostalservice-a77078", "operator": "United States Postal Service", "operator:short": "USPS", "operator:type": "public", "operator:wikidata": "Q668687", "ref": "9713500001"}, "type": "Feature"}
{"geometry": {"coordinates": [-123.961388803, 45.200209076], "type": "Point"}, "id": "fx7qVdihQXSQu9N3K0LbcYgVSUk=", "properties": {"@source_uri": "https://tools.usps.com/UspsToolsRestServices/rest/POLocator/findLocations", "@spider": "usps_collection_boxes", "addr:city": "PACIFIC CITY", "addr:country": "US", "addr:postcode": "97135", "addr:state": "OR", "addr:street_address": "35230 BROOTEN RD", "amenity": "post_box", "collection_times": "Mo-Fr 15:30", "indoor": "yes", "note": "ON 12/24 AND 12/31, THIS BOX MAY BE COLLECTED AS EARLY AS 12 NOON.", "nsi_id": "unitedstatespostalservice-a77078", "operator": "United States Postal Service", "operator:short": "USPS", "operator:type": "public", "operator:wikidata": "Q668687", "ref": "9713500003"}, "type": "Feature"}
{"geometry": {"coordinates": [-123.943403, 45.615031], "type": "Point"}, "id": "i12XaGMyAFJnm2Ggm9QVX0NXTBw=", "properties": {"@source_uri": "https://tools.usps.com/UspsToolsRestServices/rest/POLocator/findLocations", "@spider": "usps_collection_boxes", "addr:city": "ROCKAWAY", "addr:country": "US", "addr:postcode": "97136", "addr:state": "OR", "addr:street_address": "105 N 3RD AVE", "amenity": "post_box", "collection_times": "Sa 10:15", "nsi_id": "unitedstatespostalservice-a77078", "operator": "United States Postal Service", "operator:short": "USPS", "operator:type": "public", "operator:wikidata": "Q668687", "ref": "9713600001"}, "type": "Feature"}
{"geometry": {"coordinates": [-123.943141241, 45.615036457], "type": "Point"}, "id": "bBgGN4H82gBvF-p79kRqexY6-to=", "properties": {"@source_uri": "https://tools.usps.com/UspsToolsRestServices/rest/POLocator/findLocations", "@spider": "usps_collection_boxes", "addr:city": "ROCKAWAY", "addr:country": "US", "addr:postcode": "97136", "addr:state": "OR", "addr:street_address": "105 N 3RD AVE", "amenity": "post_box", "collection_times": "Mo-Fr 16:00", "indoor": "yes", "note": "ON 12/24 AND 12/31, THIS BOX MAY BE COLLECTED AS EARLY AS 12 NOON.", "nsi_id": "unitedstatespostalservice-a77078", "operator": "United States Postal Service", "operator:short": "USPS", "operator:type": "public", "operator:wikidata": "Q668687", "ref": "9713600002"}, "type": "Feature"}
{"geometry": {"coordinates": [-123.943141241, 45.615036457], "type": "Point"}, "id": "npEXfY2MWGQFlN0KS0ttBP6goQo=", "properties": {"@source_uri": "https://tools.usps.com/UspsToolsRestServices/rest/POLocator/findLocations", "@spider": "usps_collection_boxes", "addr:city": "ROCKAWAY", "addr:country": "US", "addr:postcode": "97136", "addr:state": "OR", "addr:street_address": "105 N 3RD AVE", "amenity": "post_box", "collection_times": "Mo-Fr 16:00", "indoor": "yes", "note": "ON 12/24 AND 12/31, THIS BOX MAY BE COLLECTED AS EARLY AS 12 NOON.", "nsi_id": "unitedstatespostalservice-a77078", "operator": "United States Postal Service", "operator:short": "USPS", "operator:type": "public", "operator:wikidata": "Q668687", "ref": "9713600003"}, "type": "Feature"}
{"geometry": {"coordinates": [-122.976991, 45.210362], "type": "Point"}, "id": "stXoXNA8RLR7Wwwc46KtyoPB3DU=", "properties": {"@source_uri": "https://tools.usps.com/UspsToolsRestServices/rest/POLocator/findLocations", "@spider": "usps_collection_boxes", "addr:city": "SAINT PAUL", "addr:country": "US", "addr:postcode": "97137", "addr:state": "OR", "addr:street_address": "20180 MAIN ST NE", "amenity": "post_box", "collection_times": "Mo-Fr 16:30; Sa 12:00", "note": "ON 12/24 AND 12/31, THIS BOX MAY BE COLLECTED AS EARLY AS 12 NOON.", "nsi_id": "unitedstatespostalservice-a77078", "operator": "United States Postal Service", "operator:short": "USPS", "operator:type": "public", "operator:wikidata": "Q668687", "ref": "9713700001"}, "type": "Feature"}
{"geometry": {"coordinates": [-122.976906, 45.21033], "type": "Point"}, "id": "_Kgp22XOhx6x3ttElowSuc11N4M=", "properties": {"@source_uri": "https://tools.usps.com/UspsToolsRestServices/rest/POLocator/findLocations", "@spider": "usps_collection_boxes", "addr:city": "SAINT PAUL", "addr:country": "US", "addr:postcode": "97137", "addr:state": "OR", "addr:street_address": "20180 MAIN ST NE", "amenity": "post_box", "collection_times": "Mo-Fr 16:30; Sa 12:00", "indoor": "yes", "note": "ON 12/24 AND 12/31, THIS BOX MAY BE COLLECTED AS EARLY AS 12 NOON.", "nsi_id": "unitedstatespostalservice-a77078", "operator": "United States Postal Service", "operator:short": "USPS", "operator:type": "public", "operator:wikidata": "Q668687", "ref": "9713700002"}, "type": "Feature"}
{"geometry": {"coordinates": [-122.977125981, 45.210292492], "type": "Point"}, "id": "Vypx2QvJOeabFHAyvKEMCLTSonE=", "properties": {"@source_uri": "https://tools.usps.com/UspsToolsRestServices/rest/POLocator/findLocations", "@spider": "usps_collection_boxes", "addr:city": "SAINT PAUL", "addr:country": "US", "addr:postcode": "97137", "addr:state": "OR", "addr:street_address": "20180 MAIN ST NE", "amenity": "post_box", "collection_times": "Mo-Fr 16:30", "indoor": "yes", "note": "ON 12/24 AND 12/31, THIS BOX MAY BE COLLECTED AS EARLY AS 12 NOON.", "nsi_id": "unitedstatespostalservice-a77078", "operator": "United States Postal Service", "operator:short": "USPS", "operator:type": "public", "operator:wikidata": "Q668687", "ref": "9713700003"}, "type": "Feature"}
{"geometry": {"coordinates": [-123.923229, 45.992305], "type": "Point"}, "id": "NjtbzdlQwl1l9-5br1cqHa3FaEg=", "properties": {"@source_uri": "https://tools.usps.com/UspsToolsRestServices/rest/POLocator/findLocations", "@spider": "usps_collection_boxes", "addr:city": "SEASIDE", "addr:country": "US", "addr:postcode": "97138", "addr:state": "OR", "addr:street_address": "201 S HOLLADAY DR", "amenity": "post_box", "collection_times": "Mo-Sa 13:00", "note": "ON 12/24 AND 12/31, THIS BOX MAY BE COLLECTED AS EARLY AS 12 NOON.", "nsi_id": "unitedstatespostalservice-a77078", "operator": "United States Postal Service", "operator:short": "USPS", "operator:type": "public", "operator:wikidata": "Q668687", "ref": "9713800005"}, "type": "Feature"}
{"geometry": {"coordinates": [-123.931311, 45.980117], "type": "Point"}, "id": "TZ_AIPBVlcU8Mv6iGbeIc9iHloM=", "properties": {"@source_uri": "https://tools.usps.com/UspsToolsRestServices/rest/POLocator/findLocations", "@spider": "usps_collection_boxes", "addr:city": "SEASIDE", "addr:country": "US", "addr:postcode": "97138", "addr:state": "OR", "addr:street_address": "2300 S DOWNING ST", "amenity": "post_box", "collection_times": "Mo-Sa 11:30", "nsi_id": "unitedstatespostalservice-a77078", "operator": "United States Postal Service", "operator:short": "USPS", "operator:type": "public", "operator:wikidata": "Q668687", "ref": "9713800007"}, "type": "Feature"}
{"geometry": {"coordinates": [-123.927111, 45.992292526], "type": "Point"}, "id": "wWKG0py46_q1GHo2UkP_bhEMiCE=", "properties": {"@source_uri": "https://tools.usps.com/UspsToolsRestServices/rest/POLocator/findLocations", "@spider": "usps_collection_boxes", "addr:city": "SEASIDE", "addr:country": "US", "addr:postcode": "97138", "addr:state": "OR", "addr:street_address": "300 AVENUE A", "amenity": "post_box", "collection_times": "Mo-Fr 17:00; Sa 15:45", "indoor": "yes", "note": "ON 12/24 AND 12/31, THIS BOX MAY BE COLLECTED AS EARLY AS 12 NOON.", "nsi_id": "unitedstatespostalservice-a77078", "operator": "United States Postal Service", "operator:short": "USPS", "operator:type": "public", "operator:wikidata": "Q668687", "ref": "9713800009"}, "type": "Feature"}
{"geometry": {"coordinates": [-123.921222, 46.024166], "type": "Point"}, "id": "EiMFWyco96_OEhdiXG4wk8KlrT0=", "properties": {"@source_uri": "https://tools.usps.com/UspsToolsRestServices/rest/POLocator/findLocations", "@spider": "usps_collection_boxes", "addr:city": "SEASIDE", "addr:country": "US", "addr:postcode": "97138", "addr:state": "OR", "addr:street_address": "546 PACIFIC WAY", "amenity": "post_box", "collection_times": "Mo-Fr 16:30; Sa 12:30", "note": "ON 12/24 AND 12/31, THIS BOX MAY BE COLLECTED AS EARLY AS 12 NOON.", "nsi_id": "unitedstatespostalservice-a77078", "operator": "United States Postal Service", "operator:short": "USPS", "operator:type": "public", "operator:wikidata": "Q668687", "ref": "9713800012"}, "type": "Feature"}
{"geometry": {"coordinates": [-123.927111, 45.992292526], "type": "Point"}, "id": "xWkX-SXHWbDgWP0DNPPFWS5a_Ys=", "properties": {"@source_uri": "https://tools.usps.com/UspsToolsRestServices/rest/POLocator/findLocations", "@spider": "usps_collection_boxes", "addr:city": "SEASIDE", "addr:country": "US", "addr:postcode": "97138", "addr:state": "OR", "addr:street_address": "300 AVENUE A", "amenity": "post_box", "collection_times": "Sa 15:45", "note": "ON 12/24 AND 12/31, THIS BOX MAY BE COLLECTED AS EARLY AS 12 NOON.", "nsi_id": "unitedstatespostalservice-a77078", "operator": "United States Postal Service", "operator:short": "USPS", "operator:type": "public", "operator:wikidata": "Q668687", "ref": "9713800015"}, "type": "Feature"}
{"geometry": {"coordinates": [-123.921338, 45.990533], "type": "Point"}, "id": "s0K0fZBLO0B6RH-qwZ4Eb3bOwAs=", "properties": {"@source_uri": "https://tools.usps.com/UspsToolsRestServices/rest/POLocator/findLocations", "@spider": "usps_collection_boxes", "addr:city": "SEASIDE", "addr:country": "US", "addr:postcode": "97138", "addr:state": "OR", "addr:street_address": "505 S ROOSEVELT DR", "amenity": "post_box", "collection_times": "Mo-Sa 11:45", "nsi_id": "unitedstatespostalservice-a77078", "operator": "United States Postal Service", "operator:short": "USPS", "operator:type": "public", "operator:wikidata": "Q668687", "ref": "9713800016"}, "type": "Feature"}
{"geometry": {"coordinates": [-123.927111, 45.992292526], "type": "Point"}, "id": "P3T1w7r72z8FMtL2YMeXEIGMul0=", "properties": {"@source_uri": "https://tools.usps.com/UspsToolsRestServices/rest/POLocator/findLocations", "@spider": "usps_collection_boxes", "addr:city": "SEASIDE", "addr:country": "US", "addr:postcode": "97138", "addr:state": "OR", "addr:street_address": "300 AVENUE A", "amenity": "post_box", "collection_times": "Mo-Fr 17:00; Sa 10:30", "indoor": "yes", "note": "ON 12/24 AND 12/31, THIS BOX MAY BE COLLECTED AS EARLY AS 12 NOON.", "nsi_id": "unitedstatespostalservice-a77078", "operator": "United States Postal Service", "operator:short": "USPS", "operator:type": "public", "operator:wikidata": "Q668687", "ref": "9713800018"}, "type": "Feature"}
{"geometry": {"coordinates": [-122.841231, 45.356907], "type": "Point"}, "id": "4qgzNLUDnkZvVGB6sMpOG2vNklU=", "properties": {"@source_uri": "https://tools.usps.com/UspsToolsRestServices/rest/POLocator/findLocations", "@spider": "usps_collection_boxes", "addr:city": "SHERWOOD", "addr:country": "US", "addr:postcode": "97140", "addr:state": "OR", "addr:street_address": "16017 SW 1ST ST", "amenity": "post_box", "collection_times": "Mo-Sa 10:15", "nsi_id": "unitedstatespostalservice-a77078", "operator": "United States Postal Service", "operator:short": "USPS", "operator:type": "public", "operator:wikidata": "Q668687", "ref": "9714000001"}, "type": "Feature"}
{"geometry": {"coordinates": [-122.8464667517, 45.3671944975], "type": "Point"}, "id": "ITlr6WgGdWjAR2bZsbPOuMowTMU=", "properties": {"@source_uri": "https://tools.usps.com/UspsToolsRestServices/rest/POLocator/findLocations", "@spider": "usps_collection_boxes", "addr:city": "SHERWOOD", "addr:country": "US", "addr:postcode": "97140", "addr:state": "OR", "addr:street_address": "16300 SW LANGER DR", "amenity": "post_box", "collection_times": "Mo-Fr 16:45; Sa 12:30", "note": "ON 12/24 AND 12/31, THIS BOX MAY BE COLLECTED AS EARLY AS 12 NOON.", "nsi_id": "unitedstatespostalservice-a77078", "operator": "United States Postal Service", "operator:short": "USPS", "operator:type": "public", "operator:wikidata": "Q668687", "ref": "9714000003"}, "type": "Feature"}
{"geometry": {"coordinates": [-122.844516, 45.366639], "type": "Point"}, "id": "Zqbf7mjbVsIHxg4O0V0yj3khUPw=", "properties": {"@source_uri": "https://tools.usps.com/UspsToolsRestServices/rest/POLocator/findLocations", "@spider": "usps_collection_boxes", "addr:city": "SHERWOOD", "addr:country": "US", "addr:postcode": "97140", "addr:state": "OR", "addr:street_address": "16300 SW LANGER DR", "amenity": "post_box", "collection_times": "Mo-Fr 17:00; Sa 09:00", "indoor": "yes", "note": "ON 12/24 AND 12/31, THIS BOX MAY BE COLLECTED AS EARLY AS 12 NOON.", "nsi_id": "unitedstatespostalservice-a77078", "operator": "United States Postal Service", "operator:short": "USPS", "operator:type": "public", "operator:wikidata": "Q668687", "ref": "9714000004"}, "type": "Feature"}
{"geometry": {"coordinates": [-122.844516, 45.366639], "type": "Point"}, "id": "8OpTOTvmeUp46vFKKG3mw64y2UU=", "properties": {"@source_uri": "https://tools.usps.com/UspsToolsRestServices/rest/POLocator/findLocations", "@spider": "usps_collection_boxes", "addr:city": "SHERWOOD", "addr:country": "US", "addr:postcode": "97140", "addr:state": "OR", "addr:street_address": "16300 SW LANGER DR", "amenity": "post_box", "collection_times": "Mo-Fr 17:00; Sa 09:00", "indoor": "yes", "note": "ON 12/24 AND 12/31, THIS BOX MAY BE COLLECTED AS EARLY AS 12 NOON.", "nsi_id": "unitedstatespostalservice-a77078", "operator": "United States Postal Service", "operator:short": "USPS", "operator:type": "public", "operator:wikidata": "Q668687", "ref": "9714000005"}, "type": "Feature"}
{"geometry": {"coordinates": [-122.842013, 45.368177], "type": "Point"}, "id": "x2m_aGveTqpTdhAiUN6XnX_guZ4=", "properties": {"@source_uri": "https://tools.usps.com/UspsToolsRestServices/rest/POLocator/findLocations", "@spider": "usps_collection_boxes", "addr:city": "SHERWOOD", "addr:country": "US", "addr:postcode": "97140", "addr:state": "OR", "addr:street_address": "15900 SW TUALATIN SHERWOOD RD", "amenity": "post_box", "collection_times": "Mo-Sa 12:00", "nsi_id": "unitedstatespostalservice-a77078", "operator": "United States Postal Service", "operator:short": "USPS", "operator:type": "public", "operator:wikidata": "Q668687", "ref": "9714000007"}, "type": "Feature"}
{"geometry": {"coordinates": [-122.839127, 45.373758], "type": "Point"}, "id": "svl45OHdgOVRXdQsDf3QgO63jtU=", "properties": {"@source_uri": "https://tools.usps.com/UspsToolsRestServices/rest/POLocator/findLocations", "@spider": "usps_collection_boxes", "addr:city": "SHERWOOD", "addr:country": "US", "addr:postcode": "97140", "addr:state": "OR", "addr:street_address": "20015 SW PACIFIC HWY", "amenity": "post_box", "collection_times": "Mo-Sa 10:30", "nsi_id": "unitedstatespostalservice-a77078", "operator": "United States Postal Service", "operator:short": "USPS", "operator:type": "public", "operator:wikidata": "Q668687", "ref": "9714000009"}, "type": "Feature"}
{"geometry": {"coordinates": [-122.844516, 45.366639], "type": "Point"}, "id": "_MqUWn1IxQ5Cv0tgN1Udvo4Prc8=", "properties": {"@source_uri": "https://tools.usps.com/UspsToolsRestServices/rest/POLocator/findLocations", "@spider": "usps_collection_boxes", "addr:city": "SHERWOOD", "addr:country": "US", "addr:postcode": "97140", "addr:state": "OR", "addr:street_address": "16300 SW LANGER DR", "amenity": "post_box", "collection_times": "Mo-Fr 17:00; Sa 09:00", "indoor": "yes", "note": "ON 12/24 AND 12/31, THIS BOX MAY BE COLLECTED AS EARLY AS 12 NOON.", "nsi_id": "unitedstatespostalservice-a77078", "operator": "United States Postal Service", "operator:short": "USPS", "operator:type": "public", "operator:wikidata": "Q668687", "ref": "9714000010"}, "type": "Feature"}
{"geometry": {"coordinates": [-122.846466752, 45.367194498], "type": "Point"}, "id": "3MdIH0bNXmSZNUl6JEx4eY062no=", "properties": {"@source_uri": "https://tools.usps.com/UspsToolsRestServices/rest/POLocator/findLocations", "@spider": "usps_collection_boxes", "addr:city": "SHERWOOD", "addr:country": "US", "addr:postcode": "97140", "addr:state": "OR", "addr:street_address": "16300 SW LANGER DR", "amenity": "post_box", "collection_times": "Mo-Fr 17:00", "indoor": "yes", "note": "ON 12/24 AND 12/31, THIS BOX MAY BE COLLECTED AS EARLY AS 12 NOON.", "nsi_id": "unitedstatespostalservice-a77078", "operator": "United States Postal Service", "operator:short": "USPS", "operator:type": "public", "operator:wikidata": "Q668687", "ref": "9714000013"}, "type": "Feature"}
{"geometry": {"coordinates": [-123.84499, 45.45411], "type": "Point"}, "id": "5L8sDjCfpXLNyf4DlzJ9WfsDXm0=", "properties": {"@source_uri": "https://tools.usps.com/UspsToolsRestServices/rest/POLocator/findLocations", "@spider": "usps_collection_boxes", "addr:city": "TILLAMOOK", "addr:country": "US", "addr:postcode": "97141", "addr:state": "OR", "addr:street_address": "804 CHESTNUT DR", "amenity": "post_box", "collection_times": "Mo-Sa 09:00", "nsi_id": "unitedstatespostalservice-a77078", "operator": "United States Postal Service", "operator:short": "USPS", "operator:type": "public", "operator:wikidata": "Q668687", "ref": "9714100001"}, "type": "Feature"}
{"geometry": {"coordinates": [-123.844012, 45.449603], "type": "Point"}, "id": "phARF5DWYj53ZPwt0KtlbVzvWxs=", "properties": {"@source_uri": "https://tools.usps.com/UspsToolsRestServices/rest/POLocator/findLocations", "@spider": "usps_collection_boxes", "addr:city": "TILLAMOOK", "addr:country": "US", "addr:postcode": "97141", "addr:state": "OR", "addr:street_address": "1124 MAIN AVE", "amenity": "post_box", "collection_times": "Mo-Sa 12:30", "note": "ON 12/24 AND 12/31, THIS BOX MAY BE COLLECTED AS EARLY AS 12 NOON.", "nsi_id": "unitedstatespostalservice-a77078", "operator": "United States Postal Service", "operator:short": "USPS", "operator:type": "public", "operator:wikidata": "Q668687", "ref": "9714100005"}, "type": "Feature"}
{"geometry": {"coordinates": [-123.842087, 45.45768], "type": "Point"}, "id": "STrZ9yxtc0YPqkAMsVv6OaJ3b1Q=", "properties": {"@source_uri": "https://tools.usps.com/UspsToolsRestServices/rest/POLocator/findLocations", "@spider": "usps_collection_boxes", "addr:city": "TILLAMOOK", "addr:country": "US", "addr:postcode": "97141", "addr:state": "OR", "addr:street_address": "2200 1ST ST", "amenity": "post_box", "collection_times": "Mo-Sa 17:00", "note": "ON 12/24 AND 12/31, THIS BOX MAY BE COLLECTED AS EARLY AS 12 NOON.", "nsi_id": "unitedstatespostalservice-a77078", "operator": "United States Postal Service", "operator:short": "USPS", "operator:type": "public", "operator:wikidata": "Q668687", "ref": "9714100011"}, "type": "Feature"}
{"geometry": {"coordinates": [-123.854307, 45.453822], "type": "Point"}, "id": "AA3z58s4eUIrvQMlLcd1QOhy_mc=", "properties": {"@source_uri": "https://tools.usps.com/UspsToolsRestServices/rest/POLocator/findLocations", "@spider": "usps_collection_boxes", "addr:city": "TILLAMOOK", "addr:country": "US", "addr:postcode": "97141", "addr:state": "OR", "addr:street_address": "1005 5TH ST", "amenity": "post_box", "collection_times": "Mo-Sa 09:00", "nsi_id": "unitedstatespostalservice-a77078", "operator": "United States Postal Service", "operator:short": "USPS", "operator:type": "public", "operator:wikidata": "Q668687", "ref": "9714100013"}, "type": "Feature"}
{"geometry": {"coordinates": [-123.889311, 45.523322], "type": "Point"}, "id": "FJFfQU7lDzfbdPj0rwrbtQ9c_og=", "properties": {"@source_uri": "https://tools.usps.com/UspsToolsRestServices/rest/POLocator/findLocations", "@spider": "usps_collection_boxes", "addr:city": "TILLAMOOK", "addr:country": "US", "addr:postcode": "97141", "addr:state": "OR", "addr:street_address": "9220 5TH ST", "amenity": "post_box", "collection_times": "Mo-Fr 14:00; Sa 10:00", "note": "ON 12/24 AND 12/31, THIS BOX MAY BE COLLECTED AS EARLY AS 12 NOON.", "nsi_id": "unitedstatespostalservice-a77078", "operator": "United States Postal Service", "operator:short": "USPS", "operator:type": "public", "operator:wikidata": "Q668687", "ref": "9714100018"}, "type": "Feature"}
{"geometry": {"coordinates": [-123.947187, 45.436973], "type": "Point"}, "id": "aMCG8kzCDW6YKnqzZIgTMw6HIh8=", "properties": {"@source_uri": "https://tools.usps.com/UspsToolsRestServices/rest/POLocator/findLocations", "@spider": "usps_collection_boxes", "addr:city": "TILLAMOOK", "addr:country": "US", "addr:postcode": "97141", "addr:state": "OR", "addr:street_address": "4945 NETARTS HWY W", "amenity": "post_box", "collection_times": "Mo-Fr 14:00; Sa 10:00", "note": "ON 12/24 AND 12/31, THIS BOX MAY BE COLLECTED AS EARLY AS 12 NOON.", "nsi_id": "unitedstatespostalservice-a77078", "operator": "United States Postal Service", "operator:short": "USPS", "operator:type": "public", "operator:wikidata": "Q668687", "ref": "9714100019"}, "type": "Feature"}
{"geometry": {"coordinates": [-123.845217, 45.474953], "type": "Point"}, "id": "x1U62-NVzz7qgY2Hj8jGR_EB238=", "properties": {"@source_uri": "https://tools.usps.com/UspsToolsRestServices/rest/POLocator/findLocations", "@spider": "usps_collection_boxes", "addr:city": "TILLAMOOK", "addr:country": "US", "addr:postcode": "97141", "addr:state": "OR", "addr:street_address": "2500 MAIN AVE N", "amenity": "post_box", "collection_times": "Mo-Sa 10:00", "nsi_id": "unitedstatespostalservice-a77078", "operator": "United States Postal Service", "operator:short": "USPS", "operator:type": "public", "operator:wikidata": "Q668687", "ref": "9714100021"}, "type": "Feature"}
{"geometry": {"coordinates": [-123.842088802, 45.457459311], "type": "Point"}, "id": "pEikOFPHoneZ9FK2S9EXrgcLg5E=", "properties": {"@source_uri": "https://tools.usps.com/UspsToolsRestServices/rest/POLocator/findLocations", "@spider": "usps_collection_boxes", "addr:city": "TILLAMOOK", "addr:country": "US", "addr:postcode": "97141", "addr:state": "OR", "addr:street_address": "2200 1ST ST", "amenity": "post_box", "collection_times": "Mo-Fr 17:00", "indoor": "yes", "note": "ON 12/24 AND 12/31, THIS BOX MAY BE COLLECTED AS EARLY AS 12 NOON.", "nsi_id": "unitedstatespostalservice-a77078", "operator": "United States Postal Service", "operator:short": "USPS", "operator:type": "public", "operator:wikidata": "Q668687", "ref": "9714100024"}, "type": "Feature"}
{"geometry": {"coordinates": [-123.899742, 46.161681], "type": "Point"}, "id": "x9fN2QGc65hh35ZpkxNeavatTnE=", "properties": {"@source_uri": "https://tools.usps.com/UspsToolsRestServices/rest/POLocator/findLocations", "@spider": "usps_collection_boxes", "addr:city": "WARRENTON", "addr:country": "US", "addr:postcode": "97146", "addr:state": "OR", "addr:street_address": "145 S HIGHWAY 101", "amenity": "post_box", "collection_times": "Mo-Sa 11:00", "nsi_id": "unitedstatespostalservice-a77078", "operator": "United States Postal Service", "operator:short": "USPS", "operator:type": "public", "operator:wikidata": "Q668687", "ref": "9714600001"}, "type": "Feature"}
{"geometry": {"coordinates": [-123.924892, 46.165263], "type": "Point"}, "id": "I0NZ2xThAGINVr4ATyqYDuB81QA=", "properties": {"@source_uri": "https://tools.usps.com/UspsToolsRestServices/rest/POLocator/findLocations", "@spider": "usps_collection_boxes", "addr:city": "WARRENTON", "addr:country": "US", "addr:postcode": "97146", "addr:state": "OR", "addr:street_address": "99 N MAIN AVE", "amenity": "post_box", "collection_times": "Mo-Fr 17:00; Sa 11:00", "note": "ON 12/24 AND 12/31, THIS BOX MAY BE COLLECTED AS EARLY AS 12 NOON.", "nsi_id": "unitedstatespostalservice-a77078", "operator": "United States Postal Service", "operator:short": "USPS", "operator:type": "public", "operator:wikidata": "Q668687", "ref": "9714600002"}, "type": "Feature"}
{"geometry": {"coordinates": [-123.934031, 46.122523], "type": "Point"}, "id": "Fp_0o_aiBovMhdxlFh92-Q-mWgM=", "properties": {"@source_uri": "https://tools.usps.com/UspsToolsRestServices/rest/POLocator/findLocations", "@spider": "usps_collection_boxes", "addr:city": "WARRENTON", "addr:country": "US", "addr:postcode": "97146", "addr:state": "OR", "addr:street_address": "33273 PATRIOT WAY", "amenity": "post_box", "collection_times": "Mo-Sa 11:00", "nsi_id": "unitedstatespostalservice-a77078", "operator": "United States Postal Service", "operator:short": "USPS", "operator:type": "public", "operator:wikidata": "Q668687", "ref": "9714600004"}, "type": "Feature"}
{"geometry": {"coordinates": [-123.924639, 46.165431], "type": "Point"}, "id": "pePdFRDxqLoBOqr2zCsz8H2-jkQ=", "properties": {"@source_uri": "https://tools.usps.com/UspsToolsRestServices/rest/POLocator/findLocations", "@spider": "usps_collection_boxes", "addr:city": "WARRENTON", "addr:country": "US", "addr:postcode": "97146", "addr:state": "OR", "addr:street_address": "99 N MAIN ST", "amenity": "post_box", "collection_times": "Mo-Fr 17:00; Sa 11:00", "indoor": "yes", "note": "ON 12/24 AND 12/31, THIS BOX MAY BE COLLECTED AS EARLY AS 12 NOON.", "nsi_id": "unitedstatespostalservice-a77078", "operator": "United States Postal Service", "operator:short": "USPS", "operator:type": "public", "operator:wikidata": "Q668687", "ref": "9714600005"}, "type": "Feature"}
{"geometry": {"coordinates": [-123.925752122, 46.167968788], "type": "Point"}, "id": "nH0GrlEZSsLw06y2MQWFMQFQFn0=", "properties": {"@source_uri": "https://tools.usps.com/UspsToolsRestServices/rest/POLocator/findLocations", "@spider": "usps_collection_boxes", "addr:city": "WARRENTON", "addr:country": "US", "addr:postcode": "97146", "addr:state": "OR", "addr:street_address": "99 N MAIN AVE", "amenity": "post_box", "collection_times": "Mo-Fr 17:00", "indoor": "yes", "note": "ON 12/24 AND 12/31, THIS BOX MAY BE COLLECTED AS EARLY AS 12 NOON.", "nsi_id": "unitedstatespostalservice-a77078", "operator": "United States Postal Service", "operator:short": "USPS", "operator:type": "public", "operator:wikidata": "Q668687", "ref": "9714600007"}, "type": "Feature"}
{"geometry": {"coordinates": [-123.882064, 45.68934], "type": "Point"}, "id": "Bl94QX_ge5GVs7dDjizxkN7bPg4=", "properties": {"@source_uri": "https://tools.usps.com/UspsToolsRestServices/rest/POLocator/findLocations", "@spider": "usps_collection_boxes", "addr:city": "WHEELER", "addr:country": "US", "addr:postcode": "97147", "addr:state": "OR", "addr:street_address": "500 NEHALEM BLVD", "amenity": "post_box", "collection_times": "Mo-Fr 12:45; Sa 10:45", "note": "ON 12/24 AND 12/31, THIS BOX MAY BE COLLECTED AS EARLY AS 12 NOON.", "nsi_id": "unitedstatespostalservice-a77078", "operator": "United States Postal Service", "operator:short": "USPS", "operator:type": "public", "operator:wikidata": "Q668687", "ref": "9714700001"}, "type": "Feature"}
{"geometry": {"coordinates": [-123.882267, 45.68958], "type": "Point"}, "id": "dK_BZAQh3j88PBhjODdg_I1_OWk=", "properties": {"@source_uri": "https://tools.usps.com/UspsToolsRestServices/rest/POLocator/findLocations", "@spider": "usps_collection_boxes", "addr:city": "WHEELER", "addr:country": "US", "addr:postcode": "97147", "addr:state": "OR", "addr:street_address": "500 NEHALEM BLVD", "amenity": "post_box", "collection_times": "Mo-Fr 12:45; Sa 10:45", "indoor": "yes", "note": "ON 12/24 AND 12/31, THIS BOX MAY BE COLLECTED AS EARLY AS 12 NOON.", "nsi_id": "unitedstatespostalservice-a77078", "operator": "United States Postal Service", "operator:short": "USPS", "operator:type": "public", "operator:wikidata": "Q668687", "ref": "9714700002"}, "type": "Feature"}
{"geometry": {"coordinates": [-123.882372091, 45.689593065], "type": "Point"}, "id": "EYUZJIubmNiBCadMENufCAKRXmc=", "properties": {"@source_uri": "https://tools.usps.com/UspsToolsRestServices/rest/POLocator/findLocations", "@spider": "usps_collection_boxes", "addr:city": "WHEELER", "addr:country": "US", "addr:postcode": "97147", "addr:state": "OR", "addr:street_address": "500 NEHALEM BLVD", "amenity": "post_box", "collection_times": "Mo-Fr 12:45; Sa 10:45", "indoor": "yes", "note": "ON 12/24 AND 12/31, THIS BOX MAY BE COLLECTED AS EARLY AS 12 NOON.", "nsi_id": "unitedstatespostalservice-a77078", "operator": "United States Postal Service", "operator:short": "USPS", "operator:type": "public", "operator:wikidata": "Q668687", "ref": "9714700003"}, "type": "Feature"}
{"geometry": {"coordinates": [-123.188715, 45.340799], "type": "Point"}, "id": "3kgySxX5qwSgfTVp8YKCt7HycqA=", "properties": {"@source_uri": "https://tools.usps.com/UspsToolsRestServices/rest/POLocator/findLocations", "@spider": "usps_collection_boxes", "addr:city": "YAMHILL", "addr:country": "US", "addr:postcode": "97148", "addr:state": "OR", "addr:street_address": "180 W 1ST ST", "amenity": "post_box", "collection_times": "Mo-Fr 16:00; Sa 09:30", "note": "ON 12/24 AND 12/31, THIS BOX MAY BE COLLECTED AS EARLY AS 12 NOON.", "nsi_id": "unitedstatespostalservice-a77078", "operator": "United States Postal Service", "operator:short": "USPS", "operator:type": "public", "operator:wikidata": "Q668687", "ref": "9714800001"}, "type": "Feature"}
{"geometry": {"coordinates": [-123.1888803579, 45.3408065188], "type": "Point"}, "id": "h8ojvap5xj93NKALAlVteLOwQWM=", "properties": {"@source_uri": "https://tools.usps.com/UspsToolsRestServices/rest/POLocator/findLocations", "@spider": "usps_collection_boxes", "addr:city": "YAMHILL", "addr:country": "US", "addr:postcode": "97148", "addr:state": "OR", "addr:street_address": "180 W FIRST ST", "amenity": "post_box", "collection_times": "Mo-Fr 16:30; Sa 09:30", "indoor": "yes", "note": "ON 12/24 AND 12/31, THIS BOX MAY BE COLLECTED AS EARLY AS 12 NOON.", "nsi_id": "unitedstatespostalservice-a77078", "operator": "United States Postal Service", "operator:short": "USPS", "operator:type": "public", "operator:wikidata": "Q668687", "ref": "9714800003"}, "type": "Feature"}
{"geometry": {"coordinates": [-123.1888803579, 45.3408065188], "type": "Point"}, "id": "OoTlmf4NKfc5FOXutLKOj7pi4sE=", "properties": {"@source_uri": "https://tools.usps.com/UspsToolsRestServices/rest/POLocator/findLocations", "@spider": "usps_collection_boxes", "addr:city": "YAMHILL", "addr:country": "US", "addr:postcode": "97148", "addr:state": "OR", "addr:street_address": "180 W FIRST ST", "amenity": "post_box", "collection_times": "Mo-Fr 16:30; Sa 09:30", "indoor": "yes", "note": "ON 12/24 AND 12/31, THIS BOX MAY BE COLLECTED AS EARLY AS 12 NOON.", "nsi_id": "unitedstatespostalservice-a77078", "operator": "United States Postal Service", "operator:short": "USPS", "operator:type": "public", "operator:wikidata": "Q668687", "ref": "9714800004"}, "type": "Feature"}
{"geometry": {"coordinates": [-123.188880358, 45.340806519], "type": "Point"}, "id": "OQLgTllfNvNrhRXVD8CAKkk7q9M=", "properties": {"@source_uri": "https://tools.usps.com/UspsToolsRestServices/rest/POLocator/findLocations", "@spider": "usps_collection_boxes", "addr:city": "YAMHILL", "addr:country": "US", "addr:postcode": "97148", "addr:state": "OR", "addr:street_address": "180 W 1ST ST", "amenity": "post_box", "collection_times": "Mo-Fr 16:30", "indoor": "yes", "note": "ON 12/24 AND 12/31, THIS BOX MAY BE COLLECTED AS EARLY AS 12 NOON.", "nsi_id": "unitedstatespostalservice-a77078", "operator": "United States Postal Service", "operator:short": "USPS", "operator:type": "public", "operator:wikidata": "Q668687", "ref": "9714800005"}, "type": "Feature"}
{"geometry": {"coordinates": [-123.982645, 45.101795], "type": "Point"}, "id": "KKoBAAukjz0wPYxueerhPbjvTb4=", "properties": {"@source_uri": "https://tools.usps.com/UspsToolsRestServices/rest/POLocator/findLocations", "@spider": "usps_collection_boxes", "addr:city": "CLOVERDALE", "addr:country": "US", "addr:postcode": "97149", "addr:state": "OR", "addr:street_address": "49880 HIGHWAY 101 S", "amenity": "post_box", "collection_times": "Mo-Fr 11:00; Sa 10:00", "nsi_id": "unitedstatespostalservice-a77078", "operator": "United States Postal Service", "operator:short": "USPS", "operator:type": "public", "operator:wikidata": "Q668687", "ref": "9714900002"}, "type": "Feature"}
