{"geometry": {"coordinates": [-123.031257, 44.944491], "type": "Point"}, "id": "skurjzG3oDMgUE0wKU3GB-2OrOY=", "properties": {"@spider": "usps_collection_boxes", "addr:city": "SALEM", "addr:country": "US", "addr:full": "605 COTTAGE ST NE", "addr:postcode": "97301", "addr:state": "OR", "brand": "USPS", "collection_times": "Mo-Fr 15:00", "name": "USPS COLLECTION BOX - BLUE BOX", "note": "ON 12/24 AND 12/31, THIS BOX MAY BE COLLECTED AS EARLY AS 12 NOON.", "ref": "9730100006"}, "type": "Feature"}
{"geometry": {"coordinates": [-123.037346, 44.939401], "type": "Point"}, "id": "6cW8m7yAay0GM2kbf93CSD56Ra4=", "properties": {"@spider": "usps_collection_boxes", "addr:city": "SALEM", "addr:country": "US", "addr:full": "101 HIGH ST SE", "addr:postcode": "97301", "addr:state": "OR", "brand": "USPS", "collection_times": "Mo-Fr 15:00", "name": "USPS COLLECTION BOX - BLUE BOX", "note": "ON 12/24 AND 12/31, THIS BOX MAY BE COLLECTED AS EARLY AS 12 NOON.", "ref": "9730100008"}, "type": "Feature"}
{"geometry": {"coordinates": [-123.033035, 44.932921], "type": "Point"}, "id": "K16yeBIJ1CI8Hc0ipNQppyQmtcQ=", "properties": {"@spider": "usps_collection_boxes", "addr:city": "SALEM", "addr:country": "US", "addr:full": "875 OAK ST SE", "addr:postcode": "97301", "addr:state": "OR", "brand": "USPS", "collection_times": "Mo-Fr 15:00", "name": "USPS COLLECTION BOX - BLUE BOX", "note": "ON 12/24 AND 12/31, THIS BOX MAY BE COLLECTED AS EARLY AS 12 NOON.", "ref": "9730100011"}, "type": "Feature"}
{"geometry": {"coordinates": [-123.032042, 44.9432], "type": "Point"}, "id": "3eoMZPmYGMWygNfe6Kpv98PZmig=", "properties": {"@spider": "usps_collection_boxes", "addr:city": "SALEM", "addr:country": "US", "addr:full": "670 MARION ST NE", "addr:postcode": "97301", "addr:state": "OR", "brand": "USPS", "collection_times": "Mo-Fr 15:00", "name": "USPS COLLECTION BOX - BLUE BOX", "note": "ON 12/24 AND 12/31, THIS BOX MAY BE COLLECTED AS EARLY AS 12 NOON.", "ref": "9730100012"}, "type": "Feature"}
{"geometry": {"coordinates": [-122.980697, 44.918008], "type": "Point"}, "id": "Tbxo6gm1H18MAqp9u9URBp1kPAk=", "properties": {"@spider": "usps_collection_boxes", "addr:city": "SALEM", "addr:country": "US", "addr:full": "852 LANCASTER DR SE", "addr:postcode": "97301", "addr:state": "OR", "brand": "USPS", "collection_times": "Mo-Fr 15:00", "name": "USPS COLLECTION BOX - BLUE BOX", "note": "ON 12/24 AND 12/31, THIS BOX MAY BE COLLECTED AS EARLY AS 12 NOON.", "ref": "9730100020"}, "type": "Feature"}
{"geometry": {"coordinates": [-123.0352295763, 44.9425256462], "type": "Point"}, "id": "0RUX2q_BjVcE5ETK93wn6jQqOAg=", "properties": {"@spider": "usps_collection_boxes", "addr:city": "SALEM", "addr:country": "US", "addr:full": "530 CENTER ST NE", "addr:postcode": "97301", "addr:state": "OR", "brand": "USPS", "collection_times": "Mo-Fr 15:00", "name": "USPS COLLECTION BOX - BLUE BOX", "note": "ON 12/24 AND 12/31, THIS BOX MAY BE COLLECTED AS EARLY AS 12 NOON.", "ref": "9730100023"}, "type": "Feature"}
{"geometry": {"coordinates": [-122.992038, 44.927723], "type": "Point"}, "id": "13vwk3K7UJJo8YvZ6rUwx8MMnnM=", "properties": {"@spider": "usps_collection_boxes", "addr:city": "SALEM", "addr:country": "US", "addr:full": "3400 STATE ST", "addr:postcode": "97301", "addr:state": "OR", "brand": "USPS", "collection_times": "Mo-Fr 15:00", "name": "USPS COLLECTION BOX - BLUE BOX", "note": "ON 12/24 AND 12/31, THIS BOX MAY BE COLLECTED AS EARLY AS 12 NOON.", "ref": "9730100034"}, "type": "Feature"}
{"geometry": {"coordinates": [-123.0359719945, 44.9421256198], "type": "Point"}, "id": "hQOXvdtQjHEbt8mxdn3DWThU2sE=", "properties": {"@spider": "usps_collection_boxes", "addr:city": "SALEM", "addr:country": "US", "addr:full": "333 HIGH ST NE", "addr:postcode": "97301", "addr:state": "OR", "brand": "USPS", "collection_times": "Mo-Sa 10:00", "name": "USPS COLLECTION BOX - BLUE BOX", "ref": "9730100035"}, "type": "Feature"}
{"geometry": {"coordinates": [-123.03401814, 44.941644666], "type": "Point"}, "id": "oVxBNiGsQw75sZiUsQdWdDdc3c8=", "properties": {"@spider": "usps_collection_boxes", "addr:city": "SALEM", "addr:country": "US", "addr:full": "324 CHURCH ST NE", "addr:postcode": "97301", "addr:state": "OR", "brand": "USPS", "collection_times": "Mo-Sa 10:00", "name": "USPS COLLECTION BOX - BLUE BOX", "ref": "9730100058"}, "type": "Feature"}
{"geometry": {"coordinates": [-123.036708545, 44.940744608], "type": "Point"}, "id": "fRRnKDXPmIt2-FPaBDD723kg5Ok=", "properties": {"@spider": "usps_collection_boxes", "addr:city": "SALEM", "addr:country": "US", "addr:full": "201 HIGH ST NE", "addr:postcode": "97301", "addr:state": "OR", "brand": "USPS", "collection_times": "Mo-Fr 15:00", "name": "USPS COLLECTION BOX - BLUE BOX", "note": "ON 12/24 AND 12/31, THIS BOX MAY BE COLLECTED AS EARLY AS 12 NOON.", "ref": "9730100063"}, "type": "Feature"}
{"geometry": {"coordinates": [-123.03915, 44.939334], "type": "Point"}, "id": "Ufh0ivoohbA9d_Ik_TcJh3aHYzQ=", "properties": {"@spider": "usps_collection_boxes", "addr:city": "SALEM", "addr:country": "US", "addr:full": "195 LIBERTY ST SE", "addr:postcode": "97301", "addr:state": "OR", "brand": "USPS", "collection_times": "Mo-Fr 15:00", "name": "USPS COLLECTION BOX - BLUE BOX", "note": "ON 12/24 AND 12/31, THIS BOX MAY BE COLLECTED AS EARLY AS 12 NOON.", "ref": "9730100064"}, "type": "Feature"}
{"geometry": {"coordinates": [-122.982579, 44.922297], "type": "Point"}, "id": "cnf65znVQMTseCUjRlQxNyxFfUs=", "properties": {"@spider": "usps_collection_boxes", "addr:city": "SALEM", "addr:country": "US", "addr:full": "581 LANCASTER DR SE", "addr:postcode": "97301", "addr:state": "OR", "brand": "USPS", "collection_times": "Mo-Fr 15:00; Sa 14:15", "name": "USPS COLLECTION BOX - BLUE BOX", "note": "ON 12/24 AND 12/31, THIS BOX MAY BE COLLECTED AS EARLY AS 12 NOON.", "ref": "9730100066"}, "type": "Feature"}
{"geometry": {"coordinates": [-123.0396426024, 44.9383003489], "type": "Point"}, "id": "K8zUXUM--QrGTwDYZ9f0lHOCwaY=", "properties": {"@spider": "usps_collection_boxes", "addr:city": "SALEM", "addr:country": "US", "addr:full": "280 LIBERTY ST SE", "addr:postcode": "97301", "addr:state": "OR", "brand": "USPS", "collection_times": "Mo-Sa 10:00", "name": "USPS COLLECTION BOX - BLUE BOX", "ref": "9730100075"}, "type": "Feature"}
{"geometry": {"coordinates": [-123.027351, 44.941371], "type": "Point"}, "id": "KHFjgu6zyBhROxPRL1aw4ojdwoQ=", "properties": {"@spider": "usps_collection_boxes", "addr:city": "SALEM", "addr:country": "US", "addr:full": "955 CENTER ST NE", "addr:postcode": "97301", "addr:state": "OR", "brand": "USPS", "collection_times": "Mo-Fr 15:00", "name": "USPS COLLECTION BOX - BLUE BOX", "note": "ON 12/24 AND 12/31, THIS BOX MAY BE COLLECTED AS EARLY AS 12 NOON.", "ref": "9730100077"}, "type": "Feature"}
{"geometry": {"coordinates": [-123.041355, 44.9356], "type": "Point"}, "id": "IaB8yWd2NwGCWgBeNbCzVxuKqsQ=", "properties": {"@spider": "usps_collection_boxes", "addr:city": "SALEM", "addr:country": "US", "addr:full": "585 LIBERTY ST SE", "addr:postcode": "97301", "addr:state": "OR", "brand": "USPS", "collection_times": "Mo-Fr 15:00; Sa 12:30", "name": "USPS COLLECTION BOX - BLUE BOX", "note": "ON 12/24 AND 12/31, THIS BOX MAY BE COLLECTED AS EARLY AS 12 NOON.", "ref": "9730100098"}, "type": "Feature"}
{"geometry": {"coordinates": [-123.040662, 44.940552], "type": "Point"}, "id": "xcU8sSwvTVdrNVL1BMyRnXOKhJs=", "properties": {"@spider": "usps_collection_boxes", "addr:city": "SALEM", "addr:country": "US", "addr:full": "295 STATE ST", "addr:postcode": "97301", "addr:state": "OR", "brand": "USPS", "collection_times": "Mo-Fr 15:00", "name": "USPS COLLECTION BOX - BLUE BOX", "note": "ON 12/24 AND 12/31, THIS BOX MAY BE COLLECTED AS EARLY AS 12 NOON.", "ref": "9730100108"}, "type": "Feature"}
{"geometry": {"coordinates": [-123.039122, 44.939955], "type": "Point"}, "id": "x5E0JXXygLDNM9EO_Tvat1h8N8o=", "properties": {"@spider": "usps_collection_boxes", "addr:city": "SALEM", "addr:country": "US", "addr:full": "390 STATE ST", "addr:postcode": "97301", "addr:state": "OR", "brand": "USPS", "collection_times": "Mo-Fr 15:00", "name": "USPS COLLECTION BOX - BLUE BOX", "note": "ON 12/24 AND 12/31, THIS BOX MAY BE COLLECTED AS EARLY AS 12 NOON.", "ref": "9730100137"}, "type": "Feature"}
{"geometry": {"coordinates": [-122.97637, 44.913623], "type": "Point"}, "id": "vp_k8MIcWxvDNL86oSvZEu2evJ4=", "properties": {"@spider": "usps_collection_boxes", "addr:city": "SALEM", "addr:country": "US", "addr:full": "1256 LANCASTER DR SE", "addr:postcode": "97301", "addr:state": "OR", "brand": "USPS", "collection_times": "Mo-Fr 15:00; Sa 11:15", "name": "USPS COLLECTION BOX - BLUE BOX", "note": "ON 12/24 AND 12/31, THIS BOX MAY BE COLLECTED AS EARLY AS 12 NOON.", "ref": "9730100145"}, "type": "Feature"}
{"geometry": {"coordinates": [-123.0398433567, 44.9417212065], "type": "Point"}, "id": "ae0WM1JGF9eyEmqL_xfL-evpYZ8=", "properties": {"@spider": "usps_collection_boxes", "addr:city": "SALEM", "addr:country": "US", "addr:full": "201 COMMERCIAL ST NE", "addr:postcode": "97301", "addr:state": "OR", "brand": "USPS", "collection_times": "Mo-Fr 15:00", "name": "USPS COLLECTION BOX - BLUE BOX", "note": "ON 12/24 AND 12/31, THIS BOX MAY BE COLLECTED AS EARLY AS 12 NOON.", "ref": "9730100153"}, "type": "Feature"}
{"geometry": {"coordinates": [-123.024204, 44.939923], "type": "Point"}, "id": "_LBCHfiGK2QZ4pPabACeq4ICOyw=", "properties": {"@spider": "usps_collection_boxes", "addr:city": "SALEM", "addr:country": "US", "addr:full": "1280 CENTER ST NE", "addr:postcode": "97301", "addr:state": "OR", "brand": "USPS", "collection_times": "Mo-Sa 10:00", "name": "USPS COLLECTION BOX - BLUE BOX", "ref": "9730100155"}, "type": "Feature"}
{"geometry": {"coordinates": [-123.039107, 44.93996], "type": "Point"}, "id": "MW4zR-UVhdqOENmXk0iwjOP5CMk=", "properties": {"@spider": "usps_collection_boxes", "addr:city": "SALEM", "addr:country": "US", "addr:full": "390 STATE ST", "addr:postcode": "97301", "addr:state": "OR", "brand": "USPS", "collection_times": "Mo-Fr 15:00", "name": "USPS COLLECTION BOX - BLUE BOX", "note": "ON 12/24 AND 12/31, THIS BOX MAY BE COLLECTED AS EARLY AS 12 NOON.", "ref": "9730100156"}, "type": "Feature"}
{"geometry": {"coordinates": [-123.027937, 44.937874], "type": "Point"}, "id": "Lm8pOgfoWQMf8FAmsS9wEwZCFD4=", "properties": {"@spider": "usps_collection_boxes", "addr:city": "SALEM", "addr:country": "US", "addr:full": "1162 COURT ST NE", "addr:postcode": "97301", "addr:state": "OR", "brand": "USPS", "collection_times": "Mo-Fr 15:00", "name": "USPS COLLECTION BOX - BLUE BOX", "note": "ON 12/24 AND 12/31, THIS BOX MAY BE COLLECTED AS EARLY AS 12 NOON.", "ref": "9730100159"}, "type": "Feature"}
{"geometry": {"coordinates": [-123.010624, 44.92481], "type": "Point"}, "id": "RAVycvmWvpx5tDC9nS7KTqUPmmE=", "properties": {"@spider": "usps_collection_boxes", "addr:city": "SALEM", "addr:country": "US", "addr:full": "1050 25TH ST SE", "addr:postcode": "97301", "addr:state": "OR", "brand": "USPS", "collection_times": "Mo-Sa 17:45", "name": "USPS COLLECTION BOX - BLUE BOX", "note": "ON 12/24 AND 12/31, THIS BOX MAY BE COLLECTED AS EARLY AS 12 NOON.", "ref": "9730100162"}, "type": "Feature"}
{"geometry": {"coordinates": [-123.01062, 44.924815], "type": "Point"}, "id": "kyT8-EQgwftIQFVBdQoPkArpRnU=", "properties": {"@spider": "usps_collection_boxes", "addr:city": "SALEM", "addr:country": "US", "addr:full": "1050 25TH ST SE", "addr:postcode": "97301", "addr:state": "OR", "brand": "USPS", "collection_times": "Mo-Sa 17:45", "name": "USPS COLLECTION BOX - BLUE BOX", "note": "ON 12/24 AND 12/31, THIS BOX MAY BE COLLECTED AS EARLY AS 12 NOON.", "ref": "9730100163"}, "type": "Feature"}
{"geometry": {"coordinates": [-123.010621, 44.924913], "type": "Point"}, "id": "3w8qjg5VA23nhnyNxxKKh7zpK8U=", "properties": {"@spider": "usps_collection_boxes", "addr:city": "SALEM", "addr:country": "US", "addr:full": "1050 25TH ST SE", "addr:postcode": "97301", "addr:state": "OR", "brand": "USPS", "collection_times": "Mo-Sa 17:45", "name": "USPS COLLECTION BOX - BLUE BOX", "note": "ON 12/24 AND 12/31, THIS BOX MAY BE COLLECTED AS EARLY AS 12 NOON.", "ref": "9730100164"}, "type": "Feature"}
{"geometry": {"coordinates": [-123.010626, 44.924921], "type": "Point"}, "id": "R2YTdlGUIjCLf2KZjeflO0lsaoc=", "properties": {"@spider": "usps_collection_boxes", "addr:city": "SALEM", "addr:country": "US", "addr:full": "1050 25TH ST SE", "addr:postcode": "97301", "addr:state": "OR", "brand": "USPS", "collection_times": "Mo-Sa 17:45", "name": "USPS COLLECTION BOX - BLUE BOX", "note": "ON 12/24 AND 12/31, THIS BOX MAY BE COLLECTED AS EARLY AS 12 NOON.", "ref": "9730100165"}, "type": "Feature"}
{"geometry": {"coordinates": [-123.010633, 44.92493], "type": "Point"}, "id": "T1K2fiEw8UF6gYef7_Y5qhsHVBc=", "properties": {"@spider": "usps_collection_boxes", "addr:city": "SALEM", "addr:country": "US", "addr:full": "1050 25TH ST SE", "addr:postcode": "97301", "addr:state": "OR", "brand": "USPS", "collection_times": "Mo-Sa 17:45", "name": "USPS COLLECTION BOX - BLUE BOX", "note": "ON 12/24 AND 12/31, THIS BOX MAY BE COLLECTED AS EARLY AS 12 NOON.", "ref": "9730100166"}, "type": "Feature"}
{"geometry": {"coordinates": [-123.010612, 44.925087], "type": "Point"}, "id": "v7mKFH_x1w4jOGmnvwRjgYuXKnA=", "properties": {"@spider": "usps_collection_boxes", "addr:city": "SALEM", "addr:country": "US", "addr:full": "1050 25TH ST SE", "addr:postcode": "97301", "addr:state": "OR", "brand": "USPS", "collection_times": "Mo-Sa 17:45", "name": "USPS COLLECTION BOX - BLUE BOX", "note": "ON 12/24 AND 12/31, THIS BOX MAY BE COLLECTED AS EARLY AS 12 NOON.", "ref": "9730100167"}, "type": "Feature"}
{"geometry": {"coordinates": [-123.010614, 44.925031], "type": "Point"}, "id": "bJczoLC9vnZM4r19AS2AcIzfwVQ=", "properties": {"@spider": "usps_collection_boxes", "addr:city": "SALEM", "addr:country": "US", "addr:full": "1050 25TH ST SE", "addr:postcode": "97301", "addr:state": "OR", "brand": "USPS", "collection_times": "Mo-Sa 17:45", "name": "USPS COLLECTION BOX - EXPRESS", "note": "ON 12/24 AND 12/31, THIS BOX MAY BE COLLECTED AS EARLY AS 12 NOON.", "ref": "9730100168"}, "type": "Feature"}
{"geometry": {"coordinates": [-123.010651, 44.924719], "type": "Point"}, "id": "8jdnskKo6hzoqapxRj4aderzDSI=", "properties": {"@spider": "usps_collection_boxes", "addr:city": "SALEM", "addr:country": "US", "addr:full": "1050 25TH ST SE", "addr:postcode": "97301", "addr:state": "OR", "brand": "USPS", "collection_times": "Mo-Sa 17:45", "name": "USPS COLLECTION BOX - PO LOBBY", "note": "ON 12/24 AND 12/31, THIS BOX MAY BE COLLECTED AS EARLY AS 12 NOON.", "ref": "9730100169"}, "type": "Feature"}
{"geometry": {"coordinates": [-123.010651, 44.924719], "type": "Point"}, "id": "-5YdQW7RVtx4i3tPg92OCjIRBWM=", "properties": {"@spider": "usps_collection_boxes", "addr:city": "SALEM", "addr:country": "US", "addr:full": "1050 25TH ST SE", "addr:postcode": "97301", "addr:state": "OR", "brand": "USPS", "collection_times": "Mo-Sa 17:45", "name": "USPS COLLECTION BOX - APC", "note": "ON 12/24 AND 12/31, THIS BOX MAY BE COLLECTED AS EARLY AS 12 NOON.", "ref": "9730100171"}, "type": "Feature"}
{"geometry": {"coordinates": [-123.032092, 44.938355], "type": "Point"}, "id": "JY7cQxHwlZICMcGiMeVfleM72s0=", "properties": {"@spider": "usps_collection_boxes", "addr:city": "SALEM", "addr:country": "US", "addr:full": "900 STATE ST", "addr:postcode": "97301", "addr:state": "OR", "brand": "USPS", "collection_times": "Mo-Fr 15:00", "name": "USPS COLLECTION BOX - BLUE BOX", "note": "ON 12/24 AND 12/31, THIS BOX MAY BE COLLECTED AS EARLY AS 12 NOON.", "ref": "9730100172"}, "type": "Feature"}
{"geometry": {"coordinates": [-123.033125, 44.936816], "type": "Point"}, "id": "6mS084KF3hOlLhDZ3SjZFfKdAF4=", "properties": {"@spider": "usps_collection_boxes", "addr:city": "SALEM", "addr:country": "US", "addr:full": "245 WINTER ST SE", "addr:postcode": "97301", "addr:state": "OR", "brand": "USPS", "collection_times": "Mo-Sa 10:00", "name": "USPS COLLECTION BOX - BLUE BOX", "ref": "9730100179"}, "type": "Feature"}
{"geometry": {"coordinates": [-123.038371, 44.93824], "type": "Point"}, "id": "LJ74BHDJw6D137SbIO5MreGDUF8=", "properties": {"@spider": "usps_collection_boxes", "addr:city": "SALEM", "addr:country": "US", "addr:full": "201 HIGH ST SE", "addr:postcode": "97301", "addr:state": "OR", "brand": "USPS", "collection_times": "Mo-Sa 10:00", "name": "USPS COLLECTION BOX - BLUE BOX", "ref": "9730100181"}, "type": "Feature"}
{"geometry": {"coordinates": [-123.023341, 44.941375], "type": "Point"}, "id": "jBLzf0vugzKEwVesXisAp7zVbS8=", "properties": {"@spider": "usps_collection_boxes", "addr:city": "SALEM", "addr:country": "US", "addr:full": "555 13TH ST NE", "addr:postcode": "97301", "addr:state": "OR", "brand": "USPS", "collection_times": "Mo-Sa 10:00", "name": "USPS COLLECTION BOX - BLUE BOX", "ref": "9730100184"}, "type": "Feature"}
{"geometry": {"coordinates": [-123.027702, 44.940283], "type": "Point"}, "id": "GdlxcnjxiVdniCVKxD3ig0YYrXA=", "properties": {"@spider": "usps_collection_boxes", "addr:city": "SALEM", "addr:country": "US", "addr:full": "355 CAPITOL ST NE", "addr:postcode": "97301", "addr:state": "OR", "brand": "USPS", "collection_times": "Mo-Sa 10:00", "name": "USPS COLLECTION BOX - BLUE BOX", "ref": "9730100186"}, "type": "Feature"}
{"geometry": {"coordinates": [-123.036311, 44.93578], "type": "Point"}, "id": "V27g5-Gjs-axlFrkrqhPS-kgnt0=", "properties": {"@spider": "usps_collection_boxes", "addr:city": "SALEM", "addr:country": "US", "addr:full": "440 CHURCH ST SE", "addr:postcode": "97301", "addr:state": "OR", "brand": "USPS", "collection_times": "Mo-Sa 10:00", "name": "USPS COLLECTION BOX - BLUE BOX", "ref": "9730100188"}, "type": "Feature"}
{"geometry": {"coordinates": [-123.042184041, 44.935175974], "type": "Point"}, "id": "GrdF9Uv7F4bUJBy2Zg6pmYKx4W0=", "properties": {"@spider": "usps_collection_boxes", "addr:city": "SALEM", "addr:country": "US", "addr:full": "585 LIBERTY ST SE", "addr:postcode": "97301", "addr:state": "OR", "brand": "USPS", "collection_times": "Mo-Sa 10:00", "name": "USPS COLLECTION BOX - BLUE BOX", "ref": "9730100190"}, "type": "Feature"}
{"geometry": {"coordinates": [-123.026314984, 44.935706722], "type": "Point"}, "id": "moOJMd5r1q9QuVzeod7Lu9wTNUI=", "properties": {"@spider": "usps_collection_boxes", "addr:city": "SALEM", "addr:country": "US", "addr:full": "1299 FERRY ST SE", "addr:postcode": "97301", "addr:state": "OR", "brand": "USPS", "collection_times": "Mo-Sa 10:00", "name": "USPS COLLECTION BOX - BLUE BOX", "ref": "9730100191"}, "type": "Feature"}
{"geometry": {"coordinates": [-123.023234, 44.936065], "type": "Point"}, "id": "pi4YVk4DIjl39OSbV-7oKYuDrEo=", "properties": {"@spider": "usps_collection_boxes", "addr:city": "SALEM", "addr:country": "US", "addr:full": "1489 STATE ST", "addr:postcode": "97301", "addr:state": "OR", "brand": "USPS", "collection_times": "Mo-Sa 10:00", "name": "USPS COLLECTION BOX - BLUE BOX", "ref": "9730100193"}, "type": "Feature"}
{"geometry": {"coordinates": [-123.036299, 44.937663], "type": "Point"}, "id": "69o59YqKpCavpHrv5_nJRfCEubk=", "properties": {"@spider": "usps_collection_boxes", "addr:city": "SALEM", "addr:country": "US", "addr:full": "242 CHURCH ST SE", "addr:postcode": "97301", "addr:state": "OR", "brand": "USPS", "collection_times": "Mo-Sa 10:00", "name": "USPS COLLECTION BOX - BLUE BOX", "ref": "9730100197"}, "type": "Feature"}
{"geometry": {"coordinates": [-123.0303649712, 44.941030147], "type": "Point"}, "id": "xOFPepo4k6AEuOYILs7tHnFIwFU=", "properties": {"@spider": "usps_collection_boxes", "addr:city": "SALEM", "addr:country": "US", "addr:full": "350 WINTER ST NE", "addr:postcode": "97301", "addr:state": "OR", "brand": "USPS", "collection_times": "Mo-Sa 10:00", "name": "USPS COLLECTION BOX - BLUE BOX", "ref": "9730100199"}, "type": "Feature"}
{"geometry": {"coordinates": [-123.010654686, 44.924714581], "type": "Point"}, "id": "AjdoaZXhm9y4jP-tVnENm9AP3Qw=", "properties": {"@spider": "usps_collection_boxes", "addr:city": "SALEM", "addr:country": "US", "addr:full": "1050 25TH ST SE", "addr:postcode": "97301", "addr:state": "OR", "brand": "USPS", "collection_times": "Mo-Fr 17:30", "name": "USPS COLLECTION BOX - PO LOBBY", "note": "ON 12/24 AND 12/31, THIS BOX MAY BE COLLECTED AS EARLY AS 12 NOON.", "ref": "9730100201"}, "type": "Feature"}
{"geometry": {"coordinates": [-123.010654686, 44.924714581], "type": "Point"}, "id": "OUNmcH5CKLClJBqYVGCih5HZgfE=", "properties": {"@spider": "usps_collection_boxes", "addr:city": "SALEM", "addr:country": "US", "addr:full": "1050 25TH ST SE", "addr:postcode": "97301", "addr:state": "OR", "brand": "USPS", "collection_times": "Mo-Fr 16:15", "name": "USPS COLLECTION BOX - PO LOBBY", "note": "ON 12/24 AND 12/31, THIS BOX MAY BE COLLECTED AS EARLY AS 12 NOON.", "ref": "9730100207"}, "type": "Feature"}
{"geometry": {"coordinates": [-123.045039, 44.91057], "type": "Point"}, "id": "mFI5d3nogs-qr69uwjQp2p8MhRc=", "properties": {"@spider": "usps_collection_boxes", "addr:city": "SALEM", "addr:country": "US", "addr:full": "3045 COMMERCIAL ST SE", "addr:postcode": "97302", "addr:state": "OR", "brand": "USPS", "collection_times": "Mo-Fr 15:00; Sa 12:45", "name": "USPS COLLECTION BOX - BLUE BOX", "note": "ON 12/24 AND 12/31, THIS BOX MAY BE COLLECTED AS EARLY AS 12 NOON.", "ref": "9730200000"}, "type": "Feature"}
{"geometry": {"coordinates": [-123.040219, 44.902635], "type": "Point"}, "id": "FsjPpkQM1pm1pl9z6_nBssicRVU=", "properties": {"@spider": "usps_collection_boxes", "addr:city": "SALEM", "addr:country": "US", "addr:full": "3624 COMMERCIAL ST SE", "addr:postcode": "97302", "addr:state": "OR", "brand": "USPS", "collection_times": "Mo-Sa 16:15", "name": "USPS COLLECTION BOX - BLUE BOX", "note": "ON 12/24 AND 12/31, THIS BOX MAY BE COLLECTED AS EARLY AS 12 NOON.", "ref": "9730200002"}, "type": "Feature"}
{"geometry": {"coordinates": [-123.040219, 44.902635], "type": "Point"}, "id": "ZEUNL6YyqtRVqKFUNH2iTg-8ojA=", "properties": {"@spider": "usps_collection_boxes", "addr:city": "SALEM", "addr:country": "US", "addr:full": "3624 COMMERCIAL ST SE", "addr:postcode": "97302", "addr:state": "OR", "brand": "USPS", "collection_times": "Mo-Sa 16:15", "name": "USPS COLLECTION BOX - BLUE BOX", "note": "ON 12/24 AND 12/31, THIS BOX MAY BE COLLECTED AS EARLY AS 12 NOON.", "ref": "9730200003"}, "type": "Feature"}
{"geometry": {"coordinates": [-123.040219, 44.902635], "type": "Point"}, "id": "K5u-EAiINq3xjC4pktinprZtx4E=", "properties": {"@spider": "usps_collection_boxes", "addr:city": "SALEM", "addr:country": "US", "addr:full": "3624 COMMERCIAL ST SE", "addr:postcode": "97302", "addr:state": "OR", "brand": "USPS", "collection_times": "Mo-Sa 16:15", "name": "USPS COLLECTION BOX - BLUE BOX", "note": "ON 12/24 AND 12/31, THIS BOX MAY BE COLLECTED AS EARLY AS 12 NOON.", "ref": "9730200004"}, "type": "Feature"}
{"geometry": {"coordinates": [-123.040219, 44.902635], "type": "Point"}, "id": "odYBzLcQESzoX0TR5UlZLFxyzSU=", "properties": {"@spider": "usps_collection_boxes", "addr:city": "SALEM", "addr:country": "US", "addr:full": "3624 COMMERCIAL ST SE", "addr:postcode": "97302", "addr:state": "OR", "brand": "USPS", "collection_times": "Mo-Sa 16:15", "name": "USPS COLLECTION BOX - BLUE BOX", "note": "ON 12/24 AND 12/31, THIS BOX MAY BE COLLECTED AS EARLY AS 12 NOON.", "ref": "9730200005"}, "type": "Feature"}
{"geometry": {"coordinates": [-123.040219, 44.902635], "type": "Point"}, "id": "gtdlv0FiRCMMGc-iLCYeyteLLDQ=", "properties": {"@spider": "usps_collection_boxes", "addr:city": "SALEM", "addr:country": "US", "addr:full": "3624 COMMERCIAL ST SE", "addr:postcode": "97302", "addr:state": "OR", "brand": "USPS", "collection_times": "Mo-Sa 16:15", "name": "USPS COLLECTION BOX - EXPRESS", "note": "ON 12/24 AND 12/31, THIS BOX MAY BE COLLECTED AS EARLY AS 12 NOON.", "ref": "9730200006"}, "type": "Feature"}
{"geometry": {"coordinates": [-123.0336440211, 44.8881864753], "type": "Point"}, "id": "KHm77JEReFTTixzNFb7aKqv00xY=", "properties": {"@spider": "usps_collection_boxes", "addr:city": "SALEM", "addr:country": "US", "addr:full": "4585 COMMERCIAL ST SE", "addr:postcode": "97302", "addr:state": "OR", "brand": "USPS", "collection_times": "Mo-Fr 15:00; Sa 13:00", "name": "USPS COLLECTION BOX - BLUE BOX", "note": "ON 12/24 AND 12/31, THIS BOX MAY BE COLLECTED AS EARLY AS 12 NOON.", "ref": "9730200009"}, "type": "Feature"}
{"geometry": {"coordinates": [-123.05984, 44.891613], "type": "Point"}, "id": "DmvjzVss_N8tdMMCPtWsiRTznJ0=", "properties": {"@spider": "usps_collection_boxes", "addr:city": "SALEM", "addr:country": "US", "addr:full": "4555 LIBERTY RD S", "addr:postcode": "97302", "addr:state": "OR", "brand": "USPS", "collection_times": "Mo-Fr 15:00; Sa 13:30", "name": "USPS COLLECTION BOX - BLUE BOX", "note": "ON 12/24 AND 12/31, THIS BOX MAY BE COLLECTED AS EARLY AS 12 NOON.", "ref": "9730200013"}, "type": "Feature"}
{"geometry": {"coordinates": [-123.040219, 44.902635], "type": "Point"}, "id": "txThKaqLE9LJc0dlDQ5TLHlzeEs=", "properties": {"@spider": "usps_collection_boxes", "addr:city": "SALEM", "addr:country": "US", "addr:full": "3624 COMMERCIAL ST SE", "addr:postcode": "97302", "addr:state": "OR", "brand": "USPS", "collection_times": "Mo-Sa 16:15", "name": "USPS COLLECTION BOX - BLUE BOX", "note": "ON 12/24 AND 12/31, THIS BOX MAY BE COLLECTED AS EARLY AS 12 NOON.", "ref": "9730200014"}, "type": "Feature"}
{"geometry": {"coordinates": [-123.0336440211, 44.8881864753], "type": "Point"}, "id": "5qeSe4-DmW40bAu6BttPjQh30ag=", "properties": {"@spider": "usps_collection_boxes", "addr:city": "SALEM", "addr:country": "US", "addr:full": "4585 COMMERCIAL ST SE", "addr:postcode": "97302", "addr:state": "OR", "brand": "USPS", "collection_times": "Mo-Fr 15:00; Sa 13:00", "name": "USPS COLLECTION BOX - BLUE BOX", "note": "ON 12/24 AND 12/31, THIS BOX MAY BE COLLECTED AS EARLY AS 12 NOON.", "ref": "9730200036"}, "type": "Feature"}
{"geometry": {"coordinates": [-123.040219, 44.902635], "type": "Point"}, "id": "4D65opQRMD4FlDJPOGsOVdWNmRM=", "properties": {"@spider": "usps_collection_boxes", "addr:city": "SALEM", "addr:country": "US", "addr:full": "3624 COMMERCIAL ST SE", "addr:postcode": "97302", "addr:state": "OR", "brand": "USPS", "collection_times": "Mo-Sa 16:15", "name": "USPS COLLECTION BOX - BLUE BOX", "note": "ON 12/24 AND 12/31, THIS BOX MAY BE COLLECTED AS EARLY AS 12 NOON.", "ref": "9730200043"}, "type": "Feature"}
{"geometry": {"coordinates": [-123.030775, 44.927661], "type": "Point"}, "id": "OOP3YCD7gXaaAxieO565etzc9oQ=", "properties": {"@spider": "usps_collection_boxes", "addr:city": "SALEM", "addr:country": "US", "addr:full": "1005 12TH ST SE", "addr:postcode": "97302", "addr:state": "OR", "brand": "USPS", "collection_times": "Mo-Fr 15:00; Sa 11:15", "name": "USPS COLLECTION BOX - BLUE BOX", "note": "ON 12/24 AND 12/31, THIS BOX MAY BE COLLECTED AS EARLY AS 12 NOON.", "ref": "9730200045"}, "type": "Feature"}
{"geometry": {"coordinates": [-123.040219, 44.902635], "type": "Point"}, "id": "vsdNbERGFCRlvaUiaB0dnPFDPds=", "properties": {"@spider": "usps_collection_boxes", "addr:city": "SALEM", "addr:country": "US", "addr:full": "3624 COMMERCIAL ST SE", "addr:postcode": "97302", "addr:state": "OR", "brand": "USPS", "collection_times": "Mo-Fr 16:15; Sa 15:45", "name": "USPS COLLECTION BOX - PO LOBBY", "note": "ON 12/24 AND 12/31, THIS BOX MAY BE COLLECTED AS EARLY AS 12 NOON.", "ref": "9730200046"}, "type": "Feature"}
{"geometry": {"coordinates": [-123.040219, 44.902635], "type": "Point"}, "id": "amSpZwvo_nKbKPleqg3X8rmqgEA=", "properties": {"@spider": "usps_collection_boxes", "addr:city": "SALEM", "addr:country": "US", "addr:full": "3624 COMMERCIAL ST SE", "addr:postcode": "97302", "addr:state": "OR", "brand": "USPS", "collection_times": "Mo-Fr 16:15; Sa 15:45", "name": "USPS COLLECTION BOX - APC", "note": "ON 12/24 AND 12/31, THIS BOX MAY BE COLLECTED AS EARLY AS 12 NOON.", "ref": "9730200047"}, "type": "Feature"}
{"geometry": {"coordinates": [-123.059838, 44.89161], "type": "Point"}, "id": "x99Rfg3gQxd9mL1GJkr3kn8AMxk=", "properties": {"@spider": "usps_collection_boxes", "addr:city": "SALEM", "addr:country": "US", "addr:full": "4555 LIBERTY RD S", "addr:postcode": "97302", "addr:state": "OR", "brand": "USPS", "collection_times": "Mo-Fr 15:00; Sa 13:15", "name": "USPS COLLECTION BOX - BLUE BOX", "note": "ON 12/24 AND 12/31, THIS BOX MAY BE COLLECTED AS EARLY AS 12 NOON.", "ref": "9730200048"}, "type": "Feature"}
{"geometry": {"coordinates": [-123.040219, 44.902635], "type": "Point"}, "id": "lgjSXtzVBEiw9JRe6juf3zsAEsU=", "properties": {"@spider": "usps_collection_boxes", "addr:city": "SALEM", "addr:country": "US", "addr:full": "3624 COMMERCIAL ST SE", "addr:postcode": "97302", "addr:state": "OR", "brand": "USPS", "collection_times": "Mo-Fr 16:15; Sa 15:45", "name": "USPS COLLECTION BOX - APC", "note": "ON 12/24 AND 12/31, THIS BOX MAY BE COLLECTED AS EARLY AS 12 NOON.", "ref": "9730200049"}, "type": "Feature"}
{"geometry": {"coordinates": [-123.045045, 44.910557], "type": "Point"}, "id": "BjT9RFZJSUcKuq4EYUXw0tibN6w=", "properties": {"@spider": "usps_collection_boxes", "addr:city": "SALEM", "addr:country": "US", "addr:full": "3045 COMMERCIAL ST SE", "addr:postcode": "97302", "addr:state": "OR", "brand": "USPS", "collection_times": "Mo-Fr 15:00; Sa 12:45", "name": "USPS COLLECTION BOX - BLUE BOX", "note": "ON 12/24 AND 12/31, THIS BOX MAY BE COLLECTED AS EARLY AS 12 NOON.", "ref": "9730200050"}, "type": "Feature"}
{"geometry": {"coordinates": [-123.060034, 44.88957], "type": "Point"}, "id": "KBxWjWBlh6mKxVP1hnk_JB_2ANA=", "properties": {"@spider": "usps_collection_boxes", "addr:city": "SALEM", "addr:country": "US", "addr:full": "4742 LIBERTY RD S", "addr:postcode": "97302", "addr:state": "OR", "brand": "USPS", "collection_times": "Mo-Fr 09:30", "name": "USPS COLLECTION BOX - BLUE BOX", "ref": "9730200051"}, "type": "Feature"}
{"geometry": {"coordinates": [-123.038493, 44.898764], "type": "Point"}, "id": "LAISNPCRVEcpY0gCSj4Fhy_rgVI=", "properties": {"@spider": "usps_collection_boxes", "addr:city": "SALEM", "addr:country": "US", "addr:full": "3997 COMMERCIAL ST SE", "addr:postcode": "97302", "addr:state": "OR", "brand": "USPS", "collection_times": "Mo-Sa 11:00", "name": "USPS COLLECTION BOX - BLUE BOX", "ref": "9730200056"}, "type": "Feature"}
{"geometry": {"coordinates": [-123.045037614, 44.916563573], "type": "Point"}, "id": "YtZ2ZK2_dN0dypQM3J779S2FuIA=", "properties": {"@spider": "usps_collection_boxes", "addr:city": "SALEM", "addr:country": "US", "addr:full": "2591 COMMERCIAL ST SE", "addr:postcode": "97302", "addr:state": "OR", "brand": "USPS", "collection_times": "Mo-Sa 10:00", "name": "USPS COLLECTION BOX - BLUE BOX", "ref": "9730200057"}, "type": "Feature"}
{"geometry": {"coordinates": [-123.040222252, 44.902631345], "type": "Point"}, "id": "rkitTt0Ju3_ZCiFL6z5F_13JyQ4=", "properties": {"@spider": "usps_collection_boxes", "addr:city": "SALEM", "addr:country": "US", "addr:full": "3624 COMMERCIAL ST SE", "addr:postcode": "97302", "addr:state": "OR", "brand": "USPS", "collection_times": "Mo-Fr 16:45", "name": "USPS COLLECTION BOX - PO LOBBY", "note": "ON 12/24 AND 12/31, THIS BOX MAY BE COLLECTED AS EARLY AS 12 NOON.", "ref": "9730200058"}, "type": "Feature"}
{"geometry": {"coordinates": [-123.0601574402, 44.8895431752], "type": "Point"}, "id": "MNPD6HxP1RjSJcCSOfkoSoF7IHU=", "properties": {"@spider": "usps_collection_boxes", "addr:city": "SALEM", "addr:country": "US", "addr:full": "4742 LIBERTY RD S", "addr:postcode": "97302", "addr:state": "OR", "brand": "USPS", "collection_times": "Mo-Fr 16:15; Sa 12:30", "name": "USPS COLLECTION BOX - PO LOBBY", "note": "ON 12/24 AND 12/31, THIS BOX MAY BE COLLECTED AS EARLY AS 12 NOON.", "ref": "9730200060"}, "type": "Feature"}
{"geometry": {"coordinates": [-123.063466, 44.93861], "type": "Point"}, "id": "o3tSFv2jssJAYuJBvylLRyuK78Q=", "properties": {"@spider": "usps_collection_boxes", "addr:city": "SALEM", "addr:country": "US", "addr:full": "1495 EDGEWATER ST NW", "addr:postcode": "97304", "addr:state": "OR", "brand": "USPS", "collection_times": "Mo-Sa 15:00", "name": "USPS COLLECTION BOX - BLUE BOX", "note": "ON 12/24 AND 12/31, THIS BOX MAY BE COLLECTED AS EARLY AS 12 NOON.", "ref": "9730400006"}, "type": "Feature"}
{"geometry": {"coordinates": [-123.026321, 44.879178], "type": "Point"}, "id": "6bBj5nAGPDf3elz_wT2pwVtRorQ=", "properties": {"@spider": "usps_collection_boxes", "addr:city": "SALEM", "addr:country": "US", "addr:full": "5250 COMMERCIAL ST SE", "addr:postcode": "97306", "addr:state": "OR", "brand": "USPS", "collection_times": "Mo-Fr 15:00; Sa 13:00", "name": "USPS COLLECTION BOX - BLUE BOX", "note": "ON 12/24 AND 12/31, THIS BOX MAY BE COLLECTED AS EARLY AS 12 NOON.", "ref": "9730600000"}, "type": "Feature"}
{"geometry": {"coordinates": [-123.039921, 44.936838], "type": "Point"}, "id": "9ZLYT_PtMy8y_sSzg71cnRWxSkY=", "properties": {"@spider": "usps_collection_boxes", "addr:city": "SALEM", "addr:country": "US", "addr:full": "410 MILL ST SE", "addr:postcode": "97308", "addr:state": "OR", "brand": "USPS", "collection_times": "Mo-Sa 16:00", "name": "USPS COLLECTION BOX - BLUE BOX", "note": "ON 12/24 AND 12/31, THIS BOX MAY BE COLLECTED AS EARLY AS 12 NOON.", "ref": "9730800001"}, "type": "Feature"}
{"geometry": {"coordinates": [-123.039893, 44.936834], "type": "Point"}, "id": "vbJgZMMcqbSp6qzXvI3JZ0gnlM0=", "properties": {"@spider": "usps_collection_boxes", "addr:city": "SALEM", "addr:country": "US", "addr:full": "410 MILL ST SE", "addr:postcode": "97308", "addr:state": "OR", "brand": "USPS", "collection_times": "Mo-Sa 16:00", "name": "USPS COLLECTION BOX - BLUE BOX", "note": "ON 12/24 AND 12/31, THIS BOX MAY BE COLLECTED AS EARLY AS 12 NOON.", "ref": "9730800002"}, "type": "Feature"}
{"geometry": {"coordinates": [-123.039858037, 44.936880959], "type": "Point"}, "id": "G-wpA9rubR1tWqFUJiLLD0qjrCQ=", "properties": {"@spider": "usps_collection_boxes", "addr:city": "SALEM", "addr:country": "US", "addr:full": "410 MILL ST SE", "addr:postcode": "97308", "addr:state": "OR", "brand": "USPS", "collection_times": "Mo-Fr 16:00", "name": "USPS COLLECTION BOX - PO LOBBY", "note": "ON 12/24 AND 12/31, THIS BOX MAY BE COLLECTED AS EARLY AS 12 NOON.", "ref": "9730800006"}, "type": "Feature"}
{"geometry": {"coordinates": [-122.9830259937, 44.9218909931], "type": "Point"}, "id": "fW5vNu9_j-2zjG8TQ7GSKvhpUlQ=", "properties": {"@spider": "usps_collection_boxes", "addr:city": "SALEM", "addr:country": "US", "addr:full": "581 LANCASTER DR SE", "addr:postcode": "97317", "addr:state": "OR", "brand": "USPS", "collection_times": "Mo-Fr 16:00; Sa 11:00", "name": "USPS COLLECTION BOX - PO LOBBY", "note": "ON 12/24 AND 12/31, THIS BOX MAY BE COLLECTED AS EARLY AS 12 NOON.", "ref": "9731700001"}, "type": "Feature"}
{"geometry": {"coordinates": [-123.061339, 44.681391], "type": "Point"}, "id": "S4bNPoqtaXPWBplhlrvpHdG0Vd0=", "properties": {"@spider": "usps_collection_boxes", "addr:city": "ALBANY", "addr:country": "US", "addr:full": "4222 OLD SALEM RD NE", "addr:postcode": "97321", "addr:state": "OR", "brand": "USPS", "collection_times": "Mo-Fr 14:00", "name": "USPS COLLECTION BOX - BLUE BOX", "note": "ON 12/24 AND 12/31, THIS BOX MAY BE COLLECTED AS EARLY AS 12 NOON.", "ref": "9732100006"}, "type": "Feature"}
{"geometry": {"coordinates": [-123.1035275008, 44.6367675573], "type": "Point"}, "id": "rpz45wx9ZNwa4nXrT6QEZCdhtso=", "properties": {"@spider": "usps_collection_boxes", "addr:city": "ALBANY", "addr:country": "US", "addr:full": "118 2ND AVE SE", "addr:postcode": "97321", "addr:state": "OR", "brand": "USPS", "collection_times": "Mo-Fr 15:00", "name": "USPS COLLECTION BOX - BLUE BOX", "note": "ON 12/24 AND 12/31, THIS BOX MAY BE COLLECTED AS EARLY AS 12 NOON.", "ref": "9732100007"}, "type": "Feature"}
{"geometry": {"coordinates": [-123.105104, 44.632733], "type": "Point"}, "id": "mNTuEvC1UTLn5fhzolGCBtq6gbE=", "properties": {"@spider": "usps_collection_boxes", "addr:city": "ALBANY", "addr:country": "US", "addr:full": "651 ELLSWORTH ST SW", "addr:postcode": "97321", "addr:state": "OR", "brand": "USPS", "collection_times": "Mo-Sa 15:00", "name": "USPS COLLECTION BOX - BLUE BOX", "note": "ON 12/24 AND 12/31, THIS BOX MAY BE COLLECTED AS EARLY AS 12 NOON.", "ref": "9732100008"}, "type": "Feature"}
{"geometry": {"coordinates": [-123.1034470613, 44.6351804094], "type": "Point"}, "id": "nJSBoCHCCxsauicM_r_Ov7ONBok=", "properties": {"@spider": "usps_collection_boxes", "addr:city": "ALBANY", "addr:country": "US", "addr:full": "139 4TH AVE SE", "addr:postcode": "97321", "addr:state": "OR", "brand": "USPS", "collection_times": "Mo-Fr 15:00", "name": "USPS COLLECTION BOX - BLUE BOX", "note": "ON 12/24 AND 12/31, THIS BOX MAY BE COLLECTED AS EARLY AS 12 NOON.", "ref": "9732100009"}, "type": "Feature"}
{"geometry": {"coordinates": [-123.090664, 44.636711], "type": "Point"}, "id": "cPLPQXO4kSxdZv62fHhccfpO4lM=", "properties": {"@spider": "usps_collection_boxes", "addr:city": "ALBANY", "addr:country": "US", "addr:full": "1143 SANTIAM HWY SE", "addr:postcode": "97321", "addr:state": "OR", "brand": "USPS", "collection_times": "Mo-Sa 14:45", "name": "USPS COLLECTION BOX - BLUE BOX", "note": "ON 12/24 AND 12/31, THIS BOX MAY BE COLLECTED AS EARLY AS 12 NOON.", "ref": "9732100010"}, "type": "Feature"}
{"geometry": {"coordinates": [-123.0679457928, 44.6401925414], "type": "Point"}, "id": "7y5Li8EhDMaSfIzTtx9OmQ49bq4=", "properties": {"@spider": "usps_collection_boxes", "addr:city": "ALBANY", "addr:country": "US", "addr:full": "3100 PACIFIC BLVD SE", "addr:postcode": "97321", "addr:state": "OR", "brand": "USPS", "collection_times": "Mo-Sa 15:00", "name": "USPS COLLECTION BOX - BLUE BOX", "note": "ON 12/24 AND 12/31, THIS BOX MAY BE COLLECTED AS EARLY AS 12 NOON.", "ref": "9732100013"}, "type": "Feature"}
{"geometry": {"coordinates": [-123.071976, 44.630934], "type": "Point"}, "id": "NQa2y9dhqEzaMTu7oWv6yz5wq6A=", "properties": {"@spider": "usps_collection_boxes", "addr:city": "ALBANY", "addr:country": "US", "addr:full": "2818 SANTIAM HWY SE", "addr:postcode": "97321", "addr:state": "OR", "brand": "USPS", "collection_times": "Mo-Sa 14:45", "name": "USPS COLLECTION BOX - BLUE BOX", "note": "ON 12/24 AND 12/31, THIS BOX MAY BE COLLECTED AS EARLY AS 12 NOON.", "ref": "9732100015"}, "type": "Feature"}
{"geometry": {"coordinates": [-123.075094, 44.631527], "type": "Point"}, "id": "bsLhS_zv64kRgSuPLvuNddwOIFs=", "properties": {"@spider": "usps_collection_boxes", "addr:city": "ALBANY", "addr:country": "US", "addr:full": "2500 SANTIAM HWY SE", "addr:postcode": "97321", "addr:state": "OR", "brand": "USPS", "collection_times": "Mo-Sa 15:00", "name": "USPS COLLECTION BOX - BLUE BOX", "note": "ON 12/24 AND 12/31, THIS BOX MAY BE COLLECTED AS EARLY AS 12 NOON.", "ref": "9732100017"}, "type": "Feature"}
{"geometry": {"coordinates": [-123.079265, 44.627557], "type": "Point"}, "id": "qWgcKaEy5RAOy1RWshXgbO-f_SI=", "properties": {"@spider": "usps_collection_boxes", "addr:city": "ALBANY", "addr:country": "US", "addr:full": "1990 14TH AVE SE", "addr:postcode": "97321", "addr:state": "OR", "brand": "USPS", "collection_times": "Mo-Sa 15:00", "name": "USPS COLLECTION BOX - BLUE BOX", "note": "ON 12/24 AND 12/31, THIS BOX MAY BE COLLECTED AS EARLY AS 12 NOON.", "ref": "9732100019"}, "type": "Feature"}
{"geometry": {"coordinates": [-123.084624, 44.63315], "type": "Point"}, "id": "l5ga3hikBkCEiu5Iwld9XUv3anM=", "properties": {"@spider": "usps_collection_boxes", "addr:city": "ALBANY", "addr:country": "US", "addr:full": "1640 9TH AVE SE", "addr:postcode": "97321", "addr:state": "OR", "brand": "USPS", "collection_times": "Mo-Sa 15:00", "name": "USPS COLLECTION BOX - BLUE BOX", "note": "ON 12/24 AND 12/31, THIS BOX MAY BE COLLECTED AS EARLY AS 12 NOON.", "ref": "9732100021"}, "type": "Feature"}
{"geometry": {"coordinates": [-123.089699, 44.610224], "type": "Point"}, "id": "hTdA73nFeI8oSU0OQhQeyufgUps=", "properties": {"@spider": "usps_collection_boxes", "addr:city": "ALBANY", "addr:country": "US", "addr:full": "1012 34TH AVE SE", "addr:postcode": "97321", "addr:state": "OR", "brand": "USPS", "collection_times": "Mo-Sa 09:30", "name": "USPS COLLECTION BOX - BLUE BOX", "ref": "9732100024"}, "type": "Feature"}
{"geometry": {"coordinates": [-123.116318, 44.63192], "type": "Point"}, "id": "I-SfXtxhE8aRTGQNuE57LpaqrAg=", "properties": {"@spider": "usps_collection_boxes", "addr:city": "ALBANY", "addr:country": "US", "addr:full": "1046 6TH AVE SW", "addr:postcode": "97321", "addr:state": "OR", "brand": "USPS", "collection_times": "Mo-Sa 15:00", "name": "USPS COLLECTION BOX - BLUE BOX", "note": "ON 12/24 AND 12/31, THIS BOX MAY BE COLLECTED AS EARLY AS 12 NOON.", "ref": "9732100028"}, "type": "Feature"}
{"geometry": {"coordinates": [-123.1041205061, 44.6334621337], "type": "Point"}, "id": "FV22Z7FrWMZy430dKdlk8zw2xHg=", "properties": {"@spider": "usps_collection_boxes", "addr:city": "ALBANY", "addr:country": "US", "addr:full": "600 LYON ST S", "addr:postcode": "97321", "addr:state": "OR", "brand": "USPS", "collection_times": "Mo-Sa 15:00", "name": "USPS COLLECTION BOX - BLUE BOX", "note": "ON 12/24 AND 12/31, THIS BOX MAY BE COLLECTED AS EARLY AS 12 NOON.", "ref": "9732100029"}, "type": "Feature"}
{"geometry": {"coordinates": [-123.107425, 44.63629], "type": "Point"}, "id": "NzO7eBRcuE_4_xRbSI11IEOZ0zA=", "properties": {"@spider": "usps_collection_boxes", "addr:city": "ALBANY", "addr:country": "US", "addr:full": "300 2ND AVE SW", "addr:postcode": "97321", "addr:state": "OR", "brand": "USPS", "collection_times": "Mo-Sa 15:00", "name": "USPS COLLECTION BOX - BLUE BOX", "note": "ON 12/24 AND 12/31, THIS BOX MAY BE COLLECTED AS EARLY AS 12 NOON.", "ref": "9732100032"}, "type": "Feature"}
{"geometry": {"coordinates": [-123.114515, 44.614846], "type": "Point"}, "id": "V_roJis2ha0GoUJhnQJmw-WSQYc=", "properties": {"@spider": "usps_collection_boxes", "addr:city": "ALBANY", "addr:country": "US", "addr:full": "2825 29TH AVE SW", "addr:postcode": "97321", "addr:state": "OR", "brand": "USPS", "collection_times": "Mo-Sa 15:00", "name": "USPS COLLECTION BOX - BLUE BOX", "note": "ON 12/24 AND 12/31, THIS BOX MAY BE COLLECTED AS EARLY AS 12 NOON.", "ref": "9732100037"}, "type": "Feature"}
{"geometry": {"coordinates": [-123.110094245, 44.636060355], "type": "Point"}, "id": "0CjhH3gyN1kIR_S0gFKvQXS9pb0=", "properties": {"@spider": "usps_collection_boxes", "addr:city": "ALBANY", "addr:country": "US", "addr:full": "525 2ND AVE SW", "addr:postcode": "97321", "addr:state": "OR", "brand": "USPS", "collection_times": "Mo-Fr 15:45; Sa 14:00", "name": "USPS COLLECTION BOX - BLUE BOX", "note": "ON 12/24 AND 12/31, THIS BOX MAY BE COLLECTED AS EARLY AS 12 NOON.", "ref": "9732100038"}, "type": "Feature"}
{"geometry": {"coordinates": [-123.110093, 44.636067], "type": "Point"}, "id": "Cb4B73epn-QBUgc-WqWCe2HTpro=", "properties": {"@spider": "usps_collection_boxes", "addr:city": "ALBANY", "addr:country": "US", "addr:full": "525 2ND AVE SW", "addr:postcode": "97321", "addr:state": "OR", "brand": "USPS", "collection_times": "Mo-Fr 17:00; Sa 15:45", "name": "USPS COLLECTION BOX - BLUE BOX", "note": "ON 12/24 AND 12/31, THIS BOX MAY BE COLLECTED AS EARLY AS 12 NOON.", "ref": "9732100039"}, "type": "Feature"}
{"geometry": {"coordinates": [-123.110093, 44.636067], "type": "Point"}, "id": "sZjPOTP0jLreDoBc9WJxSAZIft0=", "properties": {"@spider": "usps_collection_boxes", "addr:city": "ALBANY", "addr:country": "US", "addr:full": "525 2ND AVE SW", "addr:postcode": "97321", "addr:state": "OR", "brand": "USPS", "collection_times": "Mo-Fr 17:00; Sa 15:45", "name": "USPS COLLECTION BOX - BLUE BOX", "note": "ON 12/24 AND 12/31, THIS BOX MAY BE COLLECTED AS EARLY AS 12 NOON.", "ref": "9732100040"}, "type": "Feature"}
{"geometry": {"coordinates": [-123.1149050142, 44.6295719941], "type": "Point"}, "id": "Gz8SlezbaY8mPXjG3Ap8of9zuLA=", "properties": {"@spider": "usps_collection_boxes", "addr:city": "ALBANY", "addr:country": "US", "addr:full": "920 ELM ST SW", "addr:postcode": "97321", "addr:state": "OR", "brand": "USPS", "collection_times": "Mo-Sa 15:00", "name": "USPS COLLECTION BOX - BLUE BOX", "note": "ON 12/24 AND 12/31, THIS BOX MAY BE COLLECTED AS EARLY AS 12 NOON.", "ref": "9732100045"}, "type": "Feature"}
{"geometry": {"coordinates": [-123.1246962576, 44.6254912809], "type": "Point"}, "id": "Il3eieh6vPESGXmKYIQKTbr2l_M=", "properties": {"@spider": "usps_collection_boxes", "addr:city": "ALBANY", "addr:country": "US", "addr:full": "1895 14TH AVE SE", "addr:postcode": "97321", "addr:state": "OR", "brand": "USPS", "collection_times": "Mo-Sa 15:00", "name": "USPS COLLECTION BOX - BLUE BOX", "note": "ON 12/24 AND 12/31, THIS BOX MAY BE COLLECTED AS EARLY AS 12 NOON.", "ref": "9732100046"}, "type": "Feature"}
{"geometry": {"coordinates": [-123.110093, 44.636067], "type": "Point"}, "id": "BxFqCT-aSbNg-3JMdfdl_X2FmJs=", "properties": {"@spider": "usps_collection_boxes", "addr:city": "ALBANY", "addr:country": "US", "addr:full": "525 2ND AVE SW", "addr:postcode": "97321", "addr:state": "OR", "brand": "USPS", "collection_times": "Mo-Sa 15:45", "name": "USPS COLLECTION BOX - APC", "note": "ON 12/24 AND 12/31, THIS BOX MAY BE COLLECTED AS EARLY AS 12 NOON.", "ref": "9732100050"}, "type": "Feature"}
{"geometry": {"coordinates": [-123.112907, 44.645858], "type": "Point"}, "id": "NtnvyypkWEmzsRtQ7A0KP5C8ROo=", "properties": {"@spider": "usps_collection_boxes", "addr:city": "ALBANY", "addr:country": "US", "addr:full": "621 HICKORY ST NW", "addr:postcode": "97321", "addr:state": "OR", "brand": "USPS", "collection_times": "Mo-Sa 13:00", "name": "USPS COLLECTION BOX - BLUE BOX", "note": "ON 12/24 AND 12/31, THIS BOX MAY BE COLLECTED AS EARLY AS 12 NOON.", "ref": "9732100051"}, "type": "Feature"}
{"geometry": {"coordinates": [-123.090498, 44.624972], "type": "Point"}, "id": "qmsjTut2KtdJHCAogtvLEo5gMPY=", "properties": {"@spider": "usps_collection_boxes", "addr:city": "ALBANY", "addr:country": "US", "addr:full": "1711 HILL ST SE", "addr:postcode": "97321", "addr:state": "OR", "brand": "USPS", "collection_times": "Mo-Fr 15:00", "name": "USPS COLLECTION BOX - BLUE BOX", "note": "ON 12/24 AND 12/31, THIS BOX MAY BE COLLECTED AS EARLY AS 12 NOON.", "ref": "9732100056"}, "type": "Feature"}
{"geometry": {"coordinates": [-123.1151661358, 44.6318097888], "type": "Point"}, "id": "Pr6dxZp8UAtdQ7jbSYUMsRb19CM=", "properties": {"@spider": "usps_collection_boxes", "addr:city": "ALBANY", "addr:country": "US", "addr:full": "650 ELM ST SW", "addr:postcode": "97321", "addr:state": "OR", "brand": "USPS", "collection_times": "Mo-Sa 15:00", "name": "USPS COLLECTION BOX - BLUE BOX", "note": "ON 12/24 AND 12/31, THIS BOX MAY BE COLLECTED AS EARLY AS 12 NOON.", "ref": "9732100057"}, "type": "Feature"}
{"geometry": {"coordinates": [-123.110094245, 44.636060355], "type": "Point"}, "id": "7PSahYD97Smhb1oeXaEvQ_LBFrE=", "properties": {"@spider": "usps_collection_boxes", "addr:city": "ALBANY", "addr:country": "US", "addr:full": "525 2ND AVE SW", "addr:postcode": "97321", "addr:state": "OR", "brand": "USPS", "collection_times": "Mo-Fr 17:00", "name": "USPS COLLECTION BOX - PO LOBBY", "note": "ON 12/24 AND 12/31, THIS BOX MAY BE COLLECTED AS EARLY AS 12 NOON.", "ref": "9732100059"}, "type": "Feature"}
{"geometry": {"coordinates": [-122.984412, 44.394759], "type": "Point"}, "id": "ypAmqfEyC9HJe76K95IJ_iWHN8U=", "properties": {"@spider": "usps_collection_boxes", "addr:city": "BROWNSVILLE", "addr:country": "US", "addr:full": "430 N MAIN ST", "addr:postcode": "97327", "addr:state": "OR", "brand": "USPS", "collection_times": "Mo-Fr 14:45; Sa 13:00", "name": "USPS COLLECTION BOX - BLUE BOX", "note": "ON 12/24 AND 12/31, THIS BOX MAY BE COLLECTED AS EARLY AS 12 NOON.", "ref": "9732700000"}, "type": "Feature"}
{"geometry": {"coordinates": [-122.984413588, 44.394759503], "type": "Point"}, "id": "mK95TFeC2rdvXdOQrzyWkBEFzMA=", "properties": {"@spider": "usps_collection_boxes", "addr:city": "BROWNSVILLE", "addr:country": "US", "addr:full": "430 N MAIN ST", "addr:postcode": "97327", "addr:state": "OR", "brand": "USPS", "collection_times": "Mo-Fr 14:45", "name": "USPS COLLECTION BOX - PO LOBBY", "note": "ON 12/24 AND 12/31, THIS BOX MAY BE COLLECTED AS EARLY AS 12 NOON.", "ref": "9732700002"}, "type": "Feature"}
{"geometry": {"coordinates": [-122.897442, 44.635336], "type": "Point"}, "id": "VLoAxMqQVZ_AO3luWhjtm-xvzeY=", "properties": {"@spider": "usps_collection_boxes", "addr:city": "CRABTREE", "addr:country": "US", "addr:full": "37640 CRABTREE DR", "addr:postcode": "97335", "addr:state": "OR", "brand": "USPS", "collection_times": "Mo-Fr 11:45; Sa 09:30", "name": "USPS COLLECTION BOX - PO LOBBY", "ref": "9733500000"}, "type": "Feature"}
{"geometry": {"coordinates": [-122.897422, 44.635363], "type": "Point"}, "id": "Le03sB0lq2bpU9XU5Zc9nEpsi4c=", "properties": {"@spider": "usps_collection_boxes", "addr:city": "CRABTREE", "addr:country": "US", "addr:full": "37640 CRABTREE DR", "addr:postcode": "97335", "addr:state": "OR", "brand": "USPS", "collection_times": "Mo-Fr 11:45; Sa 09:30", "name": "USPS COLLECTION BOX - PO LOBBY", "ref": "9733500002"}, "type": "Feature"}
{"geometry": {"coordinates": [-122.897462186, 44.635325481], "type": "Point"}, "id": "qVE_-pRv4rVxSBmXgwmeQ39jZbc=", "properties": {"@spider": "usps_collection_boxes", "addr:city": "CRABTREE", "addr:country": "US", "addr:full": "37640 CRABTREE DR", "addr:postcode": "97335", "addr:state": "OR", "brand": "USPS", "collection_times": "Mo-Fr 11:45", "name": "USPS COLLECTION BOX - PO LOBBY", "ref": "9733500003"}, "type": "Feature"}
{"geometry": {"coordinates": [-122.855413, 44.357312], "type": "Point"}, "id": "yBTAYb4tMSOsFT41JkBMoLtTQ2k=", "properties": {"@spider": "usps_collection_boxes", "addr:city": "CRAWFORDSVILLE", "addr:country": "US", "addr:full": "26064 1ST ST", "addr:postcode": "97336", "addr:state": "OR", "brand": "USPS", "collection_times": "Mo-Fr 14:30; Sa 09:15", "name": "USPS COLLECTION BOX - BLUE BOX", "note": "ON 12/24 AND 12/31, THIS BOX MAY BE COLLECTED AS EARLY AS 12 NOON.", "ref": "9733600000"}, "type": "Feature"}
{"geometry": {"coordinates": [-122.855374, 44.357275], "type": "Point"}, "id": "otbv48MwkHqdkekJC38oeeLtLpI=", "properties": {"@spider": "usps_collection_boxes", "addr:city": "CRAWFORDSVILLE", "addr:country": "US", "addr:full": "26064 1ST ST", "addr:postcode": "97336", "addr:state": "OR", "brand": "USPS", "collection_times": "Mo-Fr 14:30; Sa 09:15", "name": "USPS COLLECTION BOX - PO LOBBY", "note": "ON 12/24 AND 12/31, THIS BOX MAY BE COLLECTED AS EARLY AS 12 NOON.", "ref": "9733600001"}, "type": "Feature"}
{"geometry": {"coordinates": [-122.855440419, 44.357284173], "type": "Point"}, "id": "Q4_zykVoBuvWeQgLjvdNgB8pei4=", "properties": {"@spider": "usps_collection_boxes", "addr:city": "CRAWFORDSVILLE", "addr:country": "US", "addr:full": "26064 1ST ST", "addr:postcode": "97336", "addr:state": "OR", "brand": "USPS", "collection_times": "Mo-Fr 14:30", "name": "USPS COLLECTION BOX - PO LOBBY", "note": "ON 12/24 AND 12/31, THIS BOX MAY BE COLLECTED AS EARLY AS 12 NOON.", "ref": "9733600002"}, "type": "Feature"}
{"geometry": {"coordinates": [-124.063035, 44.817891], "type": "Point"}, "id": "tnfhm4kbyWCEKOAC3jlsmBoTdSc=", "properties": {"@spider": "usps_collection_boxes", "addr:city": "DEPOE BAY", "addr:country": "US", "addr:full": "486 N HIGHWAY 101", "addr:postcode": "97341", "addr:state": "OR", "brand": "USPS", "collection_times": "Mo-Fr 14:45; Sa 10:30", "name": "USPS COLLECTION BOX - BLUE BOX", "note": "ON 12/24 AND 12/31, THIS BOX MAY BE COLLECTED AS EARLY AS 12 NOON.", "ref": "9734100000"}, "type": "Feature"}
{"geometry": {"coordinates": [-124.063035, 44.817891], "type": "Point"}, "id": "1RzlUQaT5k4IOy_6Y2BdIhtwV7E=", "properties": {"@spider": "usps_collection_boxes", "addr:city": "DEPOE BAY", "addr:country": "US", "addr:full": "486 N HIGHWAY 101", "addr:postcode": "97341", "addr:state": "OR", "brand": "USPS", "collection_times": "Mo-Fr 14:45; Sa 10:30", "name": "USPS COLLECTION BOX - PO LOBBY", "note": "ON 12/24 AND 12/31, THIS BOX MAY BE COLLECTED AS EARLY AS 12 NOON.", "ref": "9734100001"}, "type": "Feature"}
{"geometry": {"coordinates": [-124.063038715, 44.817890469], "type": "Point"}, "id": "p5aqF619OejUvdXHStz-cwmGTIg=", "properties": {"@spider": "usps_collection_boxes", "addr:city": "DEPOE BAY", "addr:country": "US", "addr:full": "486 N HIGHWAY 101", "addr:postcode": "97341", "addr:state": "OR", "brand": "USPS", "collection_times": "Mo-Fr 15:15", "name": "USPS COLLECTION BOX - PO LOBBY", "note": "ON 12/24 AND 12/31, THIS BOX MAY BE COLLECTED AS EARLY AS 12 NOON.", "ref": "9734100003"}, "type": "Feature"}
{"geometry": {"coordinates": [-122.574787555, 44.4040176708], "type": "Point"}, "id": "xJ-uM27ChVUjvjUKmE5kyS9B2k4=", "properties": {"@spider": "usps_collection_boxes", "addr:city": "FOSTER", "addr:country": "US", "addr:full": "5300 POPLAR ST", "addr:postcode": "97345", "addr:state": "OR", "brand": "USPS", "collection_times": "Mo-Fr 14:30; Sa 10:00", "name": "USPS COLLECTION BOX - BLUE BOX", "note": "ON 12/24 AND 12/31, THIS BOX MAY BE COLLECTED AS EARLY AS 12 NOON.", "ref": "9734500000"}, "type": "Feature"}
{"geometry": {"coordinates": [-122.574787555, 44.4040176708], "type": "Point"}, "id": "pTeUb2EA0Vagwg-EX5EMCaAWEkQ=", "properties": {"@spider": "usps_collection_boxes", "addr:city": "FOSTER", "addr:country": "US", "addr:full": "5300 POPLAR ST", "addr:postcode": "97345", "addr:state": "OR", "brand": "USPS", "collection_times": "Mo-Fr 14:30; Sa 10:00", "name": "USPS COLLECTION BOX - PO LOBBY", "note": "ON 12/24 AND 12/31, THIS BOX MAY BE COLLECTED AS EARLY AS 12 NOON.", "ref": "9734500001"}, "type": "Feature"}
{"geometry": {"coordinates": [-122.672550526, 44.410153493], "type": "Point"}, "id": "gu6pA2XDhPE0wxEgOBXvKKvhPac=", "properties": {"@spider": "usps_collection_boxes", "addr:city": "FOSTER", "addr:country": "US", "addr:full": "5300 POPLAR ST", "addr:postcode": "97345", "addr:state": "OR", "brand": "USPS", "collection_times": "Mo-Fr 14:15", "name": "USPS COLLECTION BOX - PO LOBBY", "note": "ON 12/24 AND 12/31, THIS BOX MAY BE COLLECTED AS EARLY AS 12 NOON.", "ref": "9734500002"}, "type": "Feature"}
{"geometry": {"coordinates": [-123.109784, 44.388138], "type": "Point"}, "id": "2sm1C00VQ7YI8XD0BYs161VqFLo=", "properties": {"@spider": "usps_collection_boxes", "addr:city": "HALSEY", "addr:country": "US", "addr:full": "124 NW 2ND ST", "addr:postcode": "97348", "addr:state": "OR", "brand": "USPS", "collection_times": "Mo-Fr 15:00; Sa 14:00", "name": "USPS COLLECTION BOX - BLUE BOX", "note": "ON 12/24 AND 12/31, THIS BOX MAY BE COLLECTED AS EARLY AS 12 NOON.", "ref": "9734800000"}, "type": "Feature"}
{"geometry": {"coordinates": [-123.109541, 44.389386], "type": "Point"}, "id": "wu48guEKJdx3Dh23ZHV6guA3elc=", "properties": {"@spider": "usps_collection_boxes", "addr:city": "HALSEY", "addr:country": "US", "addr:full": "124 NW 2ND ST", "addr:postcode": "97348", "addr:state": "OR", "brand": "USPS", "collection_times": "Mo-Fr 15:00; Sa 14:00", "name": "USPS COLLECTION BOX - BLUE BOX", "note": "ON 12/24 AND 12/31, THIS BOX MAY BE COLLECTED AS EARLY AS 12 NOON.", "ref": "9734800001"}, "type": "Feature"}
{"geometry": {"coordinates": [-123.109187, 44.389331], "type": "Point"}, "id": "R34y9q3T9XtzprPyCE4hHTQwJ-E=", "properties": {"@spider": "usps_collection_boxes", "addr:city": "HALSEY", "addr:country": "US", "addr:full": "124 NW 2ND ST", "addr:postcode": "97348", "addr:state": "OR", "brand": "USPS", "collection_times": "Mo-Fr 15:00; Sa 14:00", "name": "USPS COLLECTION BOX - PO LOBBY", "note": "ON 12/24 AND 12/31, THIS BOX MAY BE COLLECTED AS EARLY AS 12 NOON.", "ref": "9734800002"}, "type": "Feature"}
{"geometry": {"coordinates": [-123.10976783, 44.388134232], "type": "Point"}, "id": "S2p4eIIBtNa0hoea3UZTzreDyww=", "properties": {"@spider": "usps_collection_boxes", "addr:city": "HALSEY", "addr:country": "US", "addr:full": "124 NW 2ND ST", "addr:postcode": "97348", "addr:state": "OR", "brand": "USPS", "collection_times": "Mo-Fr 15:00", "name": "USPS COLLECTION BOX - PO LOBBY", "note": "ON 12/24 AND 12/31, THIS BOX MAY BE COLLECTED AS EARLY AS 12 NOON.", "ref": "9734800003"}, "type": "Feature"}
{"geometry": {"coordinates": [-122.083957, 44.703246], "type": "Point"}, "id": "hbxpW-8AXptbG9zBDZQxTe4bF8g=", "properties": {"@spider": "usps_collection_boxes", "addr:city": "IDANHA", "addr:country": "US", "addr:full": "103 HIGHWAY 22", "addr:postcode": "97350", "addr:state": "OR", "brand": "USPS", "collection_times": "Mo-Sa 14:00", "name": "USPS COLLECTION BOX - BLUE BOX", "note": "ON 12/24 AND 12/31, THIS BOX MAY BE COLLECTED AS EARLY AS 12 NOON.", "ref": "9735000000"}, "type": "Feature"}
{"geometry": {"coordinates": [-122.083957, 44.703246], "type": "Point"}, "id": "fExp6Y0cQSyvxTeq13WujQjYSYc=", "properties": {"@spider": "usps_collection_boxes", "addr:city": "IDANHA", "addr:country": "US", "addr:full": "103 HIGHWAY 22", "addr:postcode": "97350", "addr:state": "OR", "brand": "USPS", "collection_times": "Mo-Fr 14:00; Sa 11:15", "name": "USPS COLLECTION BOX - PO LOBBY", "note": "ON 12/24 AND 12/31, THIS BOX MAY BE COLLECTED AS EARLY AS 12 NOON.", "ref": "9735000001"}, "type": "Feature"}
{"geometry": {"coordinates": [-122.081155843, 44.702431972], "type": "Point"}, "id": "OuApnljTHuBMEky1ipyUcovzyrI=", "properties": {"@spider": "usps_collection_boxes", "addr:city": "IDANHA", "addr:country": "US", "addr:full": "103 HIGHWAY 22", "addr:postcode": "97350", "addr:state": "OR", "brand": "USPS", "collection_times": "Mo-Fr 14:00", "name": "USPS COLLECTION BOX - PO LOBBY", "note": "ON 12/24 AND 12/31, THIS BOX MAY BE COLLECTED AS EARLY AS 12 NOON.", "ref": "9735000002"}, "type": "Feature"}
{"geometry": {"coordinates": [-123.185999, 44.851909], "type": "Point"}, "id": "FOzrKJDWQ_lZtE2jOye658gUJ04=", "properties": {"@spider": "usps_collection_boxes", "addr:city": "INDEPENDENCE", "addr:country": "US", "addr:full": "216 S 2ND ST", "addr:postcode": "97351", "addr:state": "OR", "brand": "USPS", "collection_times": "Mo-Fr 17:00; Sa 15:30", "name": "USPS COLLECTION BOX - BLUE BOX", "note": "ON 12/24 AND 12/31, THIS BOX MAY BE COLLECTED AS EARLY AS 12 NOON.", "ref": "9735100004"}, "type": "Feature"}
{"geometry": {"coordinates": [-123.185999, 44.851909], "type": "Point"}, "id": "hYnvQcmuCS0FaFVdcbFNQAsNy60=", "properties": {"@spider": "usps_collection_boxes", "addr:city": "INDEPENDENCE", "addr:country": "US", "addr:full": "216 S 2ND ST", "addr:postcode": "97351", "addr:state": "OR", "brand": "USPS", "collection_times": "Mo-Fr 16:45; Sa 15:30", "name": "USPS COLLECTION BOX - PO LOBBY", "note": "ON 12/24 AND 12/31, THIS BOX MAY BE COLLECTED AS EARLY AS 12 NOON.", "ref": "9735100005"}, "type": "Feature"}
{"geometry": {"coordinates": [-123.186001733, 44.851878], "type": "Point"}, "id": "eR2pfhwrdbpahVo7oA3yau3rTD4=", "properties": {"@spider": "usps_collection_boxes", "addr:city": "INDEPENDENCE", "addr:country": "US", "addr:full": "216 S 2ND ST", "addr:postcode": "97351", "addr:state": "OR", "brand": "USPS", "collection_times": "Mo-Fr 17:00; Sa 10:30", "name": "USPS COLLECTION BOX - PO LOBBY", "note": "ON 12/24 AND 12/31, THIS BOX MAY BE COLLECTED AS EARLY AS 12 NOON.", "ref": "9735100007"}, "type": "Feature"}
{"geometry": {"coordinates": [-123.010731, 44.716786], "type": "Point"}, "id": "XrYRXENP6F3V9tofK80oqIjJZUY=", "properties": {"@spider": "usps_collection_boxes", "addr:city": "JEFFERSON", "addr:country": "US", "addr:full": "152 S 2ND ST", "addr:postcode": "97352", "addr:state": "OR", "brand": "USPS", "collection_times": "Mo-Fr 16:30; Sa 13:00", "name": "USPS COLLECTION BOX - BLUE BOX", "note": "ON 12/24 AND 12/31, THIS BOX MAY BE COLLECTED AS EARLY AS 12 NOON.", "ref": "9735200000"}, "type": "Feature"}
{"geometry": {"coordinates": [-123.010743, 44.716913], "type": "Point"}, "id": "k6mGvjrCeGeJaL-e3NA2ZNhWKEA=", "properties": {"@spider": "usps_collection_boxes", "addr:city": "JEFFERSON", "addr:country": "US", "addr:full": "152 S 2ND ST", "addr:postcode": "97352", "addr:state": "OR", "brand": "USPS", "collection_times": "Mo-Fr 16:30; Sa 13:00", "name": "USPS COLLECTION BOX - PO LOBBY", "note": "ON 12/24 AND 12/31, THIS BOX MAY BE COLLECTED AS EARLY AS 12 NOON.", "ref": "9735200001"}, "type": "Feature"}
{"geometry": {"coordinates": [-123.010396422, 44.716761262], "type": "Point"}, "id": "3Y1pi6MALt3hUBzdp1Cz32V47fw=", "properties": {"@spider": "usps_collection_boxes", "addr:city": "JEFFERSON", "addr:country": "US", "addr:full": "152 S 2ND ST", "addr:postcode": "97352", "addr:state": "OR", "brand": "USPS", "collection_times": "Mo-Fr 16:30", "name": "USPS COLLECTION BOX - PO LOBBY", "note": "ON 12/24 AND 12/31, THIS BOX MAY BE COLLECTED AS EARLY AS 12 NOON.", "ref": "9735200002"}, "type": "Feature"}
{"geometry": {"coordinates": [-122.90821, 44.521347], "type": "Point"}, "id": "3fo3P2_dDCDesm540trsLpBrXXQ=", "properties": {"@spider": "usps_collection_boxes", "addr:city": "LEBANON", "addr:country": "US", "addr:full": "55 WALKER RD", "addr:postcode": "97355", "addr:state": "OR", "brand": "USPS", "collection_times": "Mo-Fr 17:00; Sa 15:45", "name": "USPS COLLECTION BOX - BLUE BOX", "note": "ON 12/24 AND 12/31, THIS BOX MAY BE COLLECTED AS EARLY AS 12 NOON.", "ref": "9735500005"}, "type": "Feature"}
{"geometry": {"coordinates": [-122.90821, 44.521347], "type": "Point"}, "id": "aCyczOkioBLuikfzQguq1Ff2ia0=", "properties": {"@spider": "usps_collection_boxes", "addr:city": "LEBANON", "addr:country": "US", "addr:full": "55 WALKER RD", "addr:postcode": "97355", "addr:state": "OR", "brand": "USPS", "collection_times": "Mo-Fr 17:00; Sa 15:45", "name": "USPS COLLECTION BOX - BLUE BOX", "note": "ON 12/24 AND 12/31, THIS BOX MAY BE COLLECTED AS EARLY AS 12 NOON.", "ref": "9735500006"}, "type": "Feature"}
{"geometry": {"coordinates": [-122.90821, 44.521347], "type": "Point"}, "id": "wqmqr9ZJy-aO70EA1EcBtP2q38I=", "properties": {"@spider": "usps_collection_boxes", "addr:city": "LEBANON", "addr:country": "US", "addr:full": "55 WALKER RD", "addr:postcode": "97355", "addr:state": "OR", "brand": "USPS", "collection_times": "Mo-Fr 17:00; Sa 15:45", "name": "USPS COLLECTION BOX - BLUE BOX", "note": "ON 12/24 AND 12/31, THIS BOX MAY BE COLLECTED AS EARLY AS 12 NOON.", "ref": "9735500010"}, "type": "Feature"}
{"geometry": {"coordinates": [-122.905675, 44.537217], "type": "Point"}, "id": "pmp0Cylh0sXbBHfwHdNgl6YE_7g=", "properties": {"@spider": "usps_collection_boxes", "addr:city": "LEBANON", "addr:country": "US", "addr:full": "910 S PARK ST", "addr:postcode": "97355", "addr:state": "OR", "brand": "USPS", "collection_times": "Mo-Sa 15:00", "name": "USPS COLLECTION BOX - BLUE BOX", "note": "ON 12/24 AND 12/31, THIS BOX MAY BE COLLECTED AS EARLY AS 12 NOON.", "ref": "9735500011"}, "type": "Feature"}
{"geometry": {"coordinates": [-122.90821, 44.521347], "type": "Point"}, "id": "AxATjgqLmWzFENdwERPSB7varjQ=", "properties": {"@spider": "usps_collection_boxes", "addr:city": "LEBANON", "addr:country": "US", "addr:full": "55 WALKER RD", "addr:postcode": "97355", "addr:state": "OR", "brand": "USPS", "collection_times": "Mo-Fr 17:00; Sa 15:45", "name": "USPS COLLECTION BOX - PO LOBBY", "note": "ON 12/24 AND 12/31, THIS BOX MAY BE COLLECTED AS EARLY AS 12 NOON.", "ref": "9735500013"}, "type": "Feature"}
{"geometry": {"coordinates": [-122.905983, 44.526583], "type": "Point"}, "id": "l1dZ1psikvTFn7nJ2i29RJQHV7o=", "properties": {"@spider": "usps_collection_boxes", "addr:city": "LEBANON", "addr:country": "US", "addr:full": "20 E AIRPORT RD", "addr:postcode": "97355", "addr:state": "OR", "brand": "USPS", "collection_times": "Mo-Sa 15:00", "name": "USPS COLLECTION BOX - BLUE BOX", "note": "ON 12/24 AND 12/31, THIS BOX MAY BE COLLECTED AS EARLY AS 12 NOON.", "ref": "9735500014"}, "type": "Feature"}
{"geometry": {"coordinates": [-122.90821, 44.521347], "type": "Point"}, "id": "Z_LqfE_-z6L1cTq5BbwnUHEjHVw=", "properties": {"@spider": "usps_collection_boxes", "addr:city": "LEBANON", "addr:country": "US", "addr:full": "55 WALKER RD", "addr:postcode": "97355", "addr:state": "OR", "brand": "USPS", "collection_times": "Mo-Fr 17:00; Sa 15:45", "name": "USPS COLLECTION BOX - BLUE BOX", "note": "ON 12/24 AND 12/31, THIS BOX MAY BE COLLECTED AS EARLY AS 12 NOON.", "ref": "9735500016"}, "type": "Feature"}
{"geometry": {"coordinates": [-122.908213614, 44.521343451], "type": "Point"}, "id": "0SpqkvwghKNm2G18Nercu9f0jl0=", "properties": {"@spider": "usps_collection_boxes", "addr:city": "LEBANON", "addr:country": "US", "addr:full": "55 WALKER RD", "addr:postcode": "97355", "addr:state": "OR", "brand": "USPS", "collection_times": "Mo-Fr 17:00", "name": "USPS COLLECTION BOX - PO LOBBY", "note": "ON 12/24 AND 12/31, THIS BOX MAY BE COLLECTED AS EARLY AS 12 NOON.", "ref": "9735500018"}, "type": "Feature"}
{"geometry": {"coordinates": [-122.4167769693, 44.7553339856], "type": "Point"}, "id": "Hp0bn9yyfJTZJ-fItbjhPYc7inU=", "properties": {"@spider": "usps_collection_boxes", "addr:city": "GATES", "addr:country": "US", "addr:full": "103 W CENTRAL ST", "addr:postcode": "97360", "addr:state": "OR", "brand": "USPS", "collection_times": "Mo-Sa 15:15", "name": "USPS COLLECTION BOX - BLUE BOX", "note": "ON 12/24 AND 12/31, THIS BOX MAY BE COLLECTED AS EARLY AS 12 NOON.", "ref": "9736000003"}, "type": "Feature"}
{"geometry": {"coordinates": [-123.231361, 44.847391], "type": "Point"}, "id": "a0p2vAQLTdZkZu6tDPQlLHbGOi4=", "properties": {"@spider": "usps_collection_boxes", "addr:city": "MONMOUTH", "addr:country": "US", "addr:full": "437 CLAY ST E", "addr:postcode": "97361", "addr:state": "OR", "brand": "USPS", "collection_times": "Mo-Fr 16:30; Sa 13:00", "name": "USPS COLLECTION BOX - BLUE BOX", "note": "ON 12/24 AND 12/31, THIS BOX MAY BE COLLECTED AS EARLY AS 12 NOON.", "ref": "9736100000"}, "type": "Feature"}
{"geometry": {"coordinates": [-123.231361, 44.847391], "type": "Point"}, "id": "Tl8yAfT80C1iy2u40w0G4jHJhak=", "properties": {"@spider": "usps_collection_boxes", "addr:city": "MONMOUTH", "addr:country": "US", "addr:full": "437 CLAY ST E", "addr:postcode": "97361", "addr:state": "OR", "brand": "USPS", "collection_times": "Mo-Fr 16:30; Sa 13:00", "name": "USPS COLLECTION BOX - PO LOBBY", "note": "ON 12/24 AND 12/31, THIS BOX MAY BE COLLECTED AS EARLY AS 12 NOON.", "ref": "9736100002"}, "type": "Feature"}
{"geometry": {"coordinates": [-123.231361, 44.847391], "type": "Point"}, "id": "DT8xJ9oU01I2v-byzAA2_RT30Y8=", "properties": {"@spider": "usps_collection_boxes", "addr:city": "MONMOUTH", "addr:country": "US", "addr:full": "437 CLAY ST E", "addr:postcode": "97361", "addr:state": "OR", "brand": "USPS", "collection_times": "Mo-Fr 16:30; Sa 13:00", "name": "USPS COLLECTION BOX - BLUE BOX", "note": "ON 12/24 AND 12/31, THIS BOX MAY BE COLLECTED AS EARLY AS 12 NOON.", "ref": "9736100003"}, "type": "Feature"}
{"geometry": {"coordinates": [-123.231230277, 44.8473895173], "type": "Point"}, "id": "pJPJnPFCjNFapkqlJ6k8UUzElII=", "properties": {"@spider": "usps_collection_boxes", "addr:city": "MONMOUTH", "addr:country": "US", "addr:full": "437 CLAY ST E", "addr:postcode": "97361", "addr:state": "OR", "brand": "USPS", "collection_times": "Mo-Fr 16:45", "name": "USPS COLLECTION BOX - PO LOBBY", "note": "ON 12/24 AND 12/31, THIS BOX MAY BE COLLECTED AS EARLY AS 12 NOON.", "ref": "9736100009"}, "type": "Feature"}
{"geometry": {"coordinates": [-123.986893, 45.001193], "type": "Point"}, "id": "VX7cC8RL4e5isYoVo9pBXr7HHYQ=", "properties": {"@spider": "usps_collection_boxes", "addr:city": "NEOTSU", "addr:country": "US", "addr:full": "4994 N HIGHWAY 101", "addr:postcode": "97364", "addr:state": "OR", "brand": "USPS", "collection_times": "Mo-Fr 14:45; Sa 10:15", "name": "USPS COLLECTION BOX - PO LOBBY", "note": "ON 12/24 AND 12/31, THIS BOX MAY BE COLLECTED AS EARLY AS 12 NOON.", "ref": "9736400000"}, "type": "Feature"}
{"geometry": {"coordinates": [-123.986893, 45.001193], "type": "Point"}, "id": "5l2va_g-Yy_h5EGXl4QxJI_N0Gs=", "properties": {"@spider": "usps_collection_boxes", "addr:city": "NEOTSU", "addr:country": "US", "addr:full": "4994 N HIGHWAY 101", "addr:postcode": "97364", "addr:state": "OR", "brand": "USPS", "collection_times": "Mo-Fr 14:45; Sa 10:15", "name": "USPS COLLECTION BOX - BLUE BOX", "note": "ON 12/24 AND 12/31, THIS BOX MAY BE COLLECTED AS EARLY AS 12 NOON.", "ref": "9736400001"}, "type": "Feature"}
{"geometry": {"coordinates": [-123.987211563, 45.0012840161], "type": "Point"}, "id": "vcEhMdCoxebYsDXLKlgEC3z11Wk=", "properties": {"@spider": "usps_collection_boxes", "addr:city": "NEOTSU", "addr:country": "US", "addr:full": "4994 N HIGHWAY 101", "addr:postcode": "97364", "addr:state": "OR", "brand": "USPS", "collection_times": "Mo-Fr 14:45", "name": "USPS COLLECTION BOX - PO LOBBY", "note": "ON 12/24 AND 12/31, THIS BOX MAY BE COLLECTED AS EARLY AS 12 NOON.", "ref": "9736400002"}, "type": "Feature"}
{"geometry": {"coordinates": [-124.055902, 44.635116], "type": "Point"}, "id": "sYvg5QL15eRJ_zzywshRbxu7OnE=", "properties": {"@spider": "usps_collection_boxes", "addr:city": "NEWPORT", "addr:country": "US", "addr:full": "310 SW 2ND ST", "addr:postcode": "97365", "addr:state": "OR", "brand": "USPS", "collection_times": "Mo-Sa 15:00", "name": "USPS COLLECTION BOX - BLUE BOX", "note": "ON 12/24 AND 12/31, THIS BOX MAY BE COLLECTED AS EARLY AS 12 NOON.", "ref": "9736500000"}, "type": "Feature"}
{"geometry": {"coordinates": [-124.055902, 44.635116], "type": "Point"}, "id": "7wWP9yfs67w48AL9jO_-yxA_5fE=", "properties": {"@spider": "usps_collection_boxes", "addr:city": "NEWPORT", "addr:country": "US", "addr:full": "310 SW 2ND ST", "addr:postcode": "97365", "addr:state": "OR", "brand": "USPS", "collection_times": "Mo-Sa 15:00", "name": "USPS COLLECTION BOX - BLUE BOX", "note": "ON 12/24 AND 12/31, THIS BOX MAY BE COLLECTED AS EARLY AS 12 NOON.", "ref": "9736500001"}, "type": "Feature"}
{"geometry": {"coordinates": [-124.055902, 44.635116], "type": "Point"}, "id": "NqQ1lHdQcSP13k2EMNCeGsUu7Po=", "properties": {"@spider": "usps_collection_boxes", "addr:city": "NEWPORT", "addr:country": "US", "addr:full": "310 SW 2ND ST", "addr:postcode": "97365", "addr:state": "OR", "brand": "USPS", "collection_times": "Mo-Sa 15:00", "name": "USPS COLLECTION BOX - BLUE BOX", "note": "ON 12/24 AND 12/31, THIS BOX MAY BE COLLECTED AS EARLY AS 12 NOON.", "ref": "9736500002"}, "type": "Feature"}
{"geometry": {"coordinates": [-124.055902, 44.635116], "type": "Point"}, "id": "H2KGcPYIMjVFmmn8JwY14fOW6Jo=", "properties": {"@spider": "usps_collection_boxes", "addr:city": "NEWPORT", "addr:country": "US", "addr:full": "310 SW 2ND ST", "addr:postcode": "97365", "addr:state": "OR", "brand": "USPS", "collection_times": "Mo-Sa 15:00", "name": "USPS COLLECTION BOX - PO LOBBY", "note": "ON 12/24 AND 12/31, THIS BOX MAY BE COLLECTED AS EARLY AS 12 NOON.", "ref": "9736500003"}, "type": "Feature"}
{"geometry": {"coordinates": [-124.055902, 44.635116], "type": "Point"}, "id": "NPcT1sTSrCF4U6qOABL0fDfqs6w=", "properties": {"@spider": "usps_collection_boxes", "addr:city": "NEWPORT", "addr:country": "US", "addr:full": "310 SW 2ND ST", "addr:postcode": "97365", "addr:state": "OR", "brand": "USPS", "collection_times": "Mo-Sa 15:00", "name": "USPS COLLECTION BOX - PO LOBBY", "note": "ON 12/24 AND 12/31, THIS BOX MAY BE COLLECTED AS EARLY AS 12 NOON.", "ref": "9736500004"}, "type": "Feature"}
{"geometry": {"coordinates": [-124.055902, 44.635116], "type": "Point"}, "id": "Ke62UyneANPHxt82P2ld_3llsCY=", "properties": {"@spider": "usps_collection_boxes", "addr:city": "NEWPORT", "addr:country": "US", "addr:full": "310 SW 2ND ST", "addr:postcode": "97365", "addr:state": "OR", "brand": "USPS", "collection_times": "Mo-Sa 15:00", "name": "USPS COLLECTION BOX - PO LOBBY", "note": "ON 12/24 AND 12/31, THIS BOX MAY BE COLLECTED AS EARLY AS 12 NOON.", "ref": "9736500005"}, "type": "Feature"}
{"geometry": {"coordinates": [-124.052482, 44.652359], "type": "Point"}, "id": "x6mf7BA5YYR0sbvYGov197L2Zfk=", "properties": {"@spider": "usps_collection_boxes", "addr:city": "NEWPORT", "addr:country": "US", "addr:full": "2230 N COAST HWY", "addr:postcode": "97365", "addr:state": "OR", "brand": "USPS", "collection_times": "Mo-Sa 10:30", "name": "USPS COLLECTION BOX - BLUE BOX", "ref": "9736500010"}, "type": "Feature"}
{"geometry": {"coordinates": [-124.0559505, 44.634769519], "type": "Point"}, "id": "a5k-9L97Vn8EbK-If8l3F3O-8PE=", "properties": {"@spider": "usps_collection_boxes", "addr:city": "NEWPORT", "addr:country": "US", "addr:full": "310 SW 2ND ST", "addr:postcode": "97365", "addr:state": "OR", "brand": "USPS", "collection_times": "Mo-Fr 15:45; Sa 12:00", "name": "USPS COLLECTION BOX - PO LOBBY", "note": "ON 12/24 AND 12/31, THIS BOX MAY BE COLLECTED AS EARLY AS 12 NOON.", "ref": "9736500015"}, "type": "Feature"}
{"geometry": {"coordinates": [-124.006514, 44.996295], "type": "Point"}, "id": "-_3PfqZfRnTWadu6wSH0XPHgNW0=", "properties": {"@spider": "usps_collection_boxes", "addr:city": "LINCOLN CITY", "addr:country": "US", "addr:full": "4079 NW HIGHWAY 101", "addr:postcode": "97367", "addr:state": "OR", "brand": "USPS", "collection_times": "Mo-Sa 11:30", "name": "USPS COLLECTION BOX - BLUE BOX", "ref": "9736700002"}, "type": "Feature"}
{"geometry": {"coordinates": [-124.011389, 44.959717], "type": "Point"}, "id": "bEazUKESyeyROb0T-3CUckpNMSE=", "properties": {"@spider": "usps_collection_boxes", "addr:city": "LINCOLN CITY", "addr:country": "US", "addr:full": "1501 SE EAST DEVILS LAKE RD", "addr:postcode": "97367", "addr:state": "OR", "brand": "USPS", "collection_times": "Mo-Fr 16:00; Sa 15:30", "name": "USPS COLLECTION BOX - BLUE BOX", "note": "ON 12/24 AND 12/31, THIS BOX MAY BE COLLECTED AS EARLY AS 12 NOON.", "ref": "9736700011"}, "type": "Feature"}
{"geometry": {"coordinates": [-124.011348632, 44.959705845], "type": "Point"}, "id": "HYcVDEcZI-baKjl-sIMoyZDWDTQ=", "properties": {"@spider": "usps_collection_boxes", "addr:city": "LINCOLN CITY", "addr:country": "US", "addr:full": "1501 SE EAST DEVILS LAKE RD", "addr:postcode": "97367", "addr:state": "OR", "brand": "USPS", "collection_times": "Mo-Fr 16:30", "name": "USPS COLLECTION BOX - PO LOBBY", "note": "ON 12/24 AND 12/31, THIS BOX MAY BE COLLECTED AS EARLY AS 12 NOON.", "ref": "9736700023"}, "type": "Feature"}
{"geometry": {"coordinates": [-124.0073436354, 44.9827572229], "type": "Point"}, "id": "pyENYkg5Lu_R92eq_lf5sQW6nYw=", "properties": {"@spider": "usps_collection_boxes", "addr:city": "LINCOLN CITY", "addr:country": "US", "addr:full": "2429 NW HIGHWAY 101", "addr:postcode": "97367", "addr:state": "OR", "brand": "USPS", "collection_times": "Mo-Fr 13:30; Sa 10:00", "name": "USPS COLLECTION BOX - PO LOBBY", "note": "ON 12/24 AND 12/31, THIS BOX MAY BE COLLECTED AS EARLY AS 12 NOON.", "ref": "9736700026"}, "type": "Feature"}
{"geometry": {"coordinates": [-123.94906, 45.019317], "type": "Point"}, "id": "tgN-kfNnnQxjJ3aCXN5Q_6kELQ4=", "properties": {"@spider": "usps_collection_boxes", "addr:city": "OTIS", "addr:country": "US", "addr:full": "1261 SALMON RIVER HWY", "addr:postcode": "97368", "addr:state": "OR", "brand": "USPS", "collection_times": "Mo-Fr 15:00; Sa 13:30", "name": "USPS COLLECTION BOX - BLUE BOX", "note": "ON 12/24 AND 12/31, THIS BOX MAY BE COLLECTED AS EARLY AS 12 NOON.", "ref": "9736800000"}, "type": "Feature"}
{"geometry": {"coordinates": [-123.948868, 45.019706], "type": "Point"}, "id": "TOa23DIzS3w_WDuMNYgyronpcaQ=", "properties": {"@spider": "usps_collection_boxes", "addr:city": "OTIS", "addr:country": "US", "addr:full": "1261 SALMON RIVER HWY", "addr:postcode": "97368", "addr:state": "OR", "brand": "USPS", "collection_times": "Mo-Fr 15:00; Sa 13:30", "name": "USPS COLLECTION BOX - PO LOBBY", "note": "ON 12/24 AND 12/31, THIS BOX MAY BE COLLECTED AS EARLY AS 12 NOON.", "ref": "9736800001"}, "type": "Feature"}
{"geometry": {"coordinates": [-123.949060526, 45.019313502], "type": "Point"}, "id": "2AUnMoWDLcLFX-G9oKoUJGf1BQg=", "properties": {"@spider": "usps_collection_boxes", "addr:city": "OTIS", "addr:country": "US", "addr:full": "1261 SALMON RIVER HWY", "addr:postcode": "97368", "addr:state": "OR", "brand": "USPS", "collection_times": "Mo-Fr 15:00", "name": "USPS COLLECTION BOX - PO LOBBY", "note": "ON 12/24 AND 12/31, THIS BOX MAY BE COLLECTED AS EARLY AS 12 NOON.", "ref": "9736800004"}, "type": "Feature"}
{"geometry": {"coordinates": [-123.108959, 44.459249], "type": "Point"}, "id": "92okSXXc2Vz_DDGTw81VqwPQsI0=", "properties": {"@spider": "usps_collection_boxes", "addr:city": "SHEDD", "addr:country": "US", "addr:full": "29996 1ST ST", "addr:postcode": "97377", "addr:state": "OR", "brand": "USPS", "collection_times": "Mo-Fr 15:45; Sa 11:00", "name": "USPS COLLECTION BOX - PO LOBBY", "note": "ON 12/24 AND 12/31, THIS BOX MAY BE COLLECTED AS EARLY AS 12 NOON.", "ref": "9737700001"}, "type": "Feature"}
{"geometry": {"coordinates": [-123.108958496, 44.459243665], "type": "Point"}, "id": "EmrRHzxG8dR-bqQUOBS30oRn88w=", "properties": {"@spider": "usps_collection_boxes", "addr:city": "SHEDD", "addr:country": "US", "addr:full": "29996 1ST ST", "addr:postcode": "97377", "addr:state": "OR", "brand": "USPS", "collection_times": "Mo-Fr 12:00", "name": "USPS COLLECTION BOX - PO LOBBY", "ref": "9737700002"}, "type": "Feature"}
{"geometry": {"coordinates": [-123.918069, 44.720581], "type": "Point"}, "id": "XBkrC0wMB7zuJ-CrneQvLSmW2NU=", "properties": {"@spider": "usps_collection_boxes", "addr:city": "SILETZ", "addr:country": "US", "addr:full": "295 SE GAITHER ST", "addr:postcode": "97380", "addr:state": "OR", "brand": "USPS", "collection_times": "Mo-Fr 14:45; Sa 11:30", "name": "USPS COLLECTION BOX - BLUE BOX", "note": "ON 12/24 AND 12/31, THIS BOX MAY BE COLLECTED AS EARLY AS 12 NOON.", "ref": "9738000000"}, "type": "Feature"}
{"geometry": {"coordinates": [-123.918069, 44.720581], "type": "Point"}, "id": "XpQQSqvYnLByK1sDhIQfUFy1zrM=", "properties": {"@spider": "usps_collection_boxes", "addr:city": "SILETZ", "addr:country": "US", "addr:full": "295 SE GAITHER ST", "addr:postcode": "97380", "addr:state": "OR", "brand": "USPS", "collection_times": "Mo-Fr 14:45; Sa 11:30", "name": "USPS COLLECTION BOX - PO LOBBY", "note": "ON 12/24 AND 12/31, THIS BOX MAY BE COLLECTED AS EARLY AS 12 NOON.", "ref": "9738000001"}, "type": "Feature"}
{"geometry": {"coordinates": [-123.918069, 44.720581], "type": "Point"}, "id": "4HNIDl3wbyVuzCHxo02lMkyAea8=", "properties": {"@spider": "usps_collection_boxes", "addr:city": "SILETZ", "addr:country": "US", "addr:full": "295 SE GAITHER ST", "addr:postcode": "97380", "addr:state": "OR", "brand": "USPS", "collection_times": "Mo-Fr 14:45; Sa 11:30", "name": "USPS COLLECTION BOX - PO LOBBY", "note": "ON 12/24 AND 12/31, THIS BOX MAY BE COLLECTED AS EARLY AS 12 NOON.", "ref": "9738000002"}, "type": "Feature"}
{"geometry": {"coordinates": [-123.908718, 44.719818], "type": "Point"}, "id": "CH0trqqIxthKgNaRAgm1tV0oas8=", "properties": {"@spider": "usps_collection_boxes", "addr:city": "SILETZ", "addr:country": "US", "addr:full": "7550 LOGSDEN RD", "addr:postcode": "97380", "addr:state": "OR", "brand": "USPS", "collection_times": "Mo-Sa 13:00", "name": "USPS COLLECTION BOX - PO LOBBY", "note": "ON 12/24 AND 12/31, THIS BOX MAY BE COLLECTED AS EARLY AS 12 NOON.", "ref": "9738000003"}, "type": "Feature"}
{"geometry": {"coordinates": [-123.918071686, 44.720505], "type": "Point"}, "id": "vlmBLLbEN4NXKvuCeG-TMNfA-UM=", "properties": {"@spider": "usps_collection_boxes", "addr:city": "SILETZ", "addr:country": "US", "addr:full": "295 SE GAITHER ST", "addr:postcode": "97380", "addr:state": "OR", "brand": "USPS", "collection_times": "Mo-Fr 14:45", "name": "USPS COLLECTION BOX - PO LOBBY", "note": "ON 12/24 AND 12/31, THIS BOX MAY BE COLLECTED AS EARLY AS 12 NOON.", "ref": "9738000005"}, "type": "Feature"}
{"geometry": {"coordinates": [-122.728835, 44.397072], "type": "Point"}, "id": "Ni7HYzoGGmc_mHqeX_domhww4iA=", "properties": {"@spider": "usps_collection_boxes", "addr:city": "SWEET HOME", "addr:country": "US", "addr:full": "1303 LONG ST", "addr:postcode": "97386", "addr:state": "OR", "brand": "USPS", "collection_times": "Mo-Sa 15:00", "name": "USPS COLLECTION BOX - PO LOBBY", "note": "ON 12/24 AND 12/31, THIS BOX MAY BE COLLECTED AS EARLY AS 12 NOON.", "ref": "9738600000"}, "type": "Feature"}
{"geometry": {"coordinates": [-122.728835, 44.397072], "type": "Point"}, "id": "ouRhWkmWAnkKRdFe62a5_ukpkrY=", "properties": {"@spider": "usps_collection_boxes", "addr:city": "SWEET HOME", "addr:country": "US", "addr:full": "1303 LONG ST", "addr:postcode": "97386", "addr:state": "OR", "brand": "USPS", "collection_times": "Mo-Sa 15:00", "name": "USPS COLLECTION BOX - BLUE BOX", "note": "ON 12/24 AND 12/31, THIS BOX MAY BE COLLECTED AS EARLY AS 12 NOON.", "ref": "9738600001"}, "type": "Feature"}
{"geometry": {"coordinates": [-122.728835, 44.397072], "type": "Point"}, "id": "YHwj_hUttguRz-AQVw7l1-CsQP0=", "properties": {"@spider": "usps_collection_boxes", "addr:city": "SWEET HOME", "addr:country": "US", "addr:full": "1303 LONG ST", "addr:postcode": "97386", "addr:state": "OR", "brand": "USPS", "collection_times": "Mo-Sa 15:00", "name": "USPS COLLECTION BOX - BLUE BOX", "note": "ON 12/24 AND 12/31, THIS BOX MAY BE COLLECTED AS EARLY AS 12 NOON.", "ref": "9738600002"}, "type": "Feature"}
{"geometry": {"coordinates": [-122.728837548, 44.397072798], "type": "Point"}, "id": "Tfjk86B8-hbkgKICnPJm7sj_C_k=", "properties": {"@spider": "usps_collection_boxes", "addr:city": "SWEET HOME", "addr:country": "US", "addr:full": "1303 LONG ST", "addr:postcode": "97386", "addr:state": "OR", "brand": "USPS", "collection_times": "Mo-Fr 15:00; Sa 12:00", "name": "USPS COLLECTION BOX - PO LOBBY", "note": "ON 12/24 AND 12/31, THIS BOX MAY BE COLLECTED AS EARLY AS 12 NOON.", "ref": "9738600008"}, "type": "Feature"}
{"geometry": {"coordinates": [-123.109817, 44.53761], "type": "Point"}, "id": "0Fmxa-yVOowVUYqwhaILY5BJz2w=", "properties": {"@spider": "usps_collection_boxes", "addr:city": "TANGENT", "addr:country": "US", "addr:full": "32845 HIGHWAY 99E", "addr:postcode": "97389", "addr:state": "OR", "brand": "USPS", "collection_times": "Mo-Fr 16:00; Sa 13:00", "name": "USPS COLLECTION BOX - BLUE BOX", "note": "ON 12/24 AND 12/31, THIS BOX MAY BE COLLECTED AS EARLY AS 12 NOON.", "ref": "9738900000"}, "type": "Feature"}
{"geometry": {"coordinates": [-123.110034489, 44.537624665], "type": "Point"}, "id": "Svbw1Ka2cz9J-5b43mqVshVim0g=", "properties": {"@spider": "usps_collection_boxes", "addr:city": "TANGENT", "addr:country": "US", "addr:full": "32845 HIGHWAY 99E", "addr:postcode": "97389", "addr:state": "OR", "brand": "USPS", "collection_times": "Mo-Fr 16:00", "name": "USPS COLLECTION BOX - PO LOBBY", "note": "ON 12/24 AND 12/31, THIS BOX MAY BE COLLECTED AS EARLY AS 12 NOON.", "ref": "9738900002"}, "type": "Feature"}
{"geometry": {"coordinates": [-122.955516, 44.850012], "type": "Point"}, "id": "t0P5tVNm-6wkWhTxgPSOvWsuFO8=", "properties": {"@spider": "usps_collection_boxes", "addr:city": "TURNER", "addr:country": "US", "addr:full": "7230 3RD ST SE", "addr:postcode": "97392", "addr:state": "OR", "brand": "USPS", "collection_times": "Mo-Fr 16:45; Sa 08:00", "name": "USPS COLLECTION BOX - BLUE BOX", "note": "ON 12/24 AND 12/31, THIS BOX MAY BE COLLECTED AS EARLY AS 12 NOON.", "ref": "9739200000"}, "type": "Feature"}
{"geometry": {"coordinates": [-122.955516, 44.850012], "type": "Point"}, "id": "RlxEmOpvE-TGo7Kb5Tc6k4o3i0g=", "properties": {"@spider": "usps_collection_boxes", "addr:city": "TURNER", "addr:country": "US", "addr:full": "7230 3RD ST SE", "addr:postcode": "97392", "addr:state": "OR", "brand": "USPS", "collection_times": "Mo-Fr 16:45; Sa 12:00", "name": "USPS COLLECTION BOX - PO LOBBY", "note": "ON 12/24 AND 12/31, THIS BOX MAY BE COLLECTED AS EARLY AS 12 NOON.", "ref": "9739200001"}, "type": "Feature"}
{"geometry": {"coordinates": [-122.95563687, 44.850165673], "type": "Point"}, "id": "gKwVH7WCtB-kzM_LphVTTfDE9_A=", "properties": {"@spider": "usps_collection_boxes", "addr:city": "TURNER", "addr:country": "US", "addr:full": "7230 3RD ST SE", "addr:postcode": "97392", "addr:state": "OR", "brand": "USPS", "collection_times": "Mo-Fr 16:45", "name": "USPS COLLECTION BOX - PO LOBBY", "note": "ON 12/24 AND 12/31, THIS BOX MAY BE COLLECTED AS EARLY AS 12 NOON.", "ref": "9739200003"}, "type": "Feature"}
{"geometry": {"coordinates": [-124.065192, 44.426457], "type": "Point"}, "id": "nLYrjZqve96qK9lJ3vTJlzHZq6I=", "properties": {"@spider": "usps_collection_boxes", "addr:city": "SEAL ROCK", "addr:country": "US", "addr:full": "165 NW JOHN ST", "addr:postcode": "97394", "addr:state": "OR", "brand": "USPS", "collection_times": "Mo-Sa 14:15", "name": "USPS COLLECTION BOX - BLUE BOX", "note": "ON 12/24 AND 12/31, THIS BOX MAY BE COLLECTED AS EARLY AS 12 NOON.", "ref": "9739400000"}, "type": "Feature"}
{"geometry": {"coordinates": [-124.065192, 44.426457], "type": "Point"}, "id": "mUF_PrsGtCHwebZvsB6LgK_Sz1o=", "properties": {"@spider": "usps_collection_boxes", "addr:city": "SEAL ROCK", "addr:country": "US", "addr:full": "165 NW JOHN ST", "addr:postcode": "97394", "addr:state": "OR", "brand": "USPS", "collection_times": "Mo-Fr 14:15; Sa 09:00", "name": "USPS COLLECTION BOX - PO LOBBY", "note": "ON 12/24 AND 12/31, THIS BOX MAY BE COLLECTED AS EARLY AS 12 NOON.", "ref": "9739400001"}, "type": "Feature"}
{"geometry": {"coordinates": [-124.065192628, 44.426401711], "type": "Point"}, "id": "hRewafpUGJxSJ-0mE0GfPwHwHQo=", "properties": {"@spider": "usps_collection_boxes", "addr:city": "SEAL ROCK", "addr:country": "US", "addr:full": "165 NW JOHN ST", "addr:postcode": "97394", "addr:state": "OR", "brand": "USPS", "collection_times": "Mo-Fr 14:15", "name": "USPS COLLECTION BOX - PO LOBBY", "note": "ON 12/24 AND 12/31, THIS BOX MAY BE COLLECTED AS EARLY AS 12 NOON.", "ref": "9739400003"}, "type": "Feature"}
