{"geometry": {"coordinates": [-122.860389, 42.31759], "type": "Point"}, "id": "hQpgLNB8VKqCy74f9YxVubdTMGY=", "properties": {"@source_uri": "https://tools.usps.com/UspsToolsRestServices/rest/POLocator/findLocations", "@spider": "usps_collection_boxes", "addr:city": "MEDFORD", "addr:country": "US", "addr:postcode": "97501", "addr:state": "OR", "addr:street_address": "251 E BARNETT RD", "amenity": "post_box", "collection_times": "Mo-Sa 14:00", "note": "ON 12/24 AND 12/31, THIS BOX MAY BE COLLECTED AS EARLY AS 12 NOON.", "nsi_id": "unitedstatespostalservice-a77078", "operator": "United States Postal Service", "operator:short": "USPS", "operator:type": "public", "operator:wikidata": "Q668687", "ref": "9750100000"}, "type": "Feature"}
{"geometry": {"coordinates": [-122.855274, 42.313964], "type": "Point"}, "id": "oGjYp_F0uHpaQ0fnoAomijUiisY=", "properties": {"@source_uri": "https://tools.usps.com/UspsToolsRestServices/rest/POLocator/findLocations", "@spider": "usps_collection_boxes", "addr:city": "MEDFORD", "addr:country": "US", "addr:postcode": "97501", "addr:state": "OR", "addr:street_address": "1301 CENTER DR", "amenity": "post_box", "collection_times": "Mo-Sa 14:00", "note": "ON 12/24 AND 12/31, THIS BOX MAY BE COLLECTED AS EARLY AS 12 NOON.", "nsi_id": "unitedstatespostalservice-a77078", "operator": "United States Postal Service", "operator:short": "USPS", "operator:type": "public", "operator:wikidata": "Q668687", "ref": "9750100005"}, "type": "Feature"}
{"geometry": {"coordinates": [-122.864702, 42.318991], "type": "Point"}, "id": "7srauzYBMJ5ATXzftCmW79POudI=", "properties": {"@source_uri": "https://tools.usps.com/UspsToolsRestServices/rest/POLocator/findLocations", "@spider": "usps_collection_boxes", "addr:city": "MEDFORD", "addr:country": "US", "addr:postcode": "97501", "addr:state": "OR", "addr:street_address": "835 S RIVERSIDE AVE", "amenity": "post_box", "collection_times": "Mo-Sa 14:00", "note": "ON 12/24 AND 12/31, THIS BOX MAY BE COLLECTED AS EARLY AS 12 NOON.", "nsi_id": "unitedstatespostalservice-a77078", "operator": "United States Postal Service", "operator:short": "USPS", "operator:type": "public", "operator:wikidata": "Q668687", "ref": "9750100007"}, "type": "Feature"}
{"geometry": {"coordinates": [-122.87996, 42.322545], "type": "Point"}, "id": "QFjce2xBE0krnPzmCz5uKnSvRQg=", "properties": {"@source_uri": "https://tools.usps.com/UspsToolsRestServices/rest/POLocator/findLocations", "@spider": "usps_collection_boxes", "addr:city": "MEDFORD", "addr:country": "US", "addr:postcode": "97501", "addr:state": "OR", "addr:street_address": "816 W 8TH ST", "amenity": "post_box", "collection_times": "Mo-Sa 11:00", "nsi_id": "unitedstatespostalservice-a77078", "operator": "United States Postal Service", "operator:short": "USPS", "operator:type": "public", "operator:wikidata": "Q668687", "ref": "9750100012"}, "type": "Feature"}
{"geometry": {"coordinates": [-122.87256, 42.326912], "type": "Point"}, "id": "8f0hAgZDIzx16wQ9w31PEXpaQa8=", "properties": {"@source_uri": "https://tools.usps.com/UspsToolsRestServices/rest/POLocator/findLocations", "@spider": "usps_collection_boxes", "addr:city": "MEDFORD", "addr:country": "US", "addr:postcode": "97501", "addr:state": "OR", "addr:street_address": "33 N CENTRAL AVE", "amenity": "post_box", "collection_times": "Mo-Sa 11:15", "nsi_id": "unitedstatespostalservice-a77078", "operator": "United States Postal Service", "operator:short": "USPS", "operator:type": "public", "operator:wikidata": "Q668687", "ref": "9750100018"}, "type": "Feature"}
{"geometry": {"coordinates": [-122.876905, 42.324033], "type": "Point"}, "id": "o1-0W5UCer_FyYmlpCBpDSJlDUU=", "properties": {"@source_uri": "https://tools.usps.com/UspsToolsRestServices/rest/POLocator/findLocations", "@spider": "usps_collection_boxes", "addr:city": "MEDFORD", "addr:country": "US", "addr:postcode": "97501", "addr:state": "OR", "addr:street_address": "399 W MAIN ST", "amenity": "post_box", "collection_times": "Mo-Sa 11:15", "nsi_id": "unitedstatespostalservice-a77078", "operator": "United States Postal Service", "operator:short": "USPS", "operator:type": "public", "operator:wikidata": "Q668687", "ref": "9750100034"}, "type": "Feature"}
{"geometry": {"coordinates": [-122.875457828, 42.32355914], "type": "Point"}, "id": "iBDBD0hKDoX-91m9l77Sbydw1Fs=", "properties": {"@source_uri": "https://tools.usps.com/UspsToolsRestServices/rest/POLocator/findLocations", "@spider": "usps_collection_boxes", "addr:city": "MEDFORD", "addr:country": "US", "addr:postcode": "97501", "addr:state": "OR", "addr:street_address": "333 W 8TH ST", "amenity": "post_box", "collection_times": "Mo-Sa 08:30", "nsi_id": "unitedstatespostalservice-a77078", "operator": "United States Postal Service", "operator:short": "USPS", "operator:type": "public", "operator:wikidata": "Q668687", "ref": "9750100040"}, "type": "Feature"}
{"geometry": {"coordinates": [-122.900214, 42.32476], "type": "Point"}, "id": "VkDuhqrDW9p0SPWk-wAtFIbFahE=", "properties": {"@source_uri": "https://tools.usps.com/UspsToolsRestServices/rest/POLocator/findLocations", "@spider": "usps_collection_boxes", "addr:city": "MEDFORD", "addr:country": "US", "addr:postcode": "97501", "addr:state": "OR", "addr:street_address": "113 N ROSS LN", "amenity": "post_box", "collection_times": "Mo-Sa 11:15", "nsi_id": "unitedstatespostalservice-a77078", "operator": "United States Postal Service", "operator:short": "USPS", "operator:type": "public", "operator:wikidata": "Q668687", "ref": "9750100048"}, "type": "Feature"}
{"geometry": {"coordinates": [-122.867537, 42.323767], "type": "Point"}, "id": "WHfWHNr87TbYVZTD4r2t5wexiA8=", "properties": {"@source_uri": "https://tools.usps.com/UspsToolsRestServices/rest/POLocator/findLocations", "@spider": "usps_collection_boxes", "addr:city": "MEDFORD", "addr:country": "US", "addr:postcode": "97501", "addr:state": "OR", "addr:street_address": "325 S RIVERSIDE AVE", "amenity": "post_box", "collection_times": "Mo-Fr 17:30; Sa 14:00", "name": "USPS COLLECTION BOX - APC", "note": "ON 12/24 AND 12/31, THIS BOX MAY BE COLLECTED AS EARLY AS 12 NOON.", "nsi_id": "unitedstatespostalservice-a77078", "operator": "United States Postal Service", "operator:short": "USPS", "operator:type": "public", "operator:wikidata": "Q668687", "ref": "9750100061"}, "type": "Feature"}
{"geometry": {"coordinates": [-122.867537, 42.323767], "type": "Point"}, "id": "PARHrV-5qSfF3AZe-IJor7vCKFQ=", "properties": {"@source_uri": "https://tools.usps.com/UspsToolsRestServices/rest/POLocator/findLocations", "@spider": "usps_collection_boxes", "addr:city": "MEDFORD", "addr:country": "US", "addr:postcode": "97501", "addr:state": "OR", "addr:street_address": "325 S RIVERSIDE AVE", "amenity": "post_box", "collection_times": "Mo-Fr 17:30; Sa 14:00", "indoor": "yes", "note": "ON 12/24 AND 12/31, THIS BOX MAY BE COLLECTED AS EARLY AS 12 NOON.", "nsi_id": "unitedstatespostalservice-a77078", "operator": "United States Postal Service", "operator:short": "USPS", "operator:type": "public", "operator:wikidata": "Q668687", "ref": "9750100062"}, "type": "Feature"}
{"geometry": {"coordinates": [-122.8786776, 42.3151915], "type": "Point"}, "id": "vindRh-NDGa6vgmrE8gXYlz-PF4=", "properties": {"@source_uri": "https://tools.usps.com/UspsToolsRestServices/rest/POLocator/findLocations", "@spider": "usps_collection_boxes", "addr:city": "MEDFORD", "addr:country": "US", "addr:postcode": "97501", "addr:state": "OR", "addr:street_address": "325 S RIVERSIDE AVE", "amenity": "post_box", "collection_times": "Mo-Fr 17:00; Sa 14:00", "note": "ON 12/24 AND 12/31, THIS BOX MAY BE COLLECTED AS EARLY AS 12 NOON.", "nsi_id": "unitedstatespostalservice-a77078", "operator": "United States Postal Service", "operator:short": "USPS", "operator:type": "public", "operator:wikidata": "Q668687", "ref": "9750100063"}, "type": "Feature"}
{"geometry": {"coordinates": [-122.867933031, 42.32365794], "type": "Point"}, "id": "sFpXbi96JsahaT4BMrXNfy7txqs=", "properties": {"@source_uri": "https://tools.usps.com/UspsToolsRestServices/rest/POLocator/findLocations", "@spider": "usps_collection_boxes", "addr:city": "MEDFORD", "addr:country": "US", "addr:postcode": "97501", "addr:state": "OR", "addr:street_address": "325 S RIVERSIDE AVE", "amenity": "post_box", "collection_times": "Mo-Fr 17:00; Sa 14:00", "indoor": "yes", "note": "ON 12/24 AND 12/31, THIS BOX MAY BE COLLECTED AS EARLY AS 12 NOON.", "nsi_id": "unitedstatespostalservice-a77078", "operator": "United States Postal Service", "operator:short": "USPS", "operator:type": "public", "operator:wikidata": "Q668687", "ref": "9750100066"}, "type": "Feature"}
{"geometry": {"coordinates": [-122.8786776, 42.3151915], "type": "Point"}, "id": "vXVqwv9Ao1WITjVdp_Kh7_gLxWM=", "properties": {"@source_uri": "https://tools.usps.com/UspsToolsRestServices/rest/POLocator/findLocations", "@spider": "usps_collection_boxes", "addr:city": "MEDFORD", "addr:country": "US", "addr:postcode": "97501", "addr:state": "OR", "addr:street_address": "333 W 8TH ST", "amenity": "post_box", "collection_times": "Mo-Sa 08:30", "nsi_id": "unitedstatespostalservice-a77078", "operator": "United States Postal Service", "operator:short": "USPS", "operator:type": "public", "operator:wikidata": "Q668687", "ref": "9750100069"}, "type": "Feature"}
{"geometry": {"coordinates": [-122.9125334444, 42.3766746642], "type": "Point"}, "id": "TywJiS5cWp-015v0d9B5ddm2hl0=", "properties": {"@source_uri": "https://tools.usps.com/UspsToolsRestServices/rest/POLocator/findLocations", "@spider": "usps_collection_boxes", "addr:city": "MEDFORD", "addr:country": "US", "addr:postcode": "97502", "addr:state": "OR", "addr:street_address": "625 E PINE ST", "amenity": "post_box", "collection_times": "Mo-Fr 17:00; Sa 15:30", "indoor": "yes", "note": "ON 12/24 AND 12/31, THIS BOX MAY BE COLLECTED AS EARLY AS 12 NOON.", "nsi_id": "unitedstatespostalservice-a77078", "operator": "United States Postal Service", "operator:short": "USPS", "operator:type": "public", "operator:wikidata": "Q668687", "ref": "9750200000"}, "type": "Feature"}
{"geometry": {"coordinates": [-122.912534, 42.376675], "type": "Point"}, "id": "ArHsKHnGnKxasGkuuMTfps4aZRg=", "properties": {"@source_uri": "https://tools.usps.com/UspsToolsRestServices/rest/POLocator/findLocations", "@spider": "usps_collection_boxes", "addr:city": "MEDFORD", "addr:country": "US", "addr:postcode": "97502", "addr:state": "OR", "addr:street_address": "625 E PINE ST", "amenity": "post_box", "collection_times": "Mo-Fr 17:00; Sa 12:30", "note": "ON 12/24 AND 12/31, THIS BOX MAY BE COLLECTED AS EARLY AS 12 NOON.", "nsi_id": "unitedstatespostalservice-a77078", "operator": "United States Postal Service", "operator:short": "USPS", "operator:type": "public", "operator:wikidata": "Q668687", "ref": "9750200002"}, "type": "Feature"}
{"geometry": {"coordinates": [-122.912533444, 42.376674664], "type": "Point"}, "id": "M_373AD1oYgDigQBTcClWlexlaI=", "properties": {"@source_uri": "https://tools.usps.com/UspsToolsRestServices/rest/POLocator/findLocations", "@spider": "usps_collection_boxes", "addr:city": "MEDFORD", "addr:country": "US", "addr:postcode": "97502", "addr:state": "OR", "addr:street_address": "625 E PINE ST", "amenity": "post_box", "collection_times": "Mo-Fr 17:00", "indoor": "yes", "note": "ON 12/24 AND 12/31, THIS BOX MAY BE COLLECTED AS EARLY AS 12 NOON.", "nsi_id": "unitedstatespostalservice-a77078", "operator": "United States Postal Service", "operator:short": "USPS", "operator:type": "public", "operator:wikidata": "Q668687", "ref": "9750200005"}, "type": "Feature"}
{"geometry": {"coordinates": [-122.850172, 42.426234], "type": "Point"}, "id": "QDFJ_7C9aSNDs2U3_JiGyRWLV-M=", "properties": {"@source_uri": "https://tools.usps.com/UspsToolsRestServices/rest/POLocator/findLocations", "@spider": "usps_collection_boxes", "addr:city": "MEDFORD", "addr:country": "US", "addr:postcode": "97503", "addr:state": "OR", "addr:street_address": "7561 CRATER LAKE HWY", "amenity": "post_box", "collection_times": "Mo-Fr 17:00; Sa 14:15", "indoor": "yes", "note": "ON 12/24 AND 12/31, THIS BOX MAY BE COLLECTED AS EARLY AS 12 NOON.", "nsi_id": "unitedstatespostalservice-a77078", "operator": "United States Postal Service", "operator:short": "USPS", "operator:type": "public", "operator:wikidata": "Q668687", "ref": "9750300000"}, "type": "Feature"}
{"geometry": {"coordinates": [-122.850172, 42.426234], "type": "Point"}, "id": "jycYCOXByZuf6XaRlRSDeBU80_I=", "properties": {"@source_uri": "https://tools.usps.com/UspsToolsRestServices/rest/POLocator/findLocations", "@spider": "usps_collection_boxes", "addr:city": "MEDFORD", "addr:country": "US", "addr:postcode": "97503", "addr:state": "OR", "addr:street_address": "7561 CRATER LAKE HWY", "amenity": "post_box", "collection_times": "Mo-Fr 17:00; Sa 14:15", "note": "ON 12/24 AND 12/31, THIS BOX MAY BE COLLECTED AS EARLY AS 12 NOON.", "nsi_id": "unitedstatespostalservice-a77078", "operator": "United States Postal Service", "operator:short": "USPS", "operator:type": "public", "operator:wikidata": "Q668687", "ref": "9750300001"}, "type": "Feature"}
{"geometry": {"coordinates": [-122.850172, 42.426234], "type": "Point"}, "id": "QivlyicGi3WZF4Zr8UoeeJywg0U=", "properties": {"@source_uri": "https://tools.usps.com/UspsToolsRestServices/rest/POLocator/findLocations", "@spider": "usps_collection_boxes", "addr:city": "MEDFORD", "addr:country": "US", "addr:postcode": "97503", "addr:state": "OR", "addr:street_address": "7561 CRATER LAKE HWY", "amenity": "post_box", "collection_times": "Mo-Fr 17:00; Sa 14:15", "note": "ON 12/24 AND 12/31, THIS BOX MAY BE COLLECTED AS EARLY AS 12 NOON.", "nsi_id": "unitedstatespostalservice-a77078", "operator": "United States Postal Service", "operator:short": "USPS", "operator:type": "public", "operator:wikidata": "Q668687", "ref": "9750300003"}, "type": "Feature"}
{"geometry": {"coordinates": [-122.90173, 42.50412], "type": "Point"}, "id": "kZBQAcPVKlljHAqY2sihVEox-x0=", "properties": {"@source_uri": "https://tools.usps.com/UspsToolsRestServices/rest/POLocator/findLocations", "@spider": "usps_collection_boxes", "addr:city": "MEDFORD", "addr:country": "US", "addr:postcode": "97503", "addr:state": "OR", "addr:street_address": "4000 HIGHWAY 234", "amenity": "post_box", "collection_times": "Mo-Sa 12:00", "nsi_id": "unitedstatespostalservice-a77078", "operator": "United States Postal Service", "operator:short": "USPS", "operator:type": "public", "operator:wikidata": "Q668687", "ref": "9750300004"}, "type": "Feature"}
{"geometry": {"coordinates": [-122.85017477, 42.426229533], "type": "Point"}, "id": "vPcKFa5fsk0kxhU9hF7s-InKQWs=", "properties": {"@source_uri": "https://tools.usps.com/UspsToolsRestServices/rest/POLocator/findLocations", "@spider": "usps_collection_boxes", "addr:city": "MEDFORD", "addr:country": "US", "addr:postcode": "97503", "addr:state": "OR", "addr:street_address": "7561 CRATER LAKE HWY STE A", "amenity": "post_box", "collection_times": "Mo-Fr 17:00", "indoor": "yes", "note": "ON 12/24 AND 12/31, THIS BOX MAY BE COLLECTED AS EARLY AS 12 NOON.", "nsi_id": "unitedstatespostalservice-a77078", "operator": "United States Postal Service", "operator:short": "USPS", "operator:type": "public", "operator:wikidata": "Q668687", "ref": "9750300005"}, "type": "Feature"}
{"geometry": {"coordinates": [-122.834549, 42.318125], "type": "Point"}, "id": "26P3WuaHVdw_ZjMG40Sm9N1Bv7Q=", "properties": {"@source_uri": "https://tools.usps.com/UspsToolsRestServices/rest/POLocator/findLocations", "@spider": "usps_collection_boxes", "addr:city": "MEDFORD", "addr:country": "US", "addr:postcode": "97504", "addr:state": "OR", "addr:street_address": "555 BLACK OAK DR", "amenity": "post_box", "collection_times": "Mo-Sa 10:25", "nsi_id": "unitedstatespostalservice-a77078", "operator": "United States Postal Service", "operator:short": "USPS", "operator:type": "public", "operator:wikidata": "Q668687", "ref": "9750400003"}, "type": "Feature"}
{"geometry": {"coordinates": [-122.8779163003, 42.3661209229], "type": "Point"}, "id": "azckC7kP9d71sZs2FvTMIhcYccQ=", "properties": {"@source_uri": "https://tools.usps.com/UspsToolsRestServices/rest/POLocator/findLocations", "@spider": "usps_collection_boxes", "addr:city": "MEDFORD", "addr:country": "US", "addr:postcode": "97504", "addr:state": "OR", "addr:street_address": "881 OHARE PKWY", "amenity": "post_box", "collection_times": "Mo-Sa 12:30", "note": "ON 12/24 AND 12/31, THIS BOX MAY BE COLLECTED AS EARLY AS 12 NOON.", "nsi_id": "unitedstatespostalservice-a77078", "operator": "United States Postal Service", "operator:short": "USPS", "operator:type": "public", "operator:wikidata": "Q668687", "ref": "9750400005"}, "type": "Feature"}
{"geometry": {"coordinates": [-122.867502, 42.334339], "type": "Point"}, "id": "-yZeBtwWntoTfyWuc9yAgxUWMlY=", "properties": {"@source_uri": "https://tools.usps.com/UspsToolsRestServices/rest/POLocator/findLocations", "@spider": "usps_collection_boxes", "addr:city": "MEDFORD", "addr:country": "US", "addr:postcode": "97504", "addr:state": "OR", "addr:street_address": "841 MEDFORD CTR", "amenity": "post_box", "collection_times": "Mo-Sa 12:30", "note": "ON 12/24 AND 12/31, THIS BOX MAY BE COLLECTED AS EARLY AS 12 NOON.", "nsi_id": "unitedstatespostalservice-a77078", "operator": "United States Postal Service", "operator:short": "USPS", "operator:type": "public", "operator:wikidata": "Q668687", "ref": "9750400018"}, "type": "Feature"}
{"geometry": {"coordinates": [-122.8660908552, 42.333141337], "type": "Point"}, "id": "YYrGK7CFN9ug8OoWJuiLxFgwSKk=", "properties": {"@source_uri": "https://tools.usps.com/UspsToolsRestServices/rest/POLocator/findLocations", "@spider": "usps_collection_boxes", "addr:city": "MEDFORD", "addr:country": "US", "addr:postcode": "97504", "addr:state": "OR", "addr:street_address": "845 MEDFORD CTR", "amenity": "post_box", "collection_times": "Mo-Sa 12:30", "note": "ON 12/24 AND 12/31, THIS BOX MAY BE COLLECTED AS EARLY AS 12 NOON.", "nsi_id": "unitedstatespostalservice-a77078", "operator": "United States Postal Service", "operator:short": "USPS", "operator:type": "public", "operator:wikidata": "Q668687", "ref": "9750400020"}, "type": "Feature"}
{"geometry": {"coordinates": [-122.871649, 42.340115], "type": "Point"}, "id": "G-hr0wB2-V2fIcfd2mkTZ60fjmY=", "properties": {"@source_uri": "https://tools.usps.com/UspsToolsRestServices/rest/POLocator/findLocations", "@spider": "usps_collection_boxes", "addr:city": "MEDFORD", "addr:country": "US", "addr:postcode": "97504", "addr:state": "OR", "addr:street_address": "1000 BIDDLE RD", "amenity": "post_box", "collection_times": "Mo-Sa 10:40", "nsi_id": "unitedstatespostalservice-a77078", "operator": "United States Postal Service", "operator:short": "USPS", "operator:type": "public", "operator:wikidata": "Q668687", "ref": "9750400027"}, "type": "Feature"}
{"geometry": {"coordinates": [-122.869969, 42.352825], "type": "Point"}, "id": "JKvbdmvkQOW_ZDBffDL7ea6DR5k=", "properties": {"@source_uri": "https://tools.usps.com/UspsToolsRestServices/rest/POLocator/findLocations", "@spider": "usps_collection_boxes", "addr:city": "MEDFORD", "addr:country": "US", "addr:postcode": "97504", "addr:state": "OR", "addr:street_address": "2424 CRATER LAKE HWY", "amenity": "post_box", "collection_times": "Mo-Sa 09:00", "nsi_id": "unitedstatespostalservice-a77078", "operator": "United States Postal Service", "operator:short": "USPS", "operator:type": "public", "operator:wikidata": "Q668687", "ref": "9750400031"}, "type": "Feature"}
{"geometry": {"coordinates": [-122.828272, 42.317939], "type": "Point"}, "id": "kJJDgE7VoGtE2j3GwHRaFqH-m78=", "properties": {"@source_uri": "https://tools.usps.com/UspsToolsRestServices/rest/POLocator/findLocations", "@spider": "usps_collection_boxes", "addr:city": "MEDFORD", "addr:country": "US", "addr:postcode": "97504", "addr:state": "OR", "addr:street_address": "691 MURPHY RD", "amenity": "post_box", "collection_times": "Mo-Sa 10:15", "nsi_id": "unitedstatespostalservice-a77078", "operator": "United States Postal Service", "operator:short": "USPS", "operator:type": "public", "operator:wikidata": "Q668687", "ref": "9750400049"}, "type": "Feature"}
{"geometry": {"coordinates": [-122.828775, 42.314928], "type": "Point"}, "id": "bQyV-yfuO5C6gb93qGJWlbqKja8=", "properties": {"@source_uri": "https://tools.usps.com/UspsToolsRestServices/rest/POLocator/findLocations", "@spider": "usps_collection_boxes", "addr:city": "MEDFORD", "addr:country": "US", "addr:postcode": "97504", "addr:state": "OR", "addr:street_address": "777 MURPHY RD", "amenity": "post_box", "collection_times": "Mo-Sa 11:15", "nsi_id": "unitedstatespostalservice-a77078", "operator": "United States Postal Service", "operator:short": "USPS", "operator:type": "public", "operator:wikidata": "Q668687", "ref": "9750400056"}, "type": "Feature"}
{"geometry": {"coordinates": [-122.823026, 42.315922], "type": "Point"}, "id": "JpK8aQQ9PajSa28d8jHWTSTsMbc=", "properties": {"@source_uri": "https://tools.usps.com/UspsToolsRestServices/rest/POLocator/findLocations", "@spider": "usps_collection_boxes", "addr:city": "MEDFORD", "addr:country": "US", "addr:postcode": "97504", "addr:state": "OR", "addr:street_address": "760 GOLF VIEW DR", "amenity": "post_box", "collection_times": "Mo-Sa 09:45", "nsi_id": "unitedstatespostalservice-a77078", "operator": "United States Postal Service", "operator:short": "USPS", "operator:type": "public", "operator:wikidata": "Q668687", "ref": "9750400057"}, "type": "Feature"}
{"geometry": {"coordinates": [-122.858637, 42.364463], "type": "Point"}, "id": "6mnAcEIKI1pdoMJWHeEDQkiEVbA=", "properties": {"@source_uri": "https://tools.usps.com/UspsToolsRestServices/rest/POLocator/findLocations", "@spider": "usps_collection_boxes", "addr:city": "MEDFORD", "addr:country": "US", "addr:postcode": "97504", "addr:state": "OR", "addr:street_address": "3565 CRATER LAKE HWY", "amenity": "post_box", "collection_times": "Mo-Sa 09:00", "nsi_id": "unitedstatespostalservice-a77078", "operator": "United States Postal Service", "operator:short": "USPS", "operator:type": "public", "operator:wikidata": "Q668687", "ref": "9750400058"}, "type": "Feature"}
{"geometry": {"coordinates": [-122.8195603299, 42.3151384635], "type": "Point"}, "id": "1NTrjOTwX-FmSskB-kagQWjpn1g=", "properties": {"@source_uri": "https://tools.usps.com/UspsToolsRestServices/rest/POLocator/findLocations", "@spider": "usps_collection_boxes", "addr:city": "MEDFORD", "addr:country": "US", "addr:postcode": "97504", "addr:state": "OR", "addr:street_address": "815 ALDER CREEK DR", "amenity": "post_box", "collection_times": "Mo-Sa 10:30", "nsi_id": "unitedstatespostalservice-a77078", "operator": "United States Postal Service", "operator:short": "USPS", "operator:type": "public", "operator:wikidata": "Q668687", "ref": "9750400059"}, "type": "Feature"}
{"geometry": {"coordinates": [-122.869808, 42.344993], "type": "Point"}, "id": "WIdvtJNfISxMA8rxTfrV8FJkgoc=", "properties": {"@source_uri": "https://tools.usps.com/UspsToolsRestServices/rest/POLocator/findLocations", "@spider": "usps_collection_boxes", "addr:city": "MEDFORD", "addr:country": "US", "addr:postcode": "97504", "addr:state": "OR", "addr:street_address": "1201 PROGRESS DR", "amenity": "post_box", "collection_times": "Mo-Sa 10:45", "nsi_id": "unitedstatespostalservice-a77078", "operator": "United States Postal Service", "operator:short": "USPS", "operator:type": "public", "operator:wikidata": "Q668687", "ref": "9750400060"}, "type": "Feature"}
{"geometry": {"coordinates": [-122.8150969943, 42.316834001], "type": "Point"}, "id": "Q6R5M9tfqEByATI0kjR6qsk3z0U=", "properties": {"@source_uri": "https://tools.usps.com/UspsToolsRestServices/rest/POLocator/findLocations", "@spider": "usps_collection_boxes", "addr:city": "MEDFORD", "addr:country": "US", "addr:postcode": "97504", "addr:state": "OR", "addr:street_address": "910 N PHOENIX RD", "amenity": "post_box", "collection_times": "Mo-Sa 07:45", "nsi_id": "unitedstatespostalservice-a77078", "operator": "United States Postal Service", "operator:short": "USPS", "operator:type": "public", "operator:wikidata": "Q668687", "ref": "9750400062"}, "type": "Feature"}
{"geometry": {"coordinates": [-122.849262, 42.333471], "type": "Point"}, "id": "klE7TyVkMPW9aF110SmshM8SP0I=", "properties": {"@source_uri": "https://tools.usps.com/UspsToolsRestServices/rest/POLocator/findLocations", "@spider": "usps_collection_boxes", "addr:city": "MEDFORD", "addr:country": "US", "addr:postcode": "97504", "addr:state": "OR", "addr:street_address": "843 E MAIN ST", "amenity": "post_box", "collection_times": "Mo-Sa 13:00", "note": "ON 12/24 AND 12/31, THIS BOX MAY BE COLLECTED AS EARLY AS 12 NOON.", "nsi_id": "unitedstatespostalservice-a77078", "operator": "United States Postal Service", "operator:short": "USPS", "operator:type": "public", "operator:wikidata": "Q668687", "ref": "9750400067"}, "type": "Feature"}
{"geometry": {"coordinates": [-122.7057392, 42.1913618], "type": "Point"}, "id": "Yl54qo9H1j5oZruWZLRzIJqSz1E=", "properties": {"@source_uri": "https://tools.usps.com/UspsToolsRestServices/rest/POLocator/findLocations", "@spider": "usps_collection_boxes", "addr:city": "ASHLAND", "addr:country": "US", "addr:postcode": "97520", "addr:state": "OR", "addr:street_address": "200 LITHIA WAY", "amenity": "post_box", "collection_times": "Mo-Fr 17:00; Sa 16:30", "note": "ON 12/24 AND 12/31, THIS BOX MAY BE COLLECTED AS EARLY AS 12 NOON.", "nsi_id": "unitedstatespostalservice-a77078", "operator": "United States Postal Service", "operator:short": "USPS", "operator:type": "public", "operator:wikidata": "Q668687", "ref": "9752000000"}, "type": "Feature"}
{"geometry": {"coordinates": [-122.715469, 42.197149], "type": "Point"}, "id": "kKsRxxePlbVQuS5TvWMSSQIPEaQ=", "properties": {"@source_uri": "https://tools.usps.com/UspsToolsRestServices/rest/POLocator/findLocations", "@spider": "usps_collection_boxes", "addr:city": "ASHLAND", "addr:country": "US", "addr:postcode": "97520", "addr:state": "OR", "addr:street_address": "15 N MAIN ST", "amenity": "post_box", "collection_times": "Mo-Sa 14:30", "note": "ON 12/24 AND 12/31, THIS BOX MAY BE COLLECTED AS EARLY AS 12 NOON.", "nsi_id": "unitedstatespostalservice-a77078", "operator": "United States Postal Service", "operator:short": "USPS", "operator:type": "public", "operator:wikidata": "Q668687", "ref": "9752000001"}, "type": "Feature"}
{"geometry": {"coordinates": [-122.713795, 42.196517], "type": "Point"}, "id": "tvCbgD7GZj-ZlbOmINt3xCZlAio=", "properties": {"@source_uri": "https://tools.usps.com/UspsToolsRestServices/rest/POLocator/findLocations", "@spider": "usps_collection_boxes", "addr:city": "ASHLAND", "addr:country": "US", "addr:postcode": "97520", "addr:state": "OR", "addr:street_address": "110 E MAIN ST", "amenity": "post_box", "collection_times": "Mo-Sa 14:30", "note": "ON 12/24 AND 12/31, THIS BOX MAY BE COLLECTED AS EARLY AS 12 NOON.", "nsi_id": "unitedstatespostalservice-a77078", "operator": "United States Postal Service", "operator:short": "USPS", "operator:type": "public", "operator:wikidata": "Q668687", "ref": "9752000002"}, "type": "Feature"}
{"geometry": {"coordinates": [-122.710971, 42.195023], "type": "Point"}, "id": "4_Xy2fM6VInoKGhATw3dO8SvSYQ=", "properties": {"@source_uri": "https://tools.usps.com/UspsToolsRestServices/rest/POLocator/findLocations", "@spider": "usps_collection_boxes", "addr:city": "ASHLAND", "addr:country": "US", "addr:postcode": "97520", "addr:state": "OR", "addr:street_address": "344 E MAIN ST", "amenity": "post_box", "collection_times": "Mo-Sa 14:30", "note": "ON 12/24 AND 12/31, THIS BOX MAY BE COLLECTED AS EARLY AS 12 NOON.", "nsi_id": "unitedstatespostalservice-a77078", "operator": "United States Postal Service", "operator:short": "USPS", "operator:type": "public", "operator:wikidata": "Q668687", "ref": "9752000003"}, "type": "Feature"}
{"geometry": {"coordinates": [-122.711583, 42.196849], "type": "Point"}, "id": "RNiATJQQypntO3zggymNXzpeFIQ=", "properties": {"@source_uri": "https://tools.usps.com/UspsToolsRestServices/rest/POLocator/findLocations", "@spider": "usps_collection_boxes", "addr:city": "ASHLAND", "addr:country": "US", "addr:postcode": "97520", "addr:state": "OR", "addr:street_address": "120 N 1ST ST", "amenity": "post_box", "collection_times": "Mo-Fr 17:00; Sa 16:00", "indoor": "yes", "note": "ON 12/24 AND 12/31, THIS BOX MAY BE COLLECTED AS EARLY AS 12 NOON.", "nsi_id": "unitedstatespostalservice-a77078", "operator": "United States Postal Service", "operator:short": "USPS", "operator:type": "public", "operator:wikidata": "Q668687", "ref": "9752000008"}, "type": "Feature"}
{"geometry": {"coordinates": [-122.6870670275, 42.1847699919], "type": "Point"}, "id": "Io6mNA3TqAt84NyMkoXE4LOaTt4=", "properties": {"@source_uri": "https://tools.usps.com/UspsToolsRestServices/rest/POLocator/findLocations", "@spider": "usps_collection_boxes", "addr:city": "ASHLAND", "addr:country": "US", "addr:postcode": "97520", "addr:state": "OR", "addr:street_address": "1634 ASHLAND ST", "amenity": "post_box", "collection_times": "Mo-Sa 13:00", "note": "ON 12/24 AND 12/31, THIS BOX MAY BE COLLECTED AS EARLY AS 12 NOON.", "nsi_id": "unitedstatespostalservice-a77078", "operator": "United States Postal Service", "operator:short": "USPS", "operator:type": "public", "operator:wikidata": "Q668687", "ref": "9752000011"}, "type": "Feature"}
{"geometry": {"coordinates": [-122.672827, 42.184734], "type": "Point"}, "id": "B06phiBqEtDelq72r-hXYbNjSaE=", "properties": {"@source_uri": "https://tools.usps.com/UspsToolsRestServices/rest/POLocator/findLocations", "@spider": "usps_collection_boxes", "addr:city": "ASHLAND", "addr:country": "US", "addr:postcode": "97520", "addr:state": "OR", "addr:street_address": "2270 ASHLAND ST", "amenity": "post_box", "collection_times": "Mo-Sa 12:00", "nsi_id": "unitedstatespostalservice-a77078", "operator": "United States Postal Service", "operator:short": "USPS", "operator:type": "public", "operator:wikidata": "Q668687", "ref": "9752000012"}, "type": "Feature"}
{"geometry": {"coordinates": [-122.711515, 42.196882], "type": "Point"}, "id": "Fy7rGsUPfqUpHHeSXcj24smg8pg=", "properties": {"@source_uri": "https://tools.usps.com/UspsToolsRestServices/rest/POLocator/findLocations", "@spider": "usps_collection_boxes", "addr:city": "ASHLAND", "addr:country": "US", "addr:postcode": "97520", "addr:state": "OR", "addr:street_address": "120 N 1ST ST", "amenity": "post_box", "collection_times": "Mo-Fr 17:00; Sa 16:00", "name": "USPS COLLECTION BOX - APC", "note": "ON 12/24 AND 12/31, THIS BOX MAY BE COLLECTED AS EARLY AS 12 NOON.", "nsi_id": "unitedstatespostalservice-a77078", "operator": "United States Postal Service", "operator:short": "USPS", "operator:type": "public", "operator:wikidata": "Q668687", "ref": "9752000013"}, "type": "Feature"}
{"geometry": {"coordinates": [-122.711707636, 42.196893559], "type": "Point"}, "id": "BXBo4B9SkK27DsgctRjFz_nCTbk=", "properties": {"@source_uri": "https://tools.usps.com/UspsToolsRestServices/rest/POLocator/findLocations", "@spider": "usps_collection_boxes", "addr:city": "ASHLAND", "addr:country": "US", "addr:postcode": "97520", "addr:state": "OR", "addr:street_address": "120 N 1ST ST", "amenity": "post_box", "collection_times": "Mo-Fr 17:00", "indoor": "yes", "note": "ON 12/24 AND 12/31, THIS BOX MAY BE COLLECTED AS EARLY AS 12 NOON.", "nsi_id": "unitedstatespostalservice-a77078", "operator": "United States Postal Service", "operator:short": "USPS", "operator:type": "public", "operator:wikidata": "Q668687", "ref": "9752000016"}, "type": "Feature"}
{"geometry": {"coordinates": [-122.7114369919, 42.1968369988], "type": "Point"}, "id": "KhZbv1b8EdeM_6VA4_u0aM3V94o=", "properties": {"@source_uri": "https://tools.usps.com/UspsToolsRestServices/rest/POLocator/findLocations", "@spider": "usps_collection_boxes", "addr:city": "ASHLAND", "addr:country": "US", "addr:postcode": "97520", "addr:state": "OR", "addr:street_address": "120 N 1ST ST", "amenity": "post_box", "collection_times": "Mo-Fr 16:30", "indoor": "yes", "note": "ON 12/24 AND 12/31, THIS BOX MAY BE COLLECTED AS EARLY AS 12 NOON.", "nsi_id": "unitedstatespostalservice-a77078", "operator": "United States Postal Service", "operator:short": "USPS", "operator:type": "public", "operator:wikidata": "Q668687", "ref": "9752000018"}, "type": "Feature"}
{"geometry": {"coordinates": [-122.56764, 42.543666], "type": "Point"}, "id": "Z4rQFqAxz-iE2J1SJbWry92F7jI=", "properties": {"@source_uri": "https://tools.usps.com/UspsToolsRestServices/rest/POLocator/findLocations", "@spider": "usps_collection_boxes", "addr:city": "BUTTE FALLS", "addr:country": "US", "addr:postcode": "97522", "addr:state": "OR", "addr:street_address": "355 BROAD ST", "amenity": "post_box", "collection_times": "Mo-Fr 12:00; Sa 10:30", "indoor": "yes", "nsi_id": "unitedstatespostalservice-a77078", "operator": "United States Postal Service", "operator:short": "USPS", "operator:type": "public", "operator:wikidata": "Q668687", "ref": "9752200000"}, "type": "Feature"}
{"geometry": {"coordinates": [-122.567643335, 42.543663464], "type": "Point"}, "id": "x1wN3b2bSHGPEyAmnyQHqbwGm_Q=", "properties": {"@source_uri": "https://tools.usps.com/UspsToolsRestServices/rest/POLocator/findLocations", "@spider": "usps_collection_boxes", "addr:city": "BUTTE FALLS", "addr:country": "US", "addr:postcode": "97522", "addr:state": "OR", "addr:street_address": "355 BROAD ST", "amenity": "post_box", "collection_times": "Mo-Fr 12:00", "indoor": "yes", "nsi_id": "unitedstatespostalservice-a77078", "operator": "United States Postal Service", "operator:short": "USPS", "operator:type": "public", "operator:wikidata": "Q668687", "ref": "9752200001"}, "type": "Feature"}
{"geometry": {"coordinates": [-123.647236, 42.167364], "type": "Point"}, "id": "5FhNKQoRaeMHjSiEEdzo50vyBGU=", "properties": {"@source_uri": "https://tools.usps.com/UspsToolsRestServices/rest/POLocator/findLocations", "@spider": "usps_collection_boxes", "addr:city": "CAVE JUNCTION", "addr:country": "US", "addr:postcode": "97523", "addr:state": "OR", "addr:street_address": "102 S HUSSEY AVE", "amenity": "post_box", "collection_times": "Mo-Fr 16:15; Sa 11:00", "note": "ON 12/24 AND 12/31, THIS BOX MAY BE COLLECTED AS EARLY AS 12 NOON.", "nsi_id": "unitedstatespostalservice-a77078", "operator": "United States Postal Service", "operator:short": "USPS", "operator:type": "public", "operator:wikidata": "Q668687", "ref": "9752300002"}, "type": "Feature"}
{"geometry": {"coordinates": [-123.647236, 42.167364], "type": "Point"}, "id": "an_gkqKE-RyeLkOH2r8ZL-Fk4Y0=", "properties": {"@source_uri": "https://tools.usps.com/UspsToolsRestServices/rest/POLocator/findLocations", "@spider": "usps_collection_boxes", "addr:city": "CAVE JUNCTION", "addr:country": "US", "addr:postcode": "97523", "addr:state": "OR", "addr:street_address": "102 S HUSSEY AVE", "amenity": "post_box", "collection_times": "Mo-Fr 15:45; Sa 11:00", "indoor": "yes", "note": "ON 12/24 AND 12/31, THIS BOX MAY BE COLLECTED AS EARLY AS 12 NOON.", "nsi_id": "unitedstatespostalservice-a77078", "operator": "United States Postal Service", "operator:short": "USPS", "operator:type": "public", "operator:wikidata": "Q668687", "ref": "9752300003"}, "type": "Feature"}
{"geometry": {"coordinates": [-123.647298929, 42.167163248], "type": "Point"}, "id": "dWWRhLlmXyAgL3VeBQ8OM7Po9tM=", "properties": {"@source_uri": "https://tools.usps.com/UspsToolsRestServices/rest/POLocator/findLocations", "@spider": "usps_collection_boxes", "addr:city": "CAVE JUNCTION", "addr:country": "US", "addr:postcode": "97523", "addr:state": "OR", "addr:street_address": "102 S HUSSEY AVE", "amenity": "post_box", "collection_times": "Mo-Fr 16:00", "indoor": "yes", "note": "ON 12/24 AND 12/31, THIS BOX MAY BE COLLECTED AS EARLY AS 12 NOON.", "nsi_id": "unitedstatespostalservice-a77078", "operator": "United States Postal Service", "operator:short": "USPS", "operator:type": "public", "operator:wikidata": "Q668687", "ref": "9752300006"}, "type": "Feature"}
{"geometry": {"coordinates": [-122.805161, 42.472964], "type": "Point"}, "id": "NjgAlzU-wACRcugsAtURhpHzzCM=", "properties": {"@source_uri": "https://tools.usps.com/UspsToolsRestServices/rest/POLocator/findLocations", "@spider": "usps_collection_boxes", "addr:city": "EAGLE POINT", "addr:country": "US", "addr:postcode": "97524", "addr:state": "OR", "addr:street_address": "236 LOTO ST", "amenity": "post_box", "collection_times": "Mo-Fr 16:30; Sa 15:00", "note": "ON 12/24 AND 12/31, THIS BOX MAY BE COLLECTED AS EARLY AS 12 NOON.", "nsi_id": "unitedstatespostalservice-a77078", "operator": "United States Postal Service", "operator:short": "USPS", "operator:type": "public", "operator:wikidata": "Q668687", "ref": "9752400000"}, "type": "Feature"}
{"geometry": {"coordinates": [-122.805161, 42.472964], "type": "Point"}, "id": "RSJburfeXd-MJlMMIRAiH8pOAmk=", "properties": {"@source_uri": "https://tools.usps.com/UspsToolsRestServices/rest/POLocator/findLocations", "@spider": "usps_collection_boxes", "addr:city": "EAGLE POINT", "addr:country": "US", "addr:postcode": "97524", "addr:state": "OR", "addr:street_address": "236 LOTO ST", "amenity": "post_box", "collection_times": "Mo-Fr 16:30; Sa 10:00", "indoor": "yes", "note": "ON 12/24 AND 12/31, THIS BOX MAY BE COLLECTED AS EARLY AS 12 NOON.", "nsi_id": "unitedstatespostalservice-a77078", "operator": "United States Postal Service", "operator:short": "USPS", "operator:type": "public", "operator:wikidata": "Q668687", "ref": "9752400001"}, "type": "Feature"}
{"geometry": {"coordinates": [-122.805293093, 42.472812739], "type": "Point"}, "id": "qdmD8XZ4QdvLx2COq45ovSEcI-w=", "properties": {"@source_uri": "https://tools.usps.com/UspsToolsRestServices/rest/POLocator/findLocations", "@spider": "usps_collection_boxes", "addr:city": "EAGLE POINT", "addr:country": "US", "addr:postcode": "97524", "addr:state": "OR", "addr:street_address": "236 LOTO ST", "amenity": "post_box", "collection_times": "Mo-Fr 17:00", "indoor": "yes", "note": "ON 12/24 AND 12/31, THIS BOX MAY BE COLLECTED AS EARLY AS 12 NOON.", "nsi_id": "unitedstatespostalservice-a77078", "operator": "United States Postal Service", "operator:short": "USPS", "operator:type": "public", "operator:wikidata": "Q668687", "ref": "9752400003"}, "type": "Feature"}
{"geometry": {"coordinates": [-123.048025, 42.431075], "type": "Point"}, "id": "QeiI4BmGkqW1dqbWogl_4dEM1To=", "properties": {"@source_uri": "https://tools.usps.com/UspsToolsRestServices/rest/POLocator/findLocations", "@spider": "usps_collection_boxes", "addr:city": "GOLD HILL", "addr:country": "US", "addr:postcode": "97525", "addr:state": "OR", "addr:street_address": "375 2ND AVE", "amenity": "post_box", "collection_times": "Mo-Fr 16:15; Sa 10:30", "note": "ON 12/24 AND 12/31, THIS BOX MAY BE COLLECTED AS EARLY AS 12 NOON.", "nsi_id": "unitedstatespostalservice-a77078", "operator": "United States Postal Service", "operator:short": "USPS", "operator:type": "public", "operator:wikidata": "Q668687", "ref": "9752500000"}, "type": "Feature"}
{"geometry": {"coordinates": [-123.048025, 42.431075], "type": "Point"}, "id": "oSHy7u4n4wk30MemeLFE9zDlSNU=", "properties": {"@source_uri": "https://tools.usps.com/UspsToolsRestServices/rest/POLocator/findLocations", "@spider": "usps_collection_boxes", "addr:city": "GOLD HILL", "addr:country": "US", "addr:postcode": "97525", "addr:state": "OR", "addr:street_address": "375 2ND AVE", "amenity": "post_box", "collection_times": "Mo-Fr 16:15; Sa 10:30", "indoor": "yes", "note": "ON 12/24 AND 12/31, THIS BOX MAY BE COLLECTED AS EARLY AS 12 NOON.", "nsi_id": "unitedstatespostalservice-a77078", "operator": "United States Postal Service", "operator:short": "USPS", "operator:type": "public", "operator:wikidata": "Q668687", "ref": "9752500002"}, "type": "Feature"}
{"geometry": {"coordinates": [-123.048028572, 42.431075264], "type": "Point"}, "id": "lb0L7ix8VN8MsOBSPj3KI4OYLF8=", "properties": {"@source_uri": "https://tools.usps.com/UspsToolsRestServices/rest/POLocator/findLocations", "@spider": "usps_collection_boxes", "addr:city": "GOLD HILL", "addr:country": "US", "addr:postcode": "97525", "addr:state": "OR", "addr:street_address": "375 2ND AVE", "amenity": "post_box", "collection_times": "Mo-Fr 16:30", "indoor": "yes", "note": "ON 12/24 AND 12/31, THIS BOX MAY BE COLLECTED AS EARLY AS 12 NOON.", "nsi_id": "unitedstatespostalservice-a77078", "operator": "United States Postal Service", "operator:short": "USPS", "operator:type": "public", "operator:wikidata": "Q668687", "ref": "9752500003"}, "type": "Feature"}
{"geometry": {"coordinates": [-123.322429, 42.448889], "type": "Point"}, "id": "HPnhJui7vRAf0RiyP1vhezVida4=", "properties": {"@source_uri": "https://tools.usps.com/UspsToolsRestServices/rest/POLocator/findLocations", "@spider": "usps_collection_boxes", "addr:city": "GRANTS PASS", "addr:country": "US", "addr:postcode": "97526", "addr:state": "OR", "addr:street_address": "1051 NE 6TH ST", "amenity": "post_box", "collection_times": "Mo-Fr 16:30; Sa 14:30", "note": "ON 12/24 AND 12/31, THIS BOX MAY BE COLLECTED AS EARLY AS 12 NOON.", "nsi_id": "unitedstatespostalservice-a77078", "operator": "United States Postal Service", "operator:short": "USPS", "operator:type": "public", "operator:wikidata": "Q668687", "ref": "9752600006"}, "type": "Feature"}
{"geometry": {"coordinates": [-123.324459, 42.443282], "type": "Point"}, "id": "WFpTL5axvsrYI_up6vCMoWyHJBY=", "properties": {"@source_uri": "https://tools.usps.com/UspsToolsRestServices/rest/POLocator/findLocations", "@spider": "usps_collection_boxes", "addr:city": "GRANTS PASS", "addr:country": "US", "addr:postcode": "97526", "addr:state": "OR", "addr:street_address": "629 NE 6TH ST", "amenity": "post_box", "collection_times": "Mo-Fr 16:30; Sa 14:30", "note": "ON 12/24 AND 12/31, THIS BOX MAY BE COLLECTED AS EARLY AS 12 NOON.", "nsi_id": "unitedstatespostalservice-a77078", "operator": "United States Postal Service", "operator:short": "USPS", "operator:type": "public", "operator:wikidata": "Q668687", "ref": "9752600009"}, "type": "Feature"}
{"geometry": {"coordinates": [-123.326603203, 42.439734871], "type": "Point"}, "id": "MRsb8UIYPNMPxIfCkLHqAXbafjE=", "properties": {"@source_uri": "https://tools.usps.com/UspsToolsRestServices/rest/POLocator/findLocations", "@spider": "usps_collection_boxes", "addr:city": "GRANTS PASS", "addr:country": "US", "addr:postcode": "97526", "addr:state": "OR", "addr:street_address": "131 NE 6TH ST", "amenity": "post_box", "collection_times": "Mo-Fr 17:00; Sa 14:45", "note": "ON 12/24 AND 12/31, THIS BOX MAY BE COLLECTED AS EARLY AS 12 NOON.", "nsi_id": "unitedstatespostalservice-a77078", "operator": "United States Postal Service", "operator:short": "USPS", "operator:type": "public", "operator:wikidata": "Q668687", "ref": "9752600011"}, "type": "Feature"}
{"geometry": {"coordinates": [-123.30228, 42.434943], "type": "Point"}, "id": "bqYPPNna3IruLBN94m5opVvPfDI=", "properties": {"@source_uri": "https://tools.usps.com/UspsToolsRestServices/rest/POLocator/findLocations", "@spider": "usps_collection_boxes", "addr:city": "GRANTS PASS", "addr:country": "US", "addr:postcode": "97526", "addr:state": "OR", "addr:street_address": "135 NE TERRY LN", "amenity": "post_box", "collection_times": "Mo-Fr 16:00; Sa 15:00", "note": "ON 12/24 AND 12/31, THIS BOX MAY BE COLLECTED AS EARLY AS 12 NOON.", "nsi_id": "unitedstatespostalservice-a77078", "operator": "United States Postal Service", "operator:short": "USPS", "operator:type": "public", "operator:wikidata": "Q668687", "ref": "9752600022"}, "type": "Feature"}
{"geometry": {"coordinates": [-123.306453, 42.435587], "type": "Point"}, "id": "2GcIuevyCNxd0yPW8LXwq6ri9c8=", "properties": {"@source_uri": "https://tools.usps.com/UspsToolsRestServices/rest/POLocator/findLocations", "@spider": "usps_collection_boxes", "addr:city": "GRANTS PASS", "addr:country": "US", "addr:postcode": "97526", "addr:state": "OR", "addr:street_address": "1101 GRANTS PASS PKWY", "amenity": "post_box", "collection_times": "Mo-Fr 16:00; Sa 15:00", "note": "ON 12/24 AND 12/31, THIS BOX MAY BE COLLECTED AS EARLY AS 12 NOON.", "nsi_id": "unitedstatespostalservice-a77078", "operator": "United States Postal Service", "operator:short": "USPS", "operator:type": "public", "operator:wikidata": "Q668687", "ref": "9752600023"}, "type": "Feature"}
{"geometry": {"coordinates": [-123.310683, 42.438379], "type": "Point"}, "id": "0CDRy6OFMeoZJb4L4nzSqGr-i84=", "properties": {"@source_uri": "https://tools.usps.com/UspsToolsRestServices/rest/POLocator/findLocations", "@spider": "usps_collection_boxes", "addr:city": "GRANTS PASS", "addr:country": "US", "addr:postcode": "97526", "addr:state": "OR", "addr:street_address": "939 NE D ST", "amenity": "post_box", "collection_times": "Mo-Fr 15:30; Sa 15:00", "note": "ON 12/24 AND 12/31, THIS BOX MAY BE COLLECTED AS EARLY AS 12 NOON.", "nsi_id": "unitedstatespostalservice-a77078", "operator": "United States Postal Service", "operator:short": "USPS", "operator:type": "public", "operator:wikidata": "Q668687", "ref": "9752600025"}, "type": "Feature"}
{"geometry": {"coordinates": [-123.3690529767, 42.4963650234], "type": "Point"}, "id": "VE2hVlzjjvMIvbrYf9WtH36u5Sg=", "properties": {"@source_uri": "https://tools.usps.com/UspsToolsRestServices/rest/POLocator/findLocations", "@spider": "usps_collection_boxes", "addr:city": "GRANTS PASS", "addr:country": "US", "addr:postcode": "97526", "addr:state": "OR", "addr:street_address": "3500 MERLIN RD", "amenity": "post_box", "collection_times": "Mo-Sa 10:00", "nsi_id": "unitedstatespostalservice-a77078", "operator": "United States Postal Service", "operator:short": "USPS", "operator:type": "public", "operator:wikidata": "Q668687", "ref": "9752600038"}, "type": "Feature"}
{"geometry": {"coordinates": [-123.324937, 42.437507], "type": "Point"}, "id": "K8cqVU-JuJZBQjFQU-gXzmRCv3M=", "properties": {"@source_uri": "https://tools.usps.com/UspsToolsRestServices/rest/POLocator/findLocations", "@spider": "usps_collection_boxes", "addr:city": "GRANTS PASS", "addr:country": "US", "addr:postcode": "97526", "addr:state": "OR", "addr:street_address": "235 SE 8TH ST", "amenity": "post_box", "collection_times": "Mo-Sa 12:00", "nsi_id": "unitedstatespostalservice-a77078", "operator": "United States Postal Service", "operator:short": "USPS", "operator:type": "public", "operator:wikidata": "Q668687", "ref": "9752600039"}, "type": "Feature"}
{"geometry": {"coordinates": [-123.325238, 42.458579], "type": "Point"}, "id": "ZTf4VS5mONAx8hmRpp9lQ1iy9X4=", "properties": {"@source_uri": "https://tools.usps.com/UspsToolsRestServices/rest/POLocator/findLocations", "@spider": "usps_collection_boxes", "addr:city": "GRANTS PASS", "addr:country": "US", "addr:postcode": "97526", "addr:state": "OR", "addr:street_address": "1636 NW WASHINGTON BLVD", "amenity": "post_box", "collection_times": "Mo-Fr 17:00", "indoor": "yes", "note": "ON 12/24 AND 12/31, THIS BOX MAY BE COLLECTED AS EARLY AS 12 NOON.", "nsi_id": "unitedstatespostalservice-a77078", "operator": "United States Postal Service", "operator:short": "USPS", "operator:type": "public", "operator:wikidata": "Q668687", "ref": "9752600041"}, "type": "Feature"}
{"geometry": {"coordinates": [-123.325238, 42.458579], "type": "Point"}, "id": "9jOdn8PCD2ZTp9zwPfrj6ShEYWw=", "properties": {"@source_uri": "https://tools.usps.com/UspsToolsRestServices/rest/POLocator/findLocations", "@spider": "usps_collection_boxes", "addr:city": "GRANTS PASS", "addr:country": "US", "addr:postcode": "97526", "addr:state": "OR", "addr:street_address": "1636 NW WASHINGTON BLVD", "amenity": "post_box", "collection_times": "Mo-Fr 17:00", "indoor": "yes", "note": "ON 12/24 AND 12/31, THIS BOX MAY BE COLLECTED AS EARLY AS 12 NOON.", "nsi_id": "unitedstatespostalservice-a77078", "operator": "United States Postal Service", "operator:short": "USPS", "operator:type": "public", "operator:wikidata": "Q668687", "ref": "9752600042"}, "type": "Feature"}
{"geometry": {"coordinates": [-123.325238, 42.458579], "type": "Point"}, "id": "fo1G2JvIyUyy1txlzOPfX4WACho=", "properties": {"@source_uri": "https://tools.usps.com/UspsToolsRestServices/rest/POLocator/findLocations", "@spider": "usps_collection_boxes", "addr:city": "GRANTS PASS", "addr:country": "US", "addr:postcode": "97526", "addr:state": "OR", "addr:street_address": "1636 NW WASHINGTON BLVD", "amenity": "post_box", "collection_times": "Mo-Fr 17:00; Sa 15:00", "note": "ON 12/24 AND 12/31, THIS BOX MAY BE COLLECTED AS EARLY AS 12 NOON.", "nsi_id": "unitedstatespostalservice-a77078", "operator": "United States Postal Service", "operator:short": "USPS", "operator:type": "public", "operator:wikidata": "Q668687", "ref": "9752600044"}, "type": "Feature"}
{"geometry": {"coordinates": [-123.336666, 42.435261], "type": "Point"}, "id": "kyoL1oyNrk3OoPpb-_4cJoX4e_s=", "properties": {"@source_uri": "https://tools.usps.com/UspsToolsRestServices/rest/POLocator/findLocations", "@spider": "usps_collection_boxes", "addr:city": "GRANTS PASS", "addr:country": "US", "addr:postcode": "97526", "addr:state": "OR", "addr:street_address": "732 SW BRIDGE ST", "amenity": "post_box", "collection_times": "Mo-Sa 12:00", "nsi_id": "unitedstatespostalservice-a77078", "operator": "United States Postal Service", "operator:short": "USPS", "operator:type": "public", "operator:wikidata": "Q668687", "ref": "9752600046"}, "type": "Feature"}
{"geometry": {"coordinates": [-123.325238, 42.458579], "type": "Point"}, "id": "NESZcDIIRbul6o39trLGgAP0pDc=", "properties": {"@source_uri": "https://tools.usps.com/UspsToolsRestServices/rest/POLocator/findLocations", "@spider": "usps_collection_boxes", "addr:city": "GRANTS PASS", "addr:country": "US", "addr:postcode": "97526", "addr:state": "OR", "addr:street_address": "1636 NW WASHINGTON BLVD", "amenity": "post_box", "collection_times": "Mo-Fr 17:00; Sa 15:00", "name": "USPS COLLECTION BOX - APC", "note": "ON 12/24 AND 12/31, THIS BOX MAY BE COLLECTED AS EARLY AS 12 NOON.", "nsi_id": "unitedstatespostalservice-a77078", "operator": "United States Postal Service", "operator:short": "USPS", "operator:type": "public", "operator:wikidata": "Q668687", "ref": "9752600052"}, "type": "Feature"}
{"geometry": {"coordinates": [-123.328195, 42.438465], "type": "Point"}, "id": "4i3Z-1GIyJsX_xaWUJHZSGUyfTY=", "properties": {"@source_uri": "https://tools.usps.com/UspsToolsRestServices/rest/POLocator/findLocations", "@spider": "usps_collection_boxes", "addr:city": "GRANTS PASS", "addr:country": "US", "addr:postcode": "97526", "addr:state": "OR", "addr:street_address": "132 NW 6TH ST", "amenity": "post_box", "collection_times": "Mo-Fr 17:00", "indoor": "yes", "note": "ON 12/24 AND 12/31, THIS BOX MAY BE COLLECTED AS EARLY AS 12 NOON.", "nsi_id": "unitedstatespostalservice-a77078", "operator": "United States Postal Service", "operator:short": "USPS", "operator:type": "public", "operator:wikidata": "Q668687", "ref": "9752600053"}, "type": "Feature"}
{"geometry": {"coordinates": [-123.3313292166, 42.4269249564], "type": "Point"}, "id": "CsKz92WAEErWBfoj_LggDibAv8M=", "properties": {"@source_uri": "https://tools.usps.com/UspsToolsRestServices/rest/POLocator/findLocations", "@spider": "usps_collection_boxes", "addr:city": "GRANTS PASS", "addr:country": "US", "addr:postcode": "97527", "addr:state": "OR", "addr:street_address": "233 ROGUE RIVER HWY", "amenity": "post_box", "collection_times": "Mo-Fr 15:45; Sa 14:45", "note": "ON 12/24 AND 12/31, THIS BOX MAY BE COLLECTED AS EARLY AS 12 NOON.", "nsi_id": "unitedstatespostalservice-a77078", "operator": "United States Postal Service", "operator:short": "USPS", "operator:type": "public", "operator:wikidata": "Q668687", "ref": "9752700000"}, "type": "Feature"}
{"geometry": {"coordinates": [-123.336027, 42.421937], "type": "Point"}, "id": "__F-vkh55kLOFmP8T0If0-Tabkw=", "properties": {"@source_uri": "https://tools.usps.com/UspsToolsRestServices/rest/POLocator/findLocations", "@spider": "usps_collection_boxes", "addr:city": "GRANTS PASS", "addr:country": "US", "addr:postcode": "97527", "addr:state": "OR", "addr:street_address": "1620 WILLIAMS HWY", "amenity": "post_box", "collection_times": "Mo-Fr 16:00; Sa 15:00", "note": "ON 12/24 AND 12/31, THIS BOX MAY BE COLLECTED AS EARLY AS 12 NOON.", "nsi_id": "unitedstatespostalservice-a77078", "operator": "United States Postal Service", "operator:short": "USPS", "operator:type": "public", "operator:wikidata": "Q668687", "ref": "9752700003"}, "type": "Feature"}
{"geometry": {"coordinates": [-123.3539500196, 42.4195359938], "type": "Point"}, "id": "6oI9ameaiujyTsmZg8nsIROL_LU=", "properties": {"@source_uri": "https://tools.usps.com/UspsToolsRestServices/rest/POLocator/findLocations", "@spider": "usps_collection_boxes", "addr:city": "GRANTS PASS", "addr:country": "US", "addr:postcode": "97527", "addr:state": "OR", "addr:street_address": "1610 SW ALLEN CREEK RD", "amenity": "post_box", "collection_times": "Mo-Fr 12:30; Sa 11:00", "note": "ON 12/24 AND 12/31, THIS BOX MAY BE COLLECTED AS EARLY AS 12 NOON.", "nsi_id": "unitedstatespostalservice-a77078", "operator": "United States Postal Service", "operator:short": "USPS", "operator:type": "public", "operator:wikidata": "Q668687", "ref": "9752700015"}, "type": "Feature"}
{"geometry": {"coordinates": [-123.3320656835, 42.4188807485], "type": "Point"}, "id": "2qch5JqACoGEnwvFPcQ-_p8_WFI=", "properties": {"@source_uri": "https://tools.usps.com/UspsToolsRestServices/rest/POLocator/findLocations", "@spider": "usps_collection_boxes", "addr:city": "GRANTS PASS", "addr:country": "US", "addr:postcode": "97527", "addr:state": "OR", "addr:street_address": "1760 HARBECK RD", "amenity": "post_box", "collection_times": "Mo-Sa 10:00", "nsi_id": "unitedstatespostalservice-a77078", "operator": "United States Postal Service", "operator:short": "USPS", "operator:type": "public", "operator:wikidata": "Q668687", "ref": "9752700016"}, "type": "Feature"}
{"geometry": {"coordinates": [-123.326703, 42.439759], "type": "Point"}, "id": "cJrvWVQof1T0Vw0uIWZdndiRFmQ=", "properties": {"@source_uri": "https://tools.usps.com/UspsToolsRestServices/rest/POLocator/findLocations", "@spider": "usps_collection_boxes", "addr:city": "GRANTS PASS", "addr:country": "US", "addr:postcode": "97528", "addr:state": "OR", "addr:street_address": "132 NW 6TH ST", "amenity": "post_box", "collection_times": "Mo-Fr 17:00; Sa 12:30", "name": "USPS COLLECTION BOX - APC", "note": "ON 12/24 AND 12/31, THIS BOX MAY BE COLLECTED AS EARLY AS 12 NOON.", "nsi_id": "unitedstatespostalservice-a77078", "operator": "United States Postal Service", "operator:short": "USPS", "operator:type": "public", "operator:wikidata": "Q668687", "ref": "9752800001"}, "type": "Feature"}
{"geometry": {"coordinates": [-123.326683, 42.439792], "type": "Point"}, "id": "DtUK72ViJJvvUdMcE7rYB3GrOGI=", "properties": {"@source_uri": "https://tools.usps.com/UspsToolsRestServices/rest/POLocator/findLocations", "@spider": "usps_collection_boxes", "addr:city": "GRANTS PASS", "addr:country": "US", "addr:postcode": "97528", "addr:state": "OR", "addr:street_address": "132 NW 6TH ST", "amenity": "post_box", "collection_times": "Mo-Fr 17:00; Sa 12:30", "indoor": "yes", "note": "ON 12/24 AND 12/31, THIS BOX MAY BE COLLECTED AS EARLY AS 12 NOON.", "nsi_id": "unitedstatespostalservice-a77078", "operator": "United States Postal Service", "operator:short": "USPS", "operator:type": "public", "operator:wikidata": "Q668687", "ref": "9752800002"}, "type": "Feature"}
{"geometry": {"coordinates": [-123.326683, 42.439792], "type": "Point"}, "id": "kRt3-ArL6VONRRAk1Y9IQd7zNSE=", "properties": {"@source_uri": "https://tools.usps.com/UspsToolsRestServices/rest/POLocator/findLocations", "@spider": "usps_collection_boxes", "addr:city": "GRANTS PASS", "addr:country": "US", "addr:postcode": "97528", "addr:state": "OR", "addr:street_address": "132 NW 6TH ST", "amenity": "post_box", "collection_times": "Mo-Fr 17:00; Sa 12:30", "indoor": "yes", "note": "ON 12/24 AND 12/31, THIS BOX MAY BE COLLECTED AS EARLY AS 12 NOON.", "nsi_id": "unitedstatespostalservice-a77078", "operator": "United States Postal Service", "operator:short": "USPS", "operator:type": "public", "operator:wikidata": "Q668687", "ref": "9752800003"}, "type": "Feature"}
{"geometry": {"coordinates": [-123.326683, 42.439792], "type": "Point"}, "id": "H0kuykqfW-wORxzay_X0umRht4g=", "properties": {"@source_uri": "https://tools.usps.com/UspsToolsRestServices/rest/POLocator/findLocations", "@spider": "usps_collection_boxes", "addr:city": "GRANTS PASS", "addr:country": "US", "addr:postcode": "97528", "addr:state": "OR", "addr:street_address": "132 NW 6TH ST", "amenity": "post_box", "collection_times": "Mo-Fr 17:00; Sa 12:30", "indoor": "yes", "note": "ON 12/24 AND 12/31, THIS BOX MAY BE COLLECTED AS EARLY AS 12 NOON.", "nsi_id": "unitedstatespostalservice-a77078", "operator": "United States Postal Service", "operator:short": "USPS", "operator:type": "public", "operator:wikidata": "Q668687", "ref": "9752800004"}, "type": "Feature"}
{"geometry": {"coordinates": [-122.968459, 42.314855], "type": "Point"}, "id": "mJNBtN9sdyvhMPmSL0E1K2F3FuM=", "properties": {"@source_uri": "https://tools.usps.com/UspsToolsRestServices/rest/POLocator/findLocations", "@spider": "usps_collection_boxes", "addr:city": "JACKSONVILLE", "addr:country": "US", "addr:postcode": "97530", "addr:state": "OR", "addr:street_address": "175 N OREGON ST", "amenity": "post_box", "collection_times": "Mo-Fr 16:30; Sa 10:00", "indoor": "yes", "note": "ON 12/24 AND 12/31, THIS BOX MAY BE COLLECTED AS EARLY AS 12 NOON.", "nsi_id": "unitedstatespostalservice-a77078", "operator": "United States Postal Service", "operator:short": "USPS", "operator:type": "public", "operator:wikidata": "Q668687", "ref": "9753000000"}, "type": "Feature"}
{"geometry": {"coordinates": [-122.968459, 42.314855], "type": "Point"}, "id": "s117cTNyPqw1c5e1hZdloap_4mI=", "properties": {"@source_uri": "https://tools.usps.com/UspsToolsRestServices/rest/POLocator/findLocations", "@spider": "usps_collection_boxes", "addr:city": "JACKSONVILLE", "addr:country": "US", "addr:postcode": "97530", "addr:state": "OR", "addr:street_address": "175 N OREGON ST", "amenity": "post_box", "collection_times": "Mo-Fr 16:30; Sa 10:45", "note": "ON 12/24 AND 12/31, THIS BOX MAY BE COLLECTED AS EARLY AS 12 NOON.", "nsi_id": "unitedstatespostalservice-a77078", "operator": "United States Postal Service", "operator:short": "USPS", "operator:type": "public", "operator:wikidata": "Q668687", "ref": "9753000001"}, "type": "Feature"}
{"geometry": {"coordinates": [-123.168009, 42.256655], "type": "Point"}, "id": "VLtJbjRZWMOahYqEhRZ15xoKZI8=", "properties": {"@source_uri": "https://tools.usps.com/UspsToolsRestServices/rest/POLocator/findLocations", "@spider": "usps_collection_boxes", "addr:city": "JACKSONVILLE", "addr:country": "US", "addr:postcode": "97530", "addr:state": "OR", "addr:street_address": "15095 HIGHWAY 238", "amenity": "post_box", "collection_times": "Mo-Sa 12:00", "nsi_id": "unitedstatespostalservice-a77078", "operator": "United States Postal Service", "operator:short": "USPS", "operator:type": "public", "operator:wikidata": "Q668687", "ref": "9753000002"}, "type": "Feature"}
{"geometry": {"coordinates": [-123.037078, 42.239688], "type": "Point"}, "id": "opkZJtE9Bb8bOjAsSir-qlpwJ14=", "properties": {"@source_uri": "https://tools.usps.com/UspsToolsRestServices/rest/POLocator/findLocations", "@spider": "usps_collection_boxes", "addr:city": "JACKSONVILLE", "addr:country": "US", "addr:postcode": "97530", "addr:state": "OR", "addr:street_address": "7360 HIGHWAY 238", "amenity": "post_box", "collection_times": "Mo-Fr 12:00; Sa 11:30", "nsi_id": "unitedstatespostalservice-a77078", "operator": "United States Postal Service", "operator:short": "USPS", "operator:type": "public", "operator:wikidata": "Q668687", "ref": "9753000003"}, "type": "Feature"}
{"geometry": {"coordinates": [-122.96509, 42.315811], "type": "Point"}, "id": "M647WqaDsSWPP90sW1bSkCmbiJU=", "properties": {"@source_uri": "https://tools.usps.com/UspsToolsRestServices/rest/POLocator/findLocations", "@spider": "usps_collection_boxes", "addr:city": "JACKSONVILLE", "addr:country": "US", "addr:postcode": "97530", "addr:state": "OR", "addr:street_address": "425 N 5TH ST", "amenity": "post_box", "collection_times": "Mo-Fr 13:00; Sa 12:00", "note": "ON 12/24 AND 12/31, THIS BOX MAY BE COLLECTED AS EARLY AS 12 NOON.", "nsi_id": "unitedstatespostalservice-a77078", "operator": "United States Postal Service", "operator:short": "USPS", "operator:type": "public", "operator:wikidata": "Q668687", "ref": "9753000004"}, "type": "Feature"}
{"geometry": {"coordinates": [-122.968402436, 42.314961844], "type": "Point"}, "id": "VsDhIHgQ2gIZgLFDFlZveA0juTY=", "properties": {"@source_uri": "https://tools.usps.com/UspsToolsRestServices/rest/POLocator/findLocations", "@spider": "usps_collection_boxes", "addr:city": "JACKSONVILLE", "addr:country": "US", "addr:postcode": "97530", "addr:state": "OR", "addr:street_address": "175 N OREGON ST", "amenity": "post_box", "collection_times": "Mo-Fr 17:00", "indoor": "yes", "note": "ON 12/24 AND 12/31, THIS BOX MAY BE COLLECTED AS EARLY AS 12 NOON.", "nsi_id": "unitedstatespostalservice-a77078", "operator": "United States Postal Service", "operator:short": "USPS", "operator:type": "public", "operator:wikidata": "Q668687", "ref": "9753000005"}, "type": "Feature"}
{"geometry": {"coordinates": [-123.421995, 42.515742], "type": "Point"}, "id": "Y77sKc63w818x-0ZcKk4IQ_KILs=", "properties": {"@source_uri": "https://tools.usps.com/UspsToolsRestServices/rest/POLocator/findLocations", "@spider": "usps_collection_boxes", "addr:city": "MERLIN", "addr:country": "US", "addr:postcode": "97532", "addr:state": "OR", "addr:street_address": "317 JOSEPHINE ST", "amenity": "post_box", "collection_times": "Mo-Fr 16:30; Sa 10:30", "indoor": "yes", "note": "ON 12/24 AND 12/31, THIS BOX MAY BE COLLECTED AS EARLY AS 12 NOON.", "nsi_id": "unitedstatespostalservice-a77078", "operator": "United States Postal Service", "operator:short": "USPS", "operator:type": "public", "operator:wikidata": "Q668687", "ref": "9753200001"}, "type": "Feature"}
{"geometry": {"coordinates": [-123.421727136, 42.516096194], "type": "Point"}, "id": "7MEqORgdwx74FjelfUZa1iCP27c=", "properties": {"@source_uri": "https://tools.usps.com/UspsToolsRestServices/rest/POLocator/findLocations", "@spider": "usps_collection_boxes", "addr:city": "MERLIN", "addr:country": "US", "addr:postcode": "97532", "addr:state": "OR", "addr:street_address": "317 JOSEPHINE ST", "amenity": "post_box", "collection_times": "Mo-Fr 17:00", "indoor": "yes", "note": "ON 12/24 AND 12/31, THIS BOX MAY BE COLLECTED AS EARLY AS 12 NOON.", "nsi_id": "unitedstatespostalservice-a77078", "operator": "United States Postal Service", "operator:short": "USPS", "operator:type": "public", "operator:wikidata": "Q668687", "ref": "9753200002"}, "type": "Feature"}
{"geometry": {"coordinates": [-123.3318960734, 42.3379414855], "type": "Point"}, "id": "XDT5EDlVSoHG9Vt7KNIjW4q05II=", "properties": {"@source_uri": "https://tools.usps.com/UspsToolsRestServices/rest/POLocator/findLocations", "@spider": "usps_collection_boxes", "addr:city": "MURPHY", "addr:country": "US", "addr:postcode": "97533", "addr:state": "OR", "addr:street_address": "7200 WILLIAMS HWY", "amenity": "post_box", "collection_times": "Mo-Fr 16:00; Sa 09:30", "indoor": "yes", "note": "ON 12/24 AND 12/31, THIS BOX MAY BE COLLECTED AS EARLY AS 12 NOON.", "nsi_id": "unitedstatespostalservice-a77078", "operator": "United States Postal Service", "operator:short": "USPS", "operator:type": "public", "operator:wikidata": "Q668687", "ref": "9753300000"}, "type": "Feature"}
{"geometry": {"coordinates": [-123.248037563, 42.361409827], "type": "Point"}, "id": "9Ymbk1c89HzZR85DN9zaZgzfOzo=", "properties": {"@source_uri": "https://tools.usps.com/UspsToolsRestServices/rest/POLocator/findLocations", "@spider": "usps_collection_boxes", "addr:city": "MURPHY", "addr:country": "US", "addr:postcode": "97533", "addr:state": "OR", "addr:street_address": "7200 WILLIAMS HWY", "amenity": "post_box", "collection_times": "Mo-Fr 16:00", "indoor": "yes", "note": "ON 12/24 AND 12/31, THIS BOX MAY BE COLLECTED AS EARLY AS 12 NOON.", "nsi_id": "unitedstatespostalservice-a77078", "operator": "United States Postal Service", "operator:short": "USPS", "operator:type": "public", "operator:wikidata": "Q668687", "ref": "9753300001"}, "type": "Feature"}
{"geometry": {"coordinates": [-123.703916, 42.066411], "type": "Point"}, "id": "oqchm7wuWnWFnOSAzGFpvhoq0F8=", "properties": {"@source_uri": "https://tools.usps.com/UspsToolsRestServices/rest/POLocator/findLocations", "@spider": "usps_collection_boxes", "addr:city": "OBRIEN", "addr:country": "US", "addr:postcode": "97534", "addr:state": "OR", "addr:street_address": "33096 REDWOOD HWY", "amenity": "post_box", "collection_times": "Mo-Fr 14:45; Sa 11:00", "note": "ON 12/24 AND 12/31, THIS BOX MAY BE COLLECTED AS EARLY AS 12 NOON.", "nsi_id": "unitedstatespostalservice-a77078", "operator": "United States Postal Service", "operator:short": "USPS", "operator:type": "public", "operator:wikidata": "Q668687", "ref": "9753400000"}, "type": "Feature"}
{"geometry": {"coordinates": [-123.703916, 42.066411], "type": "Point"}, "id": "T22oKhNA7qt-Qe7MR1gtOLvCONA=", "properties": {"@source_uri": "https://tools.usps.com/UspsToolsRestServices/rest/POLocator/findLocations", "@spider": "usps_collection_boxes", "addr:city": "OBRIEN", "addr:country": "US", "addr:postcode": "97534", "addr:state": "OR", "addr:street_address": "33096 REDWOOD HWY", "amenity": "post_box", "collection_times": "Mo-Fr 14:00; Sa 10:30", "indoor": "yes", "note": "ON 12/24 AND 12/31, THIS BOX MAY BE COLLECTED AS EARLY AS 12 NOON.", "nsi_id": "unitedstatespostalservice-a77078", "operator": "United States Postal Service", "operator:short": "USPS", "operator:type": "public", "operator:wikidata": "Q668687", "ref": "9753400001"}, "type": "Feature"}
{"geometry": {"coordinates": [-123.703506014, 42.066937927], "type": "Point"}, "id": "lZ0bNNg9hk6wypbYErPL0armxRM=", "properties": {"@source_uri": "https://tools.usps.com/UspsToolsRestServices/rest/POLocator/findLocations", "@spider": "usps_collection_boxes", "addr:city": "OBRIEN", "addr:country": "US", "addr:postcode": "97534", "addr:state": "OR", "addr:street_address": "33096 REDWOOD HWY", "amenity": "post_box", "collection_times": "Mo-Fr 14:00", "indoor": "yes", "note": "ON 12/24 AND 12/31, THIS BOX MAY BE COLLECTED AS EARLY AS 12 NOON.", "nsi_id": "unitedstatespostalservice-a77078", "operator": "United States Postal Service", "operator:short": "USPS", "operator:type": "public", "operator:wikidata": "Q668687", "ref": "9753400002"}, "type": "Feature"}
{"geometry": {"coordinates": [-122.820589, 42.278575], "type": "Point"}, "id": "spUPzvePE4geLoniP1LEpI8cv8g=", "properties": {"@source_uri": "https://tools.usps.com/UspsToolsRestServices/rest/POLocator/findLocations", "@spider": "usps_collection_boxes", "addr:city": "PHOENIX", "addr:country": "US", "addr:postcode": "97535", "addr:state": "OR", "addr:street_address": "105 W BOLZ RD", "amenity": "post_box", "collection_times": "Mo-Fr 16:30; Sa 11:45", "note": "ON 12/24 AND 12/31, THIS BOX MAY BE COLLECTED AS EARLY AS 12 NOON.", "nsi_id": "unitedstatespostalservice-a77078", "operator": "United States Postal Service", "operator:short": "USPS", "operator:type": "public", "operator:wikidata": "Q668687", "ref": "9753500000"}, "type": "Feature"}
{"geometry": {"coordinates": [-122.820536, 42.278651], "type": "Point"}, "id": "tIRrDzNc0oRD2LgOdme-lJLCH0o=", "properties": {"@source_uri": "https://tools.usps.com/UspsToolsRestServices/rest/POLocator/findLocations", "@spider": "usps_collection_boxes", "addr:city": "PHOENIX", "addr:country": "US", "addr:postcode": "97535", "addr:state": "OR", "addr:street_address": "105 W BOLZ RD", "amenity": "post_box", "collection_times": "Mo-Fr 17:00; Sa 10:00", "indoor": "yes", "note": "ON 12/24 AND 12/31, THIS BOX MAY BE COLLECTED AS EARLY AS 12 NOON.", "nsi_id": "unitedstatespostalservice-a77078", "operator": "United States Postal Service", "operator:short": "USPS", "operator:type": "public", "operator:wikidata": "Q668687", "ref": "9753500001"}, "type": "Feature"}
{"geometry": {"coordinates": [-122.821126452, 42.278178775], "type": "Point"}, "id": "OdxKeyhenUS74WBKmHU25uNmvfs=", "properties": {"@source_uri": "https://tools.usps.com/UspsToolsRestServices/rest/POLocator/findLocations", "@spider": "usps_collection_boxes", "addr:city": "PHOENIX", "addr:country": "US", "addr:postcode": "97535", "addr:state": "OR", "addr:street_address": "105 W BOLZ RD", "amenity": "post_box", "collection_times": "Mo-Fr 17:00", "indoor": "yes", "note": "ON 12/24 AND 12/31, THIS BOX MAY BE COLLECTED AS EARLY AS 12 NOON.", "nsi_id": "unitedstatespostalservice-a77078", "operator": "United States Postal Service", "operator:short": "USPS", "operator:type": "public", "operator:wikidata": "Q668687", "ref": "9753500003"}, "type": "Feature"}
{"geometry": {"coordinates": [-122.488722, 42.752068], "type": "Point"}, "id": "nKrduYL7g1vjGjmqYTbAMBCwd0M=", "properties": {"@source_uri": "https://tools.usps.com/UspsToolsRestServices/rest/POLocator/findLocations", "@spider": "usps_collection_boxes", "addr:city": "PROSPECT", "addr:country": "US", "addr:postcode": "97536", "addr:state": "OR", "addr:street_address": "291 MILL CREEK DR", "amenity": "post_box", "collection_times": "Mo-Fr 13:15; Sa 10:45", "indoor": "yes", "note": "ON 12/24 AND 12/31, THIS BOX MAY BE COLLECTED AS EARLY AS 12 NOON.", "nsi_id": "unitedstatespostalservice-a77078", "operator": "United States Postal Service", "operator:short": "USPS", "operator:type": "public", "operator:wikidata": "Q668687", "ref": "9753600000"}, "type": "Feature"}
{"geometry": {"coordinates": [-122.488636, 42.752058], "type": "Point"}, "id": "XZK_DRdi6g3OVT0rVlK-Ei7exOE=", "properties": {"@source_uri": "https://tools.usps.com/UspsToolsRestServices/rest/POLocator/findLocations", "@spider": "usps_collection_boxes", "addr:city": "PROSPECT", "addr:country": "US", "addr:postcode": "97536", "addr:state": "OR", "addr:street_address": "291 MILL CREEK DR", "amenity": "post_box", "collection_times": "Mo-Fr 13:15; Sa 10:45", "note": "ON 12/24 AND 12/31, THIS BOX MAY BE COLLECTED AS EARLY AS 12 NOON.", "nsi_id": "unitedstatespostalservice-a77078", "operator": "United States Postal Service", "operator:short": "USPS", "operator:type": "public", "operator:wikidata": "Q668687", "ref": "9753600001"}, "type": "Feature"}
{"geometry": {"coordinates": [-122.488724663, 42.752050156], "type": "Point"}, "id": "KOaJ7tzpeco4_8A_p9ZwyHRDdDQ=", "properties": {"@source_uri": "https://tools.usps.com/UspsToolsRestServices/rest/POLocator/findLocations", "@spider": "usps_collection_boxes", "addr:city": "PROSPECT", "addr:country": "US", "addr:postcode": "97536", "addr:state": "OR", "addr:street_address": "291 MILL CREEK DR", "amenity": "post_box", "collection_times": "Mo-Fr 13:30", "indoor": "yes", "note": "ON 12/24 AND 12/31, THIS BOX MAY BE COLLECTED AS EARLY AS 12 NOON.", "nsi_id": "unitedstatespostalservice-a77078", "operator": "United States Postal Service", "operator:short": "USPS", "operator:type": "public", "operator:wikidata": "Q668687", "ref": "9753600003"}, "type": "Feature"}
{"geometry": {"coordinates": [-123.163312, 42.432736], "type": "Point"}, "id": "okuriWx69bH8-KaLWHF0KEodM50=", "properties": {"@source_uri": "https://tools.usps.com/UspsToolsRestServices/rest/POLocator/findLocations", "@spider": "usps_collection_boxes", "addr:city": "ROGUE RIVER", "addr:country": "US", "addr:postcode": "97537", "addr:state": "OR", "addr:street_address": "522 E MAIN ST", "amenity": "post_box", "collection_times": "Mo-Fr 16:45; Sa 12:00", "indoor": "yes", "note": "ON 12/24 AND 12/31, THIS BOX MAY BE COLLECTED AS EARLY AS 12 NOON.", "nsi_id": "unitedstatespostalservice-a77078", "operator": "United States Postal Service", "operator:short": "USPS", "operator:type": "public", "operator:wikidata": "Q668687", "ref": "9753700001"}, "type": "Feature"}
{"geometry": {"coordinates": [-123.163312, 42.432736], "type": "Point"}, "id": "fKMmxuQJt-RyxzPyJWibrX9YIVQ=", "properties": {"@source_uri": "https://tools.usps.com/UspsToolsRestServices/rest/POLocator/findLocations", "@spider": "usps_collection_boxes", "addr:city": "ROGUE RIVER", "addr:country": "US", "addr:postcode": "97537", "addr:state": "OR", "addr:street_address": "522 E MAIN ST", "amenity": "post_box", "collection_times": "Mo-Fr 16:45; Sa 12:00", "indoor": "yes", "note": "ON 12/24 AND 12/31, THIS BOX MAY BE COLLECTED AS EARLY AS 12 NOON.", "nsi_id": "unitedstatespostalservice-a77078", "operator": "United States Postal Service", "operator:short": "USPS", "operator:type": "public", "operator:wikidata": "Q668687", "ref": "9753700002"}, "type": "Feature"}
{"geometry": {"coordinates": [-123.163312, 42.432736], "type": "Point"}, "id": "gIYd7hJgtJKp_Mh9TLhCUaZURRg=", "properties": {"@source_uri": "https://tools.usps.com/UspsToolsRestServices/rest/POLocator/findLocations", "@spider": "usps_collection_boxes", "addr:city": "ROGUE RIVER", "addr:country": "US", "addr:postcode": "97537", "addr:state": "OR", "addr:street_address": "522 E MAIN ST", "amenity": "post_box", "collection_times": "Mo-Fr 16:45; Sa 12:00", "note": "ON 12/24 AND 12/31, THIS BOX MAY BE COLLECTED AS EARLY AS 12 NOON.", "nsi_id": "unitedstatespostalservice-a77078", "operator": "United States Postal Service", "operator:short": "USPS", "operator:type": "public", "operator:wikidata": "Q668687", "ref": "9753700003"}, "type": "Feature"}
{"geometry": {"coordinates": [-123.151849, 42.538707], "type": "Point"}, "id": "cwPJ7m8q10cCUw0R33R8wDVLYYM=", "properties": {"@source_uri": "https://tools.usps.com/UspsToolsRestServices/rest/POLocator/findLocations", "@spider": "usps_collection_boxes", "addr:city": "ROGUE RIVER", "addr:country": "US", "addr:postcode": "97537", "addr:state": "OR", "addr:street_address": "8677 E EVANS CREEK RD", "amenity": "post_box", "collection_times": "Mo-Sa 12:00", "nsi_id": "unitedstatespostalservice-a77078", "operator": "United States Postal Service", "operator:short": "USPS", "operator:type": "public", "operator:wikidata": "Q668687", "ref": "9753700005"}, "type": "Feature"}
{"geometry": {"coordinates": [-123.162804879, 42.432649563], "type": "Point"}, "id": "w0rZOblfzutgQ_9QkYEJ2VLsGRg=", "properties": {"@source_uri": "https://tools.usps.com/UspsToolsRestServices/rest/POLocator/findLocations", "@spider": "usps_collection_boxes", "addr:city": "ROGUE RIVER", "addr:country": "US", "addr:postcode": "97537", "addr:state": "OR", "addr:street_address": "522 E MAIN ST", "amenity": "post_box", "collection_times": "Mo-Fr 16:45", "indoor": "yes", "note": "ON 12/24 AND 12/31, THIS BOX MAY BE COLLECTED AS EARLY AS 12 NOON.", "nsi_id": "unitedstatespostalservice-a77078", "operator": "United States Postal Service", "operator:short": "USPS", "operator:type": "public", "operator:wikidata": "Q668687", "ref": "9753700006"}, "type": "Feature"}
{"geometry": {"coordinates": [-123.6165259609, 42.2796320134], "type": "Point"}, "id": "3IB7jmZnytkg_mQBwC63e1cPXdQ=", "properties": {"@source_uri": "https://tools.usps.com/UspsToolsRestServices/rest/POLocator/findLocations", "@spider": "usps_collection_boxes", "addr:city": "SELMA", "addr:country": "US", "addr:postcode": "97538", "addr:state": "OR", "addr:street_address": "18398 REDWOOD HWY", "amenity": "post_box", "collection_times": "Mo-Fr 16:15; Sa 10:00", "note": "ON 12/24 AND 12/31, THIS BOX MAY BE COLLECTED AS EARLY AS 12 NOON.", "nsi_id": "unitedstatespostalservice-a77078", "operator": "United States Postal Service", "operator:short": "USPS", "operator:type": "public", "operator:wikidata": "Q668687", "ref": "9753800000"}, "type": "Feature"}
{"geometry": {"coordinates": [-123.6165259609, 42.2796320134], "type": "Point"}, "id": "-FA-gI8OT_EKBlgqlFfoJQlkgy8=", "properties": {"@source_uri": "https://tools.usps.com/UspsToolsRestServices/rest/POLocator/findLocations", "@spider": "usps_collection_boxes", "addr:city": "SELMA", "addr:country": "US", "addr:postcode": "97538", "addr:state": "OR", "addr:street_address": "18398 REDWOOD HWY", "amenity": "post_box", "collection_times": "Mo-Fr 16:00; Sa 10:00", "indoor": "yes", "note": "ON 12/24 AND 12/31, THIS BOX MAY BE COLLECTED AS EARLY AS 12 NOON.", "nsi_id": "unitedstatespostalservice-a77078", "operator": "United States Postal Service", "operator:short": "USPS", "operator:type": "public", "operator:wikidata": "Q668687", "ref": "9753800001"}, "type": "Feature"}
{"geometry": {"coordinates": [-123.6165259609, 42.2796320134], "type": "Point"}, "id": "yA8EvXMoYGBjiDRgcUYUff_qy5A=", "properties": {"@source_uri": "https://tools.usps.com/UspsToolsRestServices/rest/POLocator/findLocations", "@spider": "usps_collection_boxes", "addr:city": "SELMA", "addr:country": "US", "addr:postcode": "97538", "addr:state": "OR", "addr:street_address": "18398 REDWOOD HWY", "amenity": "post_box", "collection_times": "Mo-Fr 16:00", "indoor": "yes", "note": "ON 12/24 AND 12/31, THIS BOX MAY BE COLLECTED AS EARLY AS 12 NOON.", "nsi_id": "unitedstatespostalservice-a77078", "operator": "United States Postal Service", "operator:short": "USPS", "operator:type": "public", "operator:wikidata": "Q668687", "ref": "9753800002"}, "type": "Feature"}
{"geometry": {"coordinates": [-122.81149, 42.619441], "type": "Point"}, "id": "snBH_xVksiY3ePc-u_jeULDRbZ4=", "properties": {"@source_uri": "https://tools.usps.com/UspsToolsRestServices/rest/POLocator/findLocations", "@spider": "usps_collection_boxes", "addr:city": "SHADY COVE", "addr:country": "US", "addr:postcode": "97539", "addr:state": "OR", "addr:street_address": "81 WILLIAMS LN", "amenity": "post_box", "collection_times": "Mo-Fr 15:30; Sa 10:30", "indoor": "yes", "note": "ON 12/24 AND 12/31, THIS BOX MAY BE COLLECTED AS EARLY AS 12 NOON.", "nsi_id": "unitedstatespostalservice-a77078", "operator": "United States Postal Service", "operator:short": "USPS", "operator:type": "public", "operator:wikidata": "Q668687", "ref": "9753900000"}, "type": "Feature"}
{"geometry": {"coordinates": [-122.81149, 42.619441], "type": "Point"}, "id": "mwJ2VN0Tu0y_J0Ck4ceYwW-PbTs=", "properties": {"@source_uri": "https://tools.usps.com/UspsToolsRestServices/rest/POLocator/findLocations", "@spider": "usps_collection_boxes", "addr:city": "SHADY COVE", "addr:country": "US", "addr:postcode": "97539", "addr:state": "OR", "addr:street_address": "81 WILLIAMS LN", "amenity": "post_box", "collection_times": "Mo-Fr 15:00; Sa 10:30", "note": "ON 12/24 AND 12/31, THIS BOX MAY BE COLLECTED AS EARLY AS 12 NOON.", "nsi_id": "unitedstatespostalservice-a77078", "operator": "United States Postal Service", "operator:short": "USPS", "operator:type": "public", "operator:wikidata": "Q668687", "ref": "9753900001"}, "type": "Feature"}
{"geometry": {"coordinates": [-122.8114935, 42.619441507], "type": "Point"}, "id": "9_jYPWie2fSV1RAlECTPRgqGfDk=", "properties": {"@source_uri": "https://tools.usps.com/UspsToolsRestServices/rest/POLocator/findLocations", "@spider": "usps_collection_boxes", "addr:city": "SHADY COVE", "addr:country": "US", "addr:postcode": "97539", "addr:state": "OR", "addr:street_address": "81 WILLIAMS LN", "amenity": "post_box", "collection_times": "Mo-Fr 16:00", "indoor": "yes", "note": "ON 12/24 AND 12/31, THIS BOX MAY BE COLLECTED AS EARLY AS 12 NOON.", "nsi_id": "unitedstatespostalservice-a77078", "operator": "United States Postal Service", "operator:short": "USPS", "operator:type": "public", "operator:wikidata": "Q668687", "ref": "9753900002"}, "type": "Feature"}
{"geometry": {"coordinates": [-122.787631, 42.24304], "type": "Point"}, "id": "tI3cBH_Pkmhu81Kj6qRKjv6YQs8=", "properties": {"@source_uri": "https://tools.usps.com/UspsToolsRestServices/rest/POLocator/findLocations", "@spider": "usps_collection_boxes", "addr:city": "TALENT", "addr:country": "US", "addr:postcode": "97540", "addr:state": "OR", "addr:street_address": "153 E WAGNER ST", "amenity": "post_box", "collection_times": "Mo-Fr 16:45; Sa 11:00", "note": "ON 12/24 AND 12/31, THIS BOX MAY BE COLLECTED AS EARLY AS 12 NOON.", "nsi_id": "unitedstatespostalservice-a77078", "operator": "United States Postal Service", "operator:short": "USPS", "operator:type": "public", "operator:wikidata": "Q668687", "ref": "9754000000"}, "type": "Feature"}
{"geometry": {"coordinates": [-122.787552, 42.243073], "type": "Point"}, "id": "OiP8YuUgYzcauDGkbpSwuZpG2Mo=", "properties": {"@source_uri": "https://tools.usps.com/UspsToolsRestServices/rest/POLocator/findLocations", "@spider": "usps_collection_boxes", "addr:city": "TALENT", "addr:country": "US", "addr:postcode": "97540", "addr:state": "OR", "addr:street_address": "153 E WAGNER ST", "amenity": "post_box", "collection_times": "Mo-Fr 16:45; Sa 11:00", "indoor": "yes", "note": "ON 12/24 AND 12/31, THIS BOX MAY BE COLLECTED AS EARLY AS 12 NOON.", "nsi_id": "unitedstatespostalservice-a77078", "operator": "United States Postal Service", "operator:short": "USPS", "operator:type": "public", "operator:wikidata": "Q668687", "ref": "9754000001"}, "type": "Feature"}
{"geometry": {"coordinates": [-122.787552, 42.243073], "type": "Point"}, "id": "zQXAnJUq7aLdZHGoZckuqPbJ6yo=", "properties": {"@source_uri": "https://tools.usps.com/UspsToolsRestServices/rest/POLocator/findLocations", "@spider": "usps_collection_boxes", "addr:city": "TALENT", "addr:country": "US", "addr:postcode": "97540", "addr:state": "OR", "addr:street_address": "153 E WAGNER ST", "amenity": "post_box", "collection_times": "Mo-Fr 16:45; Sa 11:00", "indoor": "yes", "note": "ON 12/24 AND 12/31, THIS BOX MAY BE COLLECTED AS EARLY AS 12 NOON.", "nsi_id": "unitedstatespostalservice-a77078", "operator": "United States Postal Service", "operator:short": "USPS", "operator:type": "public", "operator:wikidata": "Q668687", "ref": "9754000002"}, "type": "Feature"}
{"geometry": {"coordinates": [-122.787769702, 42.242923277], "type": "Point"}, "id": "S09TMErm-reO4RpipoZGFQf3mrY=", "properties": {"@source_uri": "https://tools.usps.com/UspsToolsRestServices/rest/POLocator/findLocations", "@spider": "usps_collection_boxes", "addr:city": "TALENT", "addr:country": "US", "addr:postcode": "97540", "addr:state": "OR", "addr:street_address": "153 E WAGNER ST", "amenity": "post_box", "collection_times": "Mo-Fr 17:00", "indoor": "yes", "note": "ON 12/24 AND 12/31, THIS BOX MAY BE COLLECTED AS EARLY AS 12 NOON.", "nsi_id": "unitedstatespostalservice-a77078", "operator": "United States Postal Service", "operator:short": "USPS", "operator:type": "public", "operator:wikidata": "Q668687", "ref": "9754000003"}, "type": "Feature"}
{"geometry": {"coordinates": [-122.811586, 42.647928], "type": "Point"}, "id": "6asY84cUZz-J4I-lrV0BF1DpRBw=", "properties": {"@source_uri": "https://tools.usps.com/UspsToolsRestServices/rest/POLocator/findLocations", "@spider": "usps_collection_boxes", "addr:city": "TRAIL", "addr:country": "US", "addr:postcode": "97541", "addr:state": "OR", "addr:street_address": "100 OLD HIGHWAY 62", "amenity": "post_box", "collection_times": "Mo-Fr 11:45; Sa 10:15", "nsi_id": "unitedstatespostalservice-a77078", "operator": "United States Postal Service", "operator:short": "USPS", "operator:type": "public", "operator:wikidata": "Q668687", "ref": "9754100000"}, "type": "Feature"}
{"geometry": {"coordinates": [-122.811586, 42.647928], "type": "Point"}, "id": "WWzQP88owiFXNMJDvpF0AnSNk9k=", "properties": {"@source_uri": "https://tools.usps.com/UspsToolsRestServices/rest/POLocator/findLocations", "@spider": "usps_collection_boxes", "addr:city": "TRAIL", "addr:country": "US", "addr:postcode": "97541", "addr:state": "OR", "addr:street_address": "100 OLD HIGHWAY 62", "amenity": "post_box", "collection_times": "Mo-Fr 11:45; Sa 10:15", "indoor": "yes", "nsi_id": "unitedstatespostalservice-a77078", "operator": "United States Postal Service", "operator:short": "USPS", "operator:type": "public", "operator:wikidata": "Q668687", "ref": "9754100001"}, "type": "Feature"}
{"geometry": {"coordinates": [-122.811589515, 42.647929463], "type": "Point"}, "id": "AMp0KfctYvSvvE-rgXEeUNNDU1w=", "properties": {"@source_uri": "https://tools.usps.com/UspsToolsRestServices/rest/POLocator/findLocations", "@spider": "usps_collection_boxes", "addr:city": "TRAIL", "addr:country": "US", "addr:postcode": "97541", "addr:state": "OR", "addr:street_address": "100 OLD HIGHWAY 62", "amenity": "post_box", "collection_times": "Mo-Fr 12:00", "indoor": "yes", "nsi_id": "unitedstatespostalservice-a77078", "operator": "United States Postal Service", "operator:short": "USPS", "operator:type": "public", "operator:wikidata": "Q668687", "ref": "9754100002"}, "type": "Feature"}
{"geometry": {"coordinates": [-123.479249, 42.383291], "type": "Point"}, "id": "8zBzf8AivPpck8Vm9cLrH1QCugo=", "properties": {"@source_uri": "https://tools.usps.com/UspsToolsRestServices/rest/POLocator/findLocations", "@spider": "usps_collection_boxes", "addr:city": "SELMA", "addr:country": "US", "addr:postcode": "97543", "addr:state": "OR", "addr:street_address": "7845 REDWOOD HWY", "amenity": "post_box", "collection_times": "Mo-Sa 15:30", "note": "ON 12/24 AND 12/31, THIS BOX MAY BE COLLECTED AS EARLY AS 12 NOON.", "nsi_id": "unitedstatespostalservice-a77078", "operator": "United States Postal Service", "operator:short": "USPS", "operator:type": "public", "operator:wikidata": "Q668687", "ref": "9754300001"}, "type": "Feature"}
{"geometry": {"coordinates": [-123.529891641, 42.363506663], "type": "Point"}, "id": "DGT5AwtI0GlCvv8QHSQ8iQqJRqg=", "properties": {"@source_uri": "https://tools.usps.com/UspsToolsRestServices/rest/POLocator/findLocations", "@spider": "usps_collection_boxes", "addr:city": "SELMA", "addr:country": "US", "addr:postcode": "97543", "addr:state": "OR", "addr:street_address": "11465 REDWOOD HWY", "amenity": "post_box", "collection_times": "Mo-Sa 09:30", "nsi_id": "unitedstatespostalservice-a77078", "operator": "United States Postal Service", "operator:short": "USPS", "operator:type": "public", "operator:wikidata": "Q668687", "ref": "9754300002"}, "type": "Feature"}
{"geometry": {"coordinates": [-123.269319, 42.225071], "type": "Point"}, "id": "U87CFtD9vKozj5AO5mRSjlPXCrc=", "properties": {"@source_uri": "https://tools.usps.com/UspsToolsRestServices/rest/POLocator/findLocations", "@spider": "usps_collection_boxes", "addr:city": "WILLIAMS", "addr:country": "US", "addr:postcode": "97544", "addr:state": "OR", "addr:street_address": "20160 WILLIAMS HWY", "amenity": "post_box", "collection_times": "Mo-Fr 15:15; Sa 10:00", "note": "ON 12/24 AND 12/31, THIS BOX MAY BE COLLECTED AS EARLY AS 12 NOON.", "nsi_id": "unitedstatespostalservice-a77078", "operator": "United States Postal Service", "operator:short": "USPS", "operator:type": "public", "operator:wikidata": "Q668687", "ref": "9754400000"}, "type": "Feature"}
{"geometry": {"coordinates": [-123.269319, 42.225071], "type": "Point"}, "id": "sbgmvqJiTRusH0Re95G2QpDIvG0=", "properties": {"@source_uri": "https://tools.usps.com/UspsToolsRestServices/rest/POLocator/findLocations", "@spider": "usps_collection_boxes", "addr:city": "WILLIAMS", "addr:country": "US", "addr:postcode": "97544", "addr:state": "OR", "addr:street_address": "20160 WILLIAMS HWY", "amenity": "post_box", "collection_times": "Mo-Fr 15:00", "indoor": "yes", "note": "ON 12/24 AND 12/31, THIS BOX MAY BE COLLECTED AS EARLY AS 12 NOON.", "nsi_id": "unitedstatespostalservice-a77078", "operator": "United States Postal Service", "operator:short": "USPS", "operator:type": "public", "operator:wikidata": "Q668687", "ref": "9754400001"}, "type": "Feature"}
{"geometry": {"coordinates": [-123.269256623, 42.225371235], "type": "Point"}, "id": "4wvmr322t7wQ0V-S3Wel5356Qbo=", "properties": {"@source_uri": "https://tools.usps.com/UspsToolsRestServices/rest/POLocator/findLocations", "@spider": "usps_collection_boxes", "addr:city": "WILLIAMS", "addr:country": "US", "addr:postcode": "97544", "addr:state": "OR", "addr:street_address": "20160 WILLIAMS HWY", "amenity": "post_box", "collection_times": "Mo-Fr 15:00", "indoor": "yes", "note": "ON 12/24 AND 12/31, THIS BOX MAY BE COLLECTED AS EARLY AS 12 NOON.", "nsi_id": "unitedstatespostalservice-a77078", "operator": "United States Postal Service", "operator:short": "USPS", "operator:type": "public", "operator:wikidata": "Q668687", "ref": "9754400002"}, "type": "Feature"}
