{"geometry": {"coordinates": [-121.780401, 42.222392], "type": "Point"}, "id": "6b_rPjqoCRk_30LG2qDVY4ABmyQ=", "properties": {"@source_uri": "https://tools.usps.com/UspsToolsRestServices/rest/POLocator/findLocations", "@spider": "usps_collection_boxes", "addr:city": "KLAMATH FALLS", "addr:country": "US", "addr:postcode": "97601", "addr:state": "OR", "addr:street_address": "422 S 5TH ST", "amenity": "post_box", "collection_times": "Mo-Sa 15:30", "note": "ON 12/24 AND 12/31, THIS BOX MAY BE COLLECTED AS EARLY AS 12 NOON.", "nsi_id": "unitedstatespostalservice-a77078", "operator": "United States Postal Service", "operator:short": "USPS", "operator:type": "public", "operator:wikidata": "Q668687", "ref": "9760100026"}, "type": "Feature"}
{"geometry": {"coordinates": [-121.782487819, 42.224751384], "type": "Point"}, "id": "AIeqtTHsGjahbNIH5P1bPIlQuW8=", "properties": {"@source_uri": "https://tools.usps.com/UspsToolsRestServices/rest/POLocator/findLocations", "@spider": "usps_collection_boxes", "addr:city": "KLAMATH FALLS", "addr:country": "US", "addr:postcode": "97601", "addr:state": "OR", "addr:street_address": "600 MAIN ST", "amenity": "post_box", "collection_times": "Mo-Fr 15:30; Sa 15:15", "note": "ON 12/24 AND 12/31, THIS BOX MAY BE COLLECTED AS EARLY AS 12 NOON.", "nsi_id": "unitedstatespostalservice-a77078", "operator": "United States Postal Service", "operator:short": "USPS", "operator:type": "public", "operator:wikidata": "Q668687", "ref": "9760100029"}, "type": "Feature"}
{"geometry": {"coordinates": [-121.788195, 42.249029], "type": "Point"}, "id": "dXJuTrUqPS5p2UG6gnEMdjzblFg=", "properties": {"@source_uri": "https://tools.usps.com/UspsToolsRestServices/rest/POLocator/findLocations", "@spider": "usps_collection_boxes", "addr:city": "KLAMATH FALLS", "addr:country": "US", "addr:postcode": "97601", "addr:state": "OR", "addr:street_address": "2227 N ELDORADO AVE", "amenity": "post_box", "collection_times": "Mo-Fr 15:15; Sa 15:00", "note": "ON 12/24 AND 12/31, THIS BOX MAY BE COLLECTED AS EARLY AS 12 NOON.", "nsi_id": "unitedstatespostalservice-a77078", "operator": "United States Postal Service", "operator:short": "USPS", "operator:type": "public", "operator:wikidata": "Q668687", "ref": "9760100037"}, "type": "Feature"}
{"geometry": {"coordinates": [-121.779511, 42.224358], "type": "Point"}, "id": "oG4hytdKGzuWFOmDYnYL_6GiqdA=", "properties": {"@source_uri": "https://tools.usps.com/UspsToolsRestServices/rest/POLocator/findLocations", "@spider": "usps_collection_boxes", "addr:city": "KLAMATH FALLS", "addr:country": "US", "addr:postcode": "97601", "addr:state": "OR", "addr:street_address": "317 S 7TH ST", "amenity": "post_box", "collection_times": "Mo-Fr 17:00; Sa 16:30", "note": "ON 12/24 AND 12/31, THIS BOX MAY BE COLLECTED AS EARLY AS 12 NOON.", "nsi_id": "unitedstatespostalservice-a77078", "operator": "United States Postal Service", "operator:short": "USPS", "operator:type": "public", "operator:wikidata": "Q668687", "ref": "9760100040"}, "type": "Feature"}
{"geometry": {"coordinates": [-121.781242, 42.226088], "type": "Point"}, "id": "cGHsqGCvUu88ufYXnz28JL-DM4w=", "properties": {"@source_uri": "https://tools.usps.com/UspsToolsRestServices/rest/POLocator/findLocations", "@spider": "usps_collection_boxes", "addr:city": "KLAMATH FALLS", "addr:country": "US", "addr:postcode": "97601", "addr:state": "OR", "addr:street_address": "800 MAIN ST", "amenity": "post_box", "collection_times": "Mo-Fr 15:30; Sa 15:15", "note": "ON 12/24 AND 12/31, THIS BOX MAY BE COLLECTED AS EARLY AS 12 NOON.", "nsi_id": "unitedstatespostalservice-a77078", "operator": "United States Postal Service", "operator:short": "USPS", "operator:type": "public", "operator:wikidata": "Q668687", "ref": "9760100060"}, "type": "Feature"}
{"geometry": {"coordinates": [-121.786817, 42.252523], "type": "Point"}, "id": "_Ea5WZ1B8ags3VnpIVHgHWc2PAc=", "properties": {"@source_uri": "https://tools.usps.com/UspsToolsRestServices/rest/POLocator/findLocations", "@spider": "usps_collection_boxes", "addr:city": "KLAMATH FALLS", "addr:country": "US", "addr:postcode": "97601", "addr:state": "OR", "addr:street_address": "2865 DAGGETT AVE", "amenity": "post_box", "collection_times": "Mo-Fr 15:15; Sa 15:00", "note": "ON 12/24 AND 12/31, THIS BOX MAY BE COLLECTED AS EARLY AS 12 NOON.", "nsi_id": "unitedstatespostalservice-a77078", "operator": "United States Postal Service", "operator:short": "USPS", "operator:type": "public", "operator:wikidata": "Q668687", "ref": "9760100077"}, "type": "Feature"}
{"geometry": {"coordinates": [-121.779926, 42.227115], "type": "Point"}, "id": "Sjm0wyDvNMWcUzgVqMooradqHMg=", "properties": {"@source_uri": "https://tools.usps.com/UspsToolsRestServices/rest/POLocator/findLocations", "@spider": "usps_collection_boxes", "addr:city": "KLAMATH FALLS", "addr:country": "US", "addr:postcode": "97601", "addr:state": "OR", "addr:street_address": "900 MAIN ST", "amenity": "post_box", "collection_times": "Mo-Fr 15:30; Sa 15:15", "note": "ON 12/24 AND 12/31, THIS BOX MAY BE COLLECTED AS EARLY AS 12 NOON.", "nsi_id": "unitedstatespostalservice-a77078", "operator": "United States Postal Service", "operator:short": "USPS", "operator:type": "public", "operator:wikidata": "Q668687", "ref": "9760100088"}, "type": "Feature"}
{"geometry": {"coordinates": [-121.779511, 42.224358], "type": "Point"}, "id": "jw8K2YIHcwgKflkliWy1Mxc2aEc=", "properties": {"@source_uri": "https://tools.usps.com/UspsToolsRestServices/rest/POLocator/findLocations", "@spider": "usps_collection_boxes", "addr:city": "KLAMATH FALLS", "addr:country": "US", "addr:postcode": "97601", "addr:state": "OR", "addr:street_address": "317 S 7TH ST", "amenity": "post_box", "collection_times": "Mo-Fr 17:00; Sa 16:30", "indoor": "yes", "note": "ON 12/24 AND 12/31, THIS BOX MAY BE COLLECTED AS EARLY AS 12 NOON.", "nsi_id": "unitedstatespostalservice-a77078", "operator": "United States Postal Service", "operator:short": "USPS", "operator:type": "public", "operator:wikidata": "Q668687", "ref": "9760100089"}, "type": "Feature"}
{"geometry": {"coordinates": [-121.782044, 42.22317], "type": "Point"}, "id": "agh_3WvveB5qVzoHhA9HdMREKFM=", "properties": {"@source_uri": "https://tools.usps.com/UspsToolsRestServices/rest/POLocator/findLocations", "@spider": "usps_collection_boxes", "addr:city": "KLAMATH FALLS", "addr:country": "US", "addr:postcode": "97601", "addr:state": "OR", "addr:street_address": "224 S 5TH ST", "amenity": "post_box", "collection_times": "Mo-Sa 15:30", "note": "ON 12/24 AND 12/31, THIS BOX MAY BE COLLECTED AS EARLY AS 12 NOON.", "nsi_id": "unitedstatespostalservice-a77078", "operator": "United States Postal Service", "operator:short": "USPS", "operator:type": "public", "operator:wikidata": "Q668687", "ref": "9760100090"}, "type": "Feature"}
{"geometry": {"coordinates": [-121.779511, 42.224358], "type": "Point"}, "id": "8AkAqN2fWSlf4Q_Ksam6KlvcDb0=", "properties": {"@source_uri": "https://tools.usps.com/UspsToolsRestServices/rest/POLocator/findLocations", "@spider": "usps_collection_boxes", "addr:city": "KLAMATH FALLS", "addr:country": "US", "addr:postcode": "97601", "addr:state": "OR", "addr:street_address": "317 S 7TH ST", "amenity": "post_box", "collection_times": "Mo-Fr 17:00; Sa 16:30", "name": "USPS COLLECTION BOX - APC", "note": "ON 12/24 AND 12/31, THIS BOX MAY BE COLLECTED AS EARLY AS 12 NOON.", "nsi_id": "unitedstatespostalservice-a77078", "operator": "United States Postal Service", "operator:short": "USPS", "operator:type": "public", "operator:wikidata": "Q668687", "ref": "9760100092"}, "type": "Feature"}
{"geometry": {"coordinates": [-121.779949022, 42.224353405], "type": "Point"}, "id": "RkMpmZFq7nCEsLsqi0_iSUNTd2Q=", "properties": {"@source_uri": "https://tools.usps.com/UspsToolsRestServices/rest/POLocator/findLocations", "@spider": "usps_collection_boxes", "addr:city": "KLAMATH FALLS", "addr:country": "US", "addr:postcode": "97601", "addr:state": "OR", "addr:street_address": "317 S 7TH ST", "amenity": "post_box", "collection_times": "Mo-Fr 17:00; Sa 12:00", "indoor": "yes", "note": "ON 12/24 AND 12/31, THIS BOX MAY BE COLLECTED AS EARLY AS 12 NOON.", "nsi_id": "unitedstatespostalservice-a77078", "operator": "United States Postal Service", "operator:short": "USPS", "operator:type": "public", "operator:wikidata": "Q668687", "ref": "9760100093"}, "type": "Feature"}
{"geometry": {"coordinates": [-121.7119916, 42.21291], "type": "Point"}, "id": "1uan-qmYQowV-LPp70BGRWtIcBQ=", "properties": {"@source_uri": "https://tools.usps.com/UspsToolsRestServices/rest/POLocator/findLocations", "@spider": "usps_collection_boxes", "addr:city": "KLAMATH FALLS", "addr:country": "US", "addr:postcode": "97603", "addr:state": "OR", "addr:street_address": "4331 S 6TH ST", "amenity": "post_box", "collection_times": "Mo-Sa 16:00", "note": "ON 12/24 AND 12/31, THIS BOX MAY BE COLLECTED AS EARLY AS 12 NOON.", "nsi_id": "unitedstatespostalservice-a77078", "operator": "United States Postal Service", "operator:short": "USPS", "operator:type": "public", "operator:wikidata": "Q668687", "ref": "9760300000"}, "type": "Feature"}
{"geometry": {"coordinates": [-121.7420651732, 42.2063318529], "type": "Point"}, "id": "LaIQ1HjfsM8yZ2fOvcDqr1EMie8=", "properties": {"@source_uri": "https://tools.usps.com/UspsToolsRestServices/rest/POLocator/findLocations", "@spider": "usps_collection_boxes", "addr:city": "KLAMATH FALLS", "addr:country": "US", "addr:postcode": "97603", "addr:state": "OR", "addr:street_address": "3834 S 6TH ST", "amenity": "post_box", "collection_times": "Mo-Sa 16:00", "note": "ON 12/24 AND 12/31, THIS BOX MAY BE COLLECTED AS EARLY AS 12 NOON.", "nsi_id": "unitedstatespostalservice-a77078", "operator": "United States Postal Service", "operator:short": "USPS", "operator:type": "public", "operator:wikidata": "Q668687", "ref": "9760300010"}, "type": "Feature"}
{"geometry": {"coordinates": [-121.743511, 42.21446], "type": "Point"}, "id": "0ANj2GeM3V5ExSxRINy5NQhylxU=", "properties": {"@source_uri": "https://tools.usps.com/UspsToolsRestServices/rest/POLocator/findLocations", "@spider": "usps_collection_boxes", "addr:city": "KLAMATH FALLS", "addr:country": "US", "addr:postcode": "97603", "addr:state": "OR", "addr:street_address": "3737 SHASTA WAY", "amenity": "post_box", "collection_times": "Mo-Fr 15:45", "note": "ON 12/24 AND 12/31, THIS BOX MAY BE COLLECTED AS EARLY AS 12 NOON.", "nsi_id": "unitedstatespostalservice-a77078", "operator": "United States Postal Service", "operator:short": "USPS", "operator:type": "public", "operator:wikidata": "Q668687", "ref": "9760300023"}, "type": "Feature"}
{"geometry": {"coordinates": [-121.757592, 42.199784], "type": "Point"}, "id": "ZrqLNThqyNdZ7jn4LG5v5KdzyPA=", "properties": {"@source_uri": "https://tools.usps.com/UspsToolsRestServices/rest/POLocator/findLocations", "@spider": "usps_collection_boxes", "addr:city": "KLAMATH FALLS", "addr:country": "US", "addr:postcode": "97603", "addr:state": "OR", "addr:street_address": "2972 WASHBURN WAY", "amenity": "post_box", "collection_times": "Mo-Fr 16:00; Sa 15:30", "note": "ON 12/24 AND 12/31, THIS BOX MAY BE COLLECTED AS EARLY AS 12 NOON.", "nsi_id": "unitedstatespostalservice-a77078", "operator": "United States Postal Service", "operator:short": "USPS", "operator:type": "public", "operator:wikidata": "Q668687", "ref": "9760300026"}, "type": "Feature"}
{"geometry": {"coordinates": [-121.720477, 42.205909], "type": "Point"}, "id": "Ia45L4h71O9G6L_gfTCTegEwiRY=", "properties": {"@source_uri": "https://tools.usps.com/UspsToolsRestServices/rest/POLocator/findLocations", "@spider": "usps_collection_boxes", "addr:city": "KLAMATH FALLS", "addr:country": "US", "addr:postcode": "97603", "addr:state": "OR", "addr:street_address": "5500 S 6TH ST", "amenity": "post_box", "collection_times": "Mo-Sa 16:00", "note": "ON 12/24 AND 12/31, THIS BOX MAY BE COLLECTED AS EARLY AS 12 NOON.", "nsi_id": "unitedstatespostalservice-a77078", "operator": "United States Postal Service", "operator:short": "USPS", "operator:type": "public", "operator:wikidata": "Q668687", "ref": "9760300028"}, "type": "Feature"}
{"geometry": {"coordinates": [-121.759822, 42.193044], "type": "Point"}, "id": "2Vviz4U_4dPRNDj3Pi-n8UjaQDQ=", "properties": {"@source_uri": "https://tools.usps.com/UspsToolsRestServices/rest/POLocator/findLocations", "@spider": "usps_collection_boxes", "addr:city": "KLAMATH FALLS", "addr:country": "US", "addr:postcode": "97603", "addr:state": "OR", "addr:street_address": "3600 WASHBURN WAY", "amenity": "post_box", "collection_times": "Mo-Fr 16:00; Sa 15:30", "note": "ON 12/24 AND 12/31, THIS BOX MAY BE COLLECTED AS EARLY AS 12 NOON.", "nsi_id": "unitedstatespostalservice-a77078", "operator": "United States Postal Service", "operator:short": "USPS", "operator:type": "public", "operator:wikidata": "Q668687", "ref": "9760300030"}, "type": "Feature"}
{"geometry": {"coordinates": [-121.753134, 42.209201], "type": "Point"}, "id": "9nHk5vbfc-OJuyiOb44HaWeOTng=", "properties": {"@source_uri": "https://tools.usps.com/UspsToolsRestServices/rest/POLocator/findLocations", "@spider": "usps_collection_boxes", "addr:city": "KLAMATH FALLS", "addr:country": "US", "addr:postcode": "97603", "addr:state": "OR", "addr:street_address": "2972 S 6TH ST", "amenity": "post_box", "collection_times": "Mo-Fr 16:00; Sa 15:45", "note": "ON 12/24 AND 12/31, THIS BOX MAY BE COLLECTED AS EARLY AS 12 NOON.", "nsi_id": "unitedstatespostalservice-a77078", "operator": "United States Postal Service", "operator:short": "USPS", "operator:type": "public", "operator:wikidata": "Q668687", "ref": "9760300032"}, "type": "Feature"}
{"geometry": {"coordinates": [-121.756392, 42.211947], "type": "Point"}, "id": "vqaTehwYQ9mmfX2N9tHKe65DKGo=", "properties": {"@source_uri": "https://tools.usps.com/UspsToolsRestServices/rest/POLocator/findLocations", "@spider": "usps_collection_boxes", "addr:city": "KLAMATH FALLS", "addr:country": "US", "addr:postcode": "97603", "addr:state": "OR", "addr:street_address": "2621 PERSHING WAY", "amenity": "post_box", "collection_times": "Mo-Fr 16:30; Sa 12:00", "note": "ON 12/24 AND 12/31, THIS BOX MAY BE COLLECTED AS EARLY AS 12 NOON.", "nsi_id": "unitedstatespostalservice-a77078", "operator": "United States Postal Service", "operator:short": "USPS", "operator:type": "public", "operator:wikidata": "Q668687", "ref": "9760300035"}, "type": "Feature"}
{"geometry": {"coordinates": [-119.8167779339, 42.1763507309], "type": "Point"}, "id": "YKftmDDcM_tWMv_sA3vmN8fM7zA=", "properties": {"@source_uri": "https://tools.usps.com/UspsToolsRestServices/rest/POLocator/findLocations", "@spider": "usps_collection_boxes", "addr:city": "ADEL", "addr:country": "US", "addr:postcode": "97620", "addr:state": "OR", "addr:street_address": "1 HIGHWAY 140 E", "amenity": "post_box", "collection_times": "Mo-Fr 13:00", "indoor": "yes", "note": "ON 12/24 AND 12/31, THIS BOX MAY BE COLLECTED AS EARLY AS 12 NOON.", "nsi_id": "unitedstatespostalservice-a77078", "operator": "United States Postal Service", "operator:short": "USPS", "operator:type": "public", "operator:wikidata": "Q668687", "ref": "9762000000"}, "type": "Feature"}
{"geometry": {"coordinates": [-120.045211064, 42.215201044], "type": "Point"}, "id": "sua1HiBXtZHDkS3Z-xhlD_v2JCI=", "properties": {"@source_uri": "https://tools.usps.com/UspsToolsRestServices/rest/POLocator/findLocations", "@spider": "usps_collection_boxes", "addr:city": "ADEL", "addr:country": "US", "addr:postcode": "97620", "addr:state": "OR", "addr:street_address": "1 HIGHWAY 140 E", "amenity": "post_box", "collection_times": "Mo-Fr 13:00", "indoor": "yes", "note": "ON 12/24 AND 12/31, THIS BOX MAY BE COLLECTED AS EARLY AS 12 NOON.", "nsi_id": "unitedstatespostalservice-a77078", "operator": "United States Postal Service", "operator:short": "USPS", "operator:type": "public", "operator:wikidata": "Q668687", "ref": "9762000002"}, "type": "Feature"}
{"geometry": {"coordinates": [-121.27098, 42.442636], "type": "Point"}, "id": "iuoKTJeQzPWVibCABuG4MhLQhJ0=", "properties": {"@source_uri": "https://tools.usps.com/UspsToolsRestServices/rest/POLocator/findLocations", "@spider": "usps_collection_boxes", "addr:city": "BEATTY", "addr:country": "US", "addr:postcode": "97621", "addr:state": "OR", "addr:street_address": "24199 GODOWA SPRINGS RD", "amenity": "post_box", "collection_times": "Mo-Fr 11:45; Sa 09:30", "nsi_id": "unitedstatespostalservice-a77078", "operator": "United States Postal Service", "operator:short": "USPS", "operator:type": "public", "operator:wikidata": "Q668687", "ref": "9762100000"}, "type": "Feature"}
{"geometry": {"coordinates": [-121.27098, 42.442636], "type": "Point"}, "id": "LqgWNYi8H1kLqV5N9RYJJcIOMzU=", "properties": {"@source_uri": "https://tools.usps.com/UspsToolsRestServices/rest/POLocator/findLocations", "@spider": "usps_collection_boxes", "addr:city": "BEATTY", "addr:country": "US", "addr:postcode": "97621", "addr:state": "OR", "addr:street_address": "24199 GODOWA SPRINGS RD", "amenity": "post_box", "collection_times": "Mo-Fr 11:45; Sa 09:30", "indoor": "yes", "nsi_id": "unitedstatespostalservice-a77078", "operator": "United States Postal Service", "operator:short": "USPS", "operator:type": "public", "operator:wikidata": "Q668687", "ref": "9762100001"}, "type": "Feature"}
{"geometry": {"coordinates": [-121.271273783, 42.442514581], "type": "Point"}, "id": "5dlek2cq1shVQWUfM9LjJKsBFJU=", "properties": {"@source_uri": "https://tools.usps.com/UspsToolsRestServices/rest/POLocator/findLocations", "@spider": "usps_collection_boxes", "addr:city": "BEATTY", "addr:country": "US", "addr:postcode": "97621", "addr:state": "OR", "addr:street_address": "24199 GODOWA SPRINGS RD", "amenity": "post_box", "collection_times": "Mo-Fr 12:00; Sa 09:45", "indoor": "yes", "nsi_id": "unitedstatespostalservice-a77078", "operator": "United States Postal Service", "operator:short": "USPS", "operator:type": "public", "operator:wikidata": "Q668687", "ref": "9762100002"}, "type": "Feature"}
{"geometry": {"coordinates": [-121.044009, 42.398911], "type": "Point"}, "id": "a8ZbP3ssx8hLVyYwE0pNdlYFb-c=", "properties": {"@source_uri": "https://tools.usps.com/UspsToolsRestServices/rest/POLocator/findLocations", "@spider": "usps_collection_boxes", "addr:city": "BLY", "addr:country": "US", "addr:postcode": "97622", "addr:state": "OR", "addr:street_address": "61133 HWY 140 E", "amenity": "post_box", "collection_times": "Mo-Fr 12:15; Sa 09:30", "note": "ON 12/24 AND 12/31, THIS BOX MAY BE COLLECTED AS EARLY AS 12 NOON.", "nsi_id": "unitedstatespostalservice-a77078", "operator": "United States Postal Service", "operator:short": "USPS", "operator:type": "public", "operator:wikidata": "Q668687", "ref": "9762200000"}, "type": "Feature"}
{"geometry": {"coordinates": [-121.044009, 42.398911], "type": "Point"}, "id": "EozOxs1hp8t9lmk1Iw4PCB2D5Zw=", "properties": {"@source_uri": "https://tools.usps.com/UspsToolsRestServices/rest/POLocator/findLocations", "@spider": "usps_collection_boxes", "addr:city": "BLY", "addr:country": "US", "addr:postcode": "97622", "addr:state": "OR", "addr:street_address": "61133 HWY 140 E", "amenity": "post_box", "collection_times": "Mo-Fr 12:15; Sa 09:30", "indoor": "yes", "note": "ON 12/24 AND 12/31, THIS BOX MAY BE COLLECTED AS EARLY AS 12 NOON.", "nsi_id": "unitedstatespostalservice-a77078", "operator": "United States Postal Service", "operator:short": "USPS", "operator:type": "public", "operator:wikidata": "Q668687", "ref": "9762200001"}, "type": "Feature"}
{"geometry": {"coordinates": [-121.044344587, 42.399437605], "type": "Point"}, "id": "o_Hj4qavbv8fIxSpYv-VNqL50jQ=", "properties": {"@source_uri": "https://tools.usps.com/UspsToolsRestServices/rest/POLocator/findLocations", "@spider": "usps_collection_boxes", "addr:city": "BLY", "addr:country": "US", "addr:postcode": "97622", "addr:state": "OR", "addr:street_address": "61133 HWY 140 E", "amenity": "post_box", "collection_times": "Mo-Fr 12:30", "indoor": "yes", "note": "ON 12/24 AND 12/31, THIS BOX MAY BE COLLECTED AS EARLY AS 12 NOON.", "nsi_id": "unitedstatespostalservice-a77078", "operator": "United States Postal Service", "operator:short": "USPS", "operator:type": "public", "operator:wikidata": "Q668687", "ref": "9762200002"}, "type": "Feature"}
{"geometry": {"coordinates": [-121.400883, 42.199223], "type": "Point"}, "id": "KpXWp60_NCbSzFVpxEmnmnRBq4Y=", "properties": {"@source_uri": "https://tools.usps.com/UspsToolsRestServices/rest/POLocator/findLocations", "@spider": "usps_collection_boxes", "addr:city": "BONANZA", "addr:country": "US", "addr:postcode": "97623", "addr:state": "OR", "addr:street_address": "2899 MARKET ST", "amenity": "post_box", "collection_times": "Mo-Fr 15:30; Sa 10:00", "note": "ON 12/24 AND 12/31, THIS BOX MAY BE COLLECTED AS EARLY AS 12 NOON.", "nsi_id": "unitedstatespostalservice-a77078", "operator": "United States Postal Service", "operator:short": "USPS", "operator:type": "public", "operator:wikidata": "Q668687", "ref": "9762300000"}, "type": "Feature"}
{"geometry": {"coordinates": [-121.40098, 42.199162], "type": "Point"}, "id": "wTFC3iey56rJKHljYkuZ6EbYObE=", "properties": {"@source_uri": "https://tools.usps.com/UspsToolsRestServices/rest/POLocator/findLocations", "@spider": "usps_collection_boxes", "addr:city": "BONANZA", "addr:country": "US", "addr:postcode": "97623", "addr:state": "OR", "addr:street_address": "2899 MARKET ST", "amenity": "post_box", "collection_times": "Mo-Fr 15:30", "indoor": "yes", "note": "ON 12/24 AND 12/31, THIS BOX MAY BE COLLECTED AS EARLY AS 12 NOON.", "nsi_id": "unitedstatespostalservice-a77078", "operator": "United States Postal Service", "operator:short": "USPS", "operator:type": "public", "operator:wikidata": "Q668687", "ref": "9762300001"}, "type": "Feature"}
{"geometry": {"coordinates": [-121.400736556, 42.19938503], "type": "Point"}, "id": "9V6VrfzBbfOYPnuMqSX9BRHBEnU=", "properties": {"@source_uri": "https://tools.usps.com/UspsToolsRestServices/rest/POLocator/findLocations", "@spider": "usps_collection_boxes", "addr:city": "BONANZA", "addr:country": "US", "addr:postcode": "97623", "addr:state": "OR", "addr:street_address": "2899 MARKET ST", "amenity": "post_box", "collection_times": "Mo-Fr 15:45", "indoor": "yes", "note": "ON 12/24 AND 12/31, THIS BOX MAY BE COLLECTED AS EARLY AS 12 NOON.", "nsi_id": "unitedstatespostalservice-a77078", "operator": "United States Postal Service", "operator:short": "USPS", "operator:type": "public", "operator:wikidata": "Q668687", "ref": "9762300002"}, "type": "Feature"}
{"geometry": {"coordinates": [-121.863904, 42.574901], "type": "Point"}, "id": "edaht9fjJiuMZaRFd0pWczaG1gc=", "properties": {"@source_uri": "https://tools.usps.com/UspsToolsRestServices/rest/POLocator/findLocations", "@spider": "usps_collection_boxes", "addr:city": "CHILOQUIN", "addr:country": "US", "addr:postcode": "97624", "addr:state": "OR", "addr:street_address": "228 S 1ST AVE", "amenity": "post_box", "collection_times": "Mo-Fr 16:30; Sa 11:30", "indoor": "yes", "note": "ON 12/24 AND 12/31, THIS BOX MAY BE COLLECTED AS EARLY AS 12 NOON.", "nsi_id": "unitedstatespostalservice-a77078", "operator": "United States Postal Service", "operator:short": "USPS", "operator:type": "public", "operator:wikidata": "Q668687", "ref": "9762400001"}, "type": "Feature"}
{"geometry": {"coordinates": [-121.504255, 42.455246], "type": "Point"}, "id": "BnVZj9YPWGvfbzKdnHAm_7X77KU=", "properties": {"@source_uri": "https://tools.usps.com/UspsToolsRestServices/rest/POLocator/findLocations", "@spider": "usps_collection_boxes", "addr:city": "CHILOQUIN", "addr:country": "US", "addr:postcode": "97624", "addr:state": "OR", "addr:street_address": "23402 SPRAGUE RIVER RD", "amenity": "post_box", "collection_times": "Mo-Sa 10:30", "nsi_id": "unitedstatespostalservice-a77078", "operator": "United States Postal Service", "operator:short": "USPS", "operator:type": "public", "operator:wikidata": "Q668687", "ref": "9762400003"}, "type": "Feature"}
{"geometry": {"coordinates": [-121.86401115, 42.574960153], "type": "Point"}, "id": "Mukzuy0GgvtZ9bol4w9RMHDsK8w=", "properties": {"@source_uri": "https://tools.usps.com/UspsToolsRestServices/rest/POLocator/findLocations", "@spider": "usps_collection_boxes", "addr:city": "CHILOQUIN", "addr:country": "US", "addr:postcode": "97624", "addr:state": "OR", "addr:street_address": "228 S 1ST AVE", "amenity": "post_box", "collection_times": "Mo-Fr 16:30", "indoor": "yes", "note": "ON 12/24 AND 12/31, THIS BOX MAY BE COLLECTED AS EARLY AS 12 NOON.", "nsi_id": "unitedstatespostalservice-a77078", "operator": "United States Postal Service", "operator:short": "USPS", "operator:type": "public", "operator:wikidata": "Q668687", "ref": "9762400004"}, "type": "Feature"}
{"geometry": {"coordinates": [-121.9957895021, 42.7024309619], "type": "Point"}, "id": "xKWMFl-QbJhWAvzKdnVzbiqobmQ=", "properties": {"@source_uri": "https://tools.usps.com/UspsToolsRestServices/rest/POLocator/findLocations", "@spider": "usps_collection_boxes", "addr:city": "FORT KLAMATH", "addr:country": "US", "addr:postcode": "97626", "addr:state": "OR", "addr:street_address": "52649 HIGHWAY 62", "amenity": "post_box", "collection_times": "Mo-Fr 11:45; Sa 09:45", "nsi_id": "unitedstatespostalservice-a77078", "operator": "United States Postal Service", "operator:short": "USPS", "operator:type": "public", "operator:wikidata": "Q668687", "ref": "9762600000"}, "type": "Feature"}
{"geometry": {"coordinates": [-121.9957895021, 42.7024309619], "type": "Point"}, "id": "_Y9boSxrNUzLq3KGRKK3lGaW1xE=", "properties": {"@source_uri": "https://tools.usps.com/UspsToolsRestServices/rest/POLocator/findLocations", "@spider": "usps_collection_boxes", "addr:city": "FORT KLAMATH", "addr:country": "US", "addr:postcode": "97626", "addr:state": "OR", "addr:street_address": "52649 HIGHWAY 62", "amenity": "post_box", "collection_times": "Mo-Fr 11:45; Sa 09:45", "indoor": "yes", "nsi_id": "unitedstatespostalservice-a77078", "operator": "United States Postal Service", "operator:short": "USPS", "operator:type": "public", "operator:wikidata": "Q668687", "ref": "9762600001"}, "type": "Feature"}
{"geometry": {"coordinates": [-121.995746616, 42.702353528], "type": "Point"}, "id": "Hxcubumgm5AArHkhhdJ4sDV_n-k=", "properties": {"@source_uri": "https://tools.usps.com/UspsToolsRestServices/rest/POLocator/findLocations", "@spider": "usps_collection_boxes", "addr:city": "FORT KLAMATH", "addr:country": "US", "addr:postcode": "97626", "addr:state": "OR", "addr:street_address": "52649 HIGHWAY 62", "amenity": "post_box", "collection_times": "Mo-Fr 12:00; Sa 10:00", "indoor": "yes", "nsi_id": "unitedstatespostalservice-a77078", "operator": "United States Postal Service", "operator:short": "USPS", "operator:type": "public", "operator:wikidata": "Q668687", "ref": "9762600002"}, "type": "Feature"}
{"geometry": {"coordinates": [-121.934997, 42.125452], "type": "Point"}, "id": "R34mnegLr_-moGo84rjLOngIryc=", "properties": {"@source_uri": "https://tools.usps.com/UspsToolsRestServices/rest/POLocator/findLocations", "@spider": "usps_collection_boxes", "addr:city": "KENO", "addr:country": "US", "addr:postcode": "97627", "addr:state": "OR", "addr:street_address": "15750 HIGHWAY 66", "amenity": "post_box", "collection_times": "Mo-Fr 16:15; Sa 09:45", "note": "ON 12/24 AND 12/31, THIS BOX MAY BE COLLECTED AS EARLY AS 12 NOON.", "nsi_id": "unitedstatespostalservice-a77078", "operator": "United States Postal Service", "operator:short": "USPS", "operator:type": "public", "operator:wikidata": "Q668687", "ref": "9762700000"}, "type": "Feature"}
{"geometry": {"coordinates": [-121.934997, 42.125452], "type": "Point"}, "id": "oU4rLEsV60JexJvPt0ymp_3bmP8=", "properties": {"@source_uri": "https://tools.usps.com/UspsToolsRestServices/rest/POLocator/findLocations", "@spider": "usps_collection_boxes", "addr:city": "KENO", "addr:country": "US", "addr:postcode": "97627", "addr:state": "OR", "addr:street_address": "15750 HIGHWAY 66", "amenity": "post_box", "collection_times": "Mo-Fr 16:15; Sa 09:45", "indoor": "yes", "note": "ON 12/24 AND 12/31, THIS BOX MAY BE COLLECTED AS EARLY AS 12 NOON.", "nsi_id": "unitedstatespostalservice-a77078", "operator": "United States Postal Service", "operator:short": "USPS", "operator:type": "public", "operator:wikidata": "Q668687", "ref": "9762700001"}, "type": "Feature"}
{"geometry": {"coordinates": [-121.934997, 42.125452], "type": "Point"}, "id": "uyG-wm1VMHe9mVgqmLReT8nQB2o=", "properties": {"@source_uri": "https://tools.usps.com/UspsToolsRestServices/rest/POLocator/findLocations", "@spider": "usps_collection_boxes", "addr:city": "KENO", "addr:country": "US", "addr:postcode": "97627", "addr:state": "OR", "addr:street_address": "15750 HIGHWAY 66", "amenity": "post_box", "collection_times": "Mo-Fr 16:15; Sa 09:45", "indoor": "yes", "note": "ON 12/24 AND 12/31, THIS BOX MAY BE COLLECTED AS EARLY AS 12 NOON.", "nsi_id": "unitedstatespostalservice-a77078", "operator": "United States Postal Service", "operator:short": "USPS", "operator:type": "public", "operator:wikidata": "Q668687", "ref": "9762700002"}, "type": "Feature"}
{"geometry": {"coordinates": [-121.934661166, 42.125465517], "type": "Point"}, "id": "dwahMVN7ywtiDoCijZaVkPdkgU0=", "properties": {"@source_uri": "https://tools.usps.com/UspsToolsRestServices/rest/POLocator/findLocations", "@spider": "usps_collection_boxes", "addr:city": "KENO", "addr:country": "US", "addr:postcode": "97627", "addr:state": "OR", "addr:street_address": "15750 HIGHWAY 66", "amenity": "post_box", "collection_times": "Mo-Fr 16:15", "indoor": "yes", "note": "ON 12/24 AND 12/31, THIS BOX MAY BE COLLECTED AS EARLY AS 12 NOON.", "nsi_id": "unitedstatespostalservice-a77078", "operator": "United States Postal Service", "operator:short": "USPS", "operator:type": "public", "operator:wikidata": "Q668687", "ref": "9762700003"}, "type": "Feature"}
{"geometry": {"coordinates": [-120.347054, 42.189286], "type": "Point"}, "id": "amLzt3jemAOgwppGOCBN4ARfslA=", "properties": {"@source_uri": "https://tools.usps.com/UspsToolsRestServices/rest/POLocator/findLocations", "@spider": "usps_collection_boxes", "addr:city": "LAKEVIEW", "addr:country": "US", "addr:postcode": "97630", "addr:state": "OR", "addr:street_address": "18 S G ST", "amenity": "post_box", "collection_times": "Mo-Sa 15:00", "indoor": "yes", "note": "ON 12/24 AND 12/31, THIS BOX MAY BE COLLECTED AS EARLY AS 12 NOON.", "nsi_id": "unitedstatespostalservice-a77078", "operator": "United States Postal Service", "operator:short": "USPS", "operator:type": "public", "operator:wikidata": "Q668687", "ref": "9763000000"}, "type": "Feature"}
{"geometry": {"coordinates": [-120.347054, 42.189286], "type": "Point"}, "id": "d_AdDTtWBXzUVb19BADhs7fdwhA=", "properties": {"@source_uri": "https://tools.usps.com/UspsToolsRestServices/rest/POLocator/findLocations", "@spider": "usps_collection_boxes", "addr:city": "LAKEVIEW", "addr:country": "US", "addr:postcode": "97630", "addr:state": "OR", "addr:street_address": "18 S G ST", "amenity": "post_box", "collection_times": "Mo-Sa 15:00", "note": "ON 12/24 AND 12/31, THIS BOX MAY BE COLLECTED AS EARLY AS 12 NOON.", "nsi_id": "unitedstatespostalservice-a77078", "operator": "United States Postal Service", "operator:short": "USPS", "operator:type": "public", "operator:wikidata": "Q668687", "ref": "9763000004"}, "type": "Feature"}
{"geometry": {"coordinates": [-119.90422, 42.411752], "type": "Point"}, "id": "F-6nuuGQwK2w5yr25V7Jvd707m0=", "properties": {"@source_uri": "https://tools.usps.com/UspsToolsRestServices/rest/POLocator/findLocations", "@spider": "usps_collection_boxes", "addr:city": "LAKEVIEW", "addr:country": "US", "addr:postcode": "97630", "addr:state": "OR", "addr:street_address": "28215 HOGBACK RD", "amenity": "post_box", "collection_times": "Mo-Fr 12:30", "note": "ON 12/24 AND 12/31, THIS BOX MAY BE COLLECTED AS EARLY AS 12 NOON.", "nsi_id": "unitedstatespostalservice-a77078", "operator": "United States Postal Service", "operator:short": "USPS", "operator:type": "public", "operator:wikidata": "Q668687", "ref": "9763000008"}, "type": "Feature"}
{"geometry": {"coordinates": [-120.347074435, 42.189295633], "type": "Point"}, "id": "V4Fjlib_7HCZoBkNSeb6dGXc48o=", "properties": {"@source_uri": "https://tools.usps.com/UspsToolsRestServices/rest/POLocator/findLocations", "@spider": "usps_collection_boxes", "addr:city": "LAKEVIEW", "addr:country": "US", "addr:postcode": "97630", "addr:state": "OR", "addr:street_address": "18 S G ST", "amenity": "post_box", "collection_times": "Mo-Fr 15:00", "indoor": "yes", "note": "ON 12/24 AND 12/31, THIS BOX MAY BE COLLECTED AS EARLY AS 12 NOON.", "nsi_id": "unitedstatespostalservice-a77078", "operator": "United States Postal Service", "operator:short": "USPS", "operator:type": "public", "operator:wikidata": "Q668687", "ref": "9763000009"}, "type": "Feature"}
{"geometry": {"coordinates": [-121.408283, 42.010221], "type": "Point"}, "id": "8bVcfKY8rtfF_lBm6bqbpNZAblA=", "properties": {"@source_uri": "https://tools.usps.com/UspsToolsRestServices/rest/POLocator/findLocations", "@spider": "usps_collection_boxes", "addr:city": "MALIN", "addr:country": "US", "addr:postcode": "97632", "addr:state": "OR", "addr:street_address": "2109 BROADWAY ST", "amenity": "post_box", "collection_times": "Mo-Fr 16:30; Sa 11:00", "indoor": "yes", "note": "ON 12/24 AND 12/31, THIS BOX MAY BE COLLECTED AS EARLY AS 12 NOON.", "nsi_id": "unitedstatespostalservice-a77078", "operator": "United States Postal Service", "operator:short": "USPS", "operator:type": "public", "operator:wikidata": "Q668687", "ref": "9763200000"}, "type": "Feature"}
{"geometry": {"coordinates": [-121.4083067957, 42.0101247043], "type": "Point"}, "id": "wxnpEaw5nbg4O6eo0bGeuOQZz3w=", "properties": {"@source_uri": "https://tools.usps.com/UspsToolsRestServices/rest/POLocator/findLocations", "@spider": "usps_collection_boxes", "addr:city": "MALIN", "addr:country": "US", "addr:postcode": "97632", "addr:state": "OR", "addr:street_address": "2109 BROADWAY ST", "amenity": "post_box", "collection_times": "Mo-Fr 16:15; Sa 10:15", "note": "ON 12/24 AND 12/31, THIS BOX MAY BE COLLECTED AS EARLY AS 12 NOON.", "nsi_id": "unitedstatespostalservice-a77078", "operator": "United States Postal Service", "operator:short": "USPS", "operator:type": "public", "operator:wikidata": "Q668687", "ref": "9763200001"}, "type": "Feature"}
{"geometry": {"coordinates": [-121.408311358, 42.010201679], "type": "Point"}, "id": "PspDFFNuiNTT2zERrp0BMvG-4iQ=", "properties": {"@source_uri": "https://tools.usps.com/UspsToolsRestServices/rest/POLocator/findLocations", "@spider": "usps_collection_boxes", "addr:city": "MALIN", "addr:country": "US", "addr:postcode": "97632", "addr:state": "OR", "addr:street_address": "2109 BROADWAY ST", "amenity": "post_box", "collection_times": "Mo-Fr 16:30", "indoor": "yes", "note": "ON 12/24 AND 12/31, THIS BOX MAY BE COLLECTED AS EARLY AS 12 NOON.", "nsi_id": "unitedstatespostalservice-a77078", "operator": "United States Postal Service", "operator:short": "USPS", "operator:type": "public", "operator:wikidata": "Q668687", "ref": "9763200002"}, "type": "Feature"}
{"geometry": {"coordinates": [-121.599671, 42.024041], "type": "Point"}, "id": "Vk2wi-ukc35WXHlLqXv4sGZTFUA=", "properties": {"@source_uri": "https://tools.usps.com/UspsToolsRestServices/rest/POLocator/findLocations", "@spider": "usps_collection_boxes", "addr:city": "MERRILL", "addr:country": "US", "addr:postcode": "97633", "addr:state": "OR", "addr:street_address": "138 E FRONT ST", "amenity": "post_box", "collection_times": "Mo-Fr 16:15; Sa 10:15", "note": "ON 12/24 AND 12/31, THIS BOX MAY BE COLLECTED AS EARLY AS 12 NOON.", "nsi_id": "unitedstatespostalservice-a77078", "operator": "United States Postal Service", "operator:short": "USPS", "operator:type": "public", "operator:wikidata": "Q668687", "ref": "9763300000"}, "type": "Feature"}
{"geometry": {"coordinates": [-121.599698, 42.024014], "type": "Point"}, "id": "BlNoGveDZRHdgI7wHvQBk8KCp74=", "properties": {"@source_uri": "https://tools.usps.com/UspsToolsRestServices/rest/POLocator/findLocations", "@spider": "usps_collection_boxes", "addr:city": "MERRILL", "addr:country": "US", "addr:postcode": "97633", "addr:state": "OR", "addr:street_address": "138 E FRONT ST", "amenity": "post_box", "collection_times": "Mo-Fr 16:30; Sa 10:30", "indoor": "yes", "note": "ON 12/24 AND 12/31, THIS BOX MAY BE COLLECTED AS EARLY AS 12 NOON.", "nsi_id": "unitedstatespostalservice-a77078", "operator": "United States Postal Service", "operator:short": "USPS", "operator:type": "public", "operator:wikidata": "Q668687", "ref": "9763300001"}, "type": "Feature"}
{"geometry": {"coordinates": [-121.599698, 42.024014], "type": "Point"}, "id": "q68KYG3JiIAMTChiJ9PXVzoRWfc=", "properties": {"@source_uri": "https://tools.usps.com/UspsToolsRestServices/rest/POLocator/findLocations", "@spider": "usps_collection_boxes", "addr:city": "MERRILL", "addr:country": "US", "addr:postcode": "97633", "addr:state": "OR", "addr:street_address": "138 E FRONT ST", "amenity": "post_box", "collection_times": "Mo-Fr 16:30; Sa 10:30", "indoor": "yes", "note": "ON 12/24 AND 12/31, THIS BOX MAY BE COLLECTED AS EARLY AS 12 NOON.", "nsi_id": "unitedstatespostalservice-a77078", "operator": "United States Postal Service", "operator:short": "USPS", "operator:type": "public", "operator:wikidata": "Q668687", "ref": "9763300002"}, "type": "Feature"}
{"geometry": {"coordinates": [-121.59932328, 42.024082926], "type": "Point"}, "id": "IkqCm9cycd_2IiJNy-8Wg1t4yEM=", "properties": {"@source_uri": "https://tools.usps.com/UspsToolsRestServices/rest/POLocator/findLocations", "@spider": "usps_collection_boxes", "addr:city": "MERRILL", "addr:country": "US", "addr:postcode": "97633", "addr:state": "OR", "addr:street_address": "138 E FRONT ST", "amenity": "post_box", "collection_times": "Mo-Fr 16:30", "indoor": "yes", "note": "ON 12/24 AND 12/31, THIS BOX MAY BE COLLECTED AS EARLY AS 12 NOON.", "nsi_id": "unitedstatespostalservice-a77078", "operator": "United States Postal Service", "operator:short": "USPS", "operator:type": "public", "operator:wikidata": "Q668687", "ref": "9763300003"}, "type": "Feature"}
{"geometry": {"coordinates": [-121.8235549402, 42.1294446395], "type": "Point"}, "id": "aZYpsoWr0jjbXpOq2W9JNRg4JI8=", "properties": {"@source_uri": "https://tools.usps.com/UspsToolsRestServices/rest/POLocator/findLocations", "@spider": "usps_collection_boxes", "addr:city": "MIDLAND", "addr:country": "US", "addr:postcode": "97634", "addr:state": "OR", "addr:street_address": "10505 HWY 97 S", "amenity": "post_box", "collection_times": "Mo-Fr 15:15; Sa 09:15", "note": "ON 12/24 AND 12/31, THIS BOX MAY BE COLLECTED AS EARLY AS 12 NOON.", "nsi_id": "unitedstatespostalservice-a77078", "operator": "United States Postal Service", "operator:short": "USPS", "operator:type": "public", "operator:wikidata": "Q668687", "ref": "9763400000"}, "type": "Feature"}
{"geometry": {"coordinates": [-121.8230668435, 42.1302936726], "type": "Point"}, "id": "mJIahoscWmPoWtm53dKx2uEUyM0=", "properties": {"@source_uri": "https://tools.usps.com/UspsToolsRestServices/rest/POLocator/findLocations", "@spider": "usps_collection_boxes", "addr:city": "MIDLAND", "addr:country": "US", "addr:postcode": "97634", "addr:state": "OR", "addr:street_address": "10505 HWY 97 S", "amenity": "post_box", "collection_times": "Mo-Fr 15:15; Sa 09:15", "indoor": "yes", "note": "ON 12/24 AND 12/31, THIS BOX MAY BE COLLECTED AS EARLY AS 12 NOON.", "nsi_id": "unitedstatespostalservice-a77078", "operator": "United States Postal Service", "operator:short": "USPS", "operator:type": "public", "operator:wikidata": "Q668687", "ref": "9763400001"}, "type": "Feature"}
{"geometry": {"coordinates": [-121.822529602, 42.130985388], "type": "Point"}, "id": "_C55M2cb2CX_07I9qE8xzhCbpmM=", "properties": {"@source_uri": "https://tools.usps.com/UspsToolsRestServices/rest/POLocator/findLocations", "@spider": "usps_collection_boxes", "addr:city": "MIDLAND", "addr:country": "US", "addr:postcode": "97634", "addr:state": "OR", "addr:street_address": "10505 HWY 97 S", "amenity": "post_box", "collection_times": "Mo-Fr 15:30", "indoor": "yes", "note": "ON 12/24 AND 12/31, THIS BOX MAY BE COLLECTED AS EARLY AS 12 NOON.", "nsi_id": "unitedstatespostalservice-a77078", "operator": "United States Postal Service", "operator:short": "USPS", "operator:type": "public", "operator:wikidata": "Q668687", "ref": "9763400002"}, "type": "Feature"}
{"geometry": {"coordinates": [-120.298118, 41.993541], "type": "Point"}, "id": "1yWB_MhkcyzBZt8rHy8zgBgzIZc=", "properties": {"@source_uri": "https://tools.usps.com/UspsToolsRestServices/rest/POLocator/findLocations", "@spider": "usps_collection_boxes", "addr:city": "NEW PINE CREEK", "addr:country": "US", "addr:postcode": "97635", "addr:state": "OR", "addr:street_address": "11166 HIGHWAY 395", "amenity": "post_box", "collection_times": "Mo-Sa 13:00", "note": "ON 12/24 AND 12/31, THIS BOX MAY BE COLLECTED AS EARLY AS 12 NOON.", "nsi_id": "unitedstatespostalservice-a77078", "operator": "United States Postal Service", "operator:short": "USPS", "operator:type": "public", "operator:wikidata": "Q668687", "ref": "9763500000"}, "type": "Feature"}
{"geometry": {"coordinates": [-120.298118, 41.993541], "type": "Point"}, "id": "rF7ZiQEmbaZvwdO6gMeCrvv-8IE=", "properties": {"@source_uri": "https://tools.usps.com/UspsToolsRestServices/rest/POLocator/findLocations", "@spider": "usps_collection_boxes", "addr:city": "NEW PINE CREEK", "addr:country": "US", "addr:postcode": "97635", "addr:state": "OR", "addr:street_address": "11166 HIGHWAY 395", "amenity": "post_box", "collection_times": "Mo-Sa 13:00", "indoor": "yes", "note": "ON 12/24 AND 12/31, THIS BOX MAY BE COLLECTED AS EARLY AS 12 NOON.", "nsi_id": "unitedstatespostalservice-a77078", "operator": "United States Postal Service", "operator:short": "USPS", "operator:type": "public", "operator:wikidata": "Q668687", "ref": "9763500001"}, "type": "Feature"}
{"geometry": {"coordinates": [-120.298120948, 41.993559], "type": "Point"}, "id": "8XUJ6tNuE-0IfzXbzNedQcGV5sI=", "properties": {"@source_uri": "https://tools.usps.com/UspsToolsRestServices/rest/POLocator/findLocations", "@spider": "usps_collection_boxes", "addr:city": "NEW PINE CREEK", "addr:country": "US", "addr:postcode": "97635", "addr:state": "OR", "addr:street_address": "11166 HIGHWAY 395", "amenity": "post_box", "collection_times": "Mo-Fr 11:00", "indoor": "yes", "nsi_id": "unitedstatespostalservice-a77078", "operator": "United States Postal Service", "operator:short": "USPS", "operator:type": "public", "operator:wikidata": "Q668687", "ref": "9763500002"}, "type": "Feature"}
{"geometry": {"coordinates": [-120.544908, 42.693809], "type": "Point"}, "id": "vWXWzFzFMANZn2wDN9LKyNlHub8=", "properties": {"@source_uri": "https://tools.usps.com/UspsToolsRestServices/rest/POLocator/findLocations", "@spider": "usps_collection_boxes", "addr:city": "PAISLEY", "addr:country": "US", "addr:postcode": "97636", "addr:state": "OR", "addr:street_address": "511 MILL ST", "amenity": "post_box", "collection_times": "Mo-Fr 13:00; Sa 12:35", "note": "ON 12/24 AND 12/31, THIS BOX MAY BE COLLECTED AS EARLY AS 12 NOON.", "nsi_id": "unitedstatespostalservice-a77078", "operator": "United States Postal Service", "operator:short": "USPS", "operator:type": "public", "operator:wikidata": "Q668687", "ref": "9763600000"}, "type": "Feature"}
{"geometry": {"coordinates": [-120.544908, 42.693809], "type": "Point"}, "id": "wDIlXilEo9kpe93tZWAH3ouRq2A=", "properties": {"@source_uri": "https://tools.usps.com/UspsToolsRestServices/rest/POLocator/findLocations", "@spider": "usps_collection_boxes", "addr:city": "PAISLEY", "addr:country": "US", "addr:postcode": "97636", "addr:state": "OR", "addr:street_address": "511 MILL ST", "amenity": "post_box", "collection_times": "Mo-Fr 13:00; Sa 12:35", "indoor": "yes", "note": "ON 12/24 AND 12/31, THIS BOX MAY BE COLLECTED AS EARLY AS 12 NOON.", "nsi_id": "unitedstatespostalservice-a77078", "operator": "United States Postal Service", "operator:short": "USPS", "operator:type": "public", "operator:wikidata": "Q668687", "ref": "9763600001"}, "type": "Feature"}
{"geometry": {"coordinates": [-120.5448676013, 42.6937494774], "type": "Point"}, "id": "E7He2_jm1kRuVlSJVDRKTH75nhY=", "properties": {"@source_uri": "https://tools.usps.com/UspsToolsRestServices/rest/POLocator/findLocations", "@spider": "usps_collection_boxes", "addr:city": "PAISLEY", "addr:country": "US", "addr:postcode": "97636", "addr:state": "OR", "addr:street_address": "511 MILL ST", "amenity": "post_box", "collection_times": "Mo-Fr 13:00", "indoor": "yes", "note": "ON 12/24 AND 12/31, THIS BOX MAY BE COLLECTED AS EARLY AS 12 NOON.", "nsi_id": "unitedstatespostalservice-a77078", "operator": "United States Postal Service", "operator:short": "USPS", "operator:type": "public", "operator:wikidata": "Q668687", "ref": "9763600002"}, "type": "Feature"}
{"geometry": {"coordinates": [-120.790748, 43.029663], "type": "Point"}, "id": "l6yQ1WgK1pNyp9bwlGicMo129ZU=", "properties": {"@source_uri": "https://tools.usps.com/UspsToolsRestServices/rest/POLocator/findLocations", "@spider": "usps_collection_boxes", "addr:city": "SILVER LAKE", "addr:country": "US", "addr:postcode": "97638", "addr:state": "OR", "addr:street_address": "65525 HIGHWAY 31", "amenity": "post_box", "collection_times": "Mo-Sa 12:00", "indoor": "yes", "nsi_id": "unitedstatespostalservice-a77078", "operator": "United States Postal Service", "operator:short": "USPS", "operator:type": "public", "operator:wikidata": "Q668687", "ref": "9763800000"}, "type": "Feature"}
{"geometry": {"coordinates": [-121.0487715, 43.127869493], "type": "Point"}, "id": "Ssp4DjEIIVYcXPaO4d18yBIsWtw=", "properties": {"@source_uri": "https://tools.usps.com/UspsToolsRestServices/rest/POLocator/findLocations", "@spider": "usps_collection_boxes", "addr:city": "SILVER LAKE", "addr:country": "US", "addr:postcode": "97638", "addr:state": "OR", "addr:street_address": "65525 HIGHWAY 31", "amenity": "post_box", "collection_times": "Mo-Fr 12:15", "indoor": "yes", "note": "ON 12/24 AND 12/31, THIS BOX MAY BE COLLECTED AS EARLY AS 12 NOON.", "nsi_id": "unitedstatespostalservice-a77078", "operator": "United States Postal Service", "operator:short": "USPS", "operator:type": "public", "operator:wikidata": "Q668687", "ref": "9763800001"}, "type": "Feature"}
{"geometry": {"coordinates": [-120.776349, 43.001342], "type": "Point"}, "id": "e_AU5MPrnIXIim9fWc8-b40Ii_I=", "properties": {"@source_uri": "https://tools.usps.com/UspsToolsRestServices/rest/POLocator/findLocations", "@spider": "usps_collection_boxes", "addr:city": "SUMMER LAKE", "addr:country": "US", "addr:postcode": "97640", "addr:state": "OR", "addr:street_address": "54128 HIGHWAY 31", "amenity": "post_box", "collection_times": "Mo-Sa 12:30", "indoor": "yes", "note": "ON 12/24 AND 12/31, THIS BOX MAY BE COLLECTED AS EARLY AS 12 NOON.", "nsi_id": "unitedstatespostalservice-a77078", "operator": "United States Postal Service", "operator:short": "USPS", "operator:type": "public", "operator:wikidata": "Q668687", "ref": "9764000000"}, "type": "Feature"}
{"geometry": {"coordinates": [-120.776309, 43.001394], "type": "Point"}, "id": "nFltzPUB56xU64CRq7gH1UAyB28=", "properties": {"@source_uri": "https://tools.usps.com/UspsToolsRestServices/rest/POLocator/findLocations", "@spider": "usps_collection_boxes", "addr:city": "SUMMER LAKE", "addr:country": "US", "addr:postcode": "97640", "addr:state": "OR", "addr:street_address": "54128 HIGHWAY 31", "amenity": "post_box", "collection_times": "Mo-Sa 12:30", "note": "ON 12/24 AND 12/31, THIS BOX MAY BE COLLECTED AS EARLY AS 12 NOON.", "nsi_id": "unitedstatespostalservice-a77078", "operator": "United States Postal Service", "operator:short": "USPS", "operator:type": "public", "operator:wikidata": "Q668687", "ref": "9764000001"}, "type": "Feature"}
{"geometry": {"coordinates": [-120.777878285, 42.973165466], "type": "Point"}, "id": "KFP_XW3hTUB6tadBgdpaeS3idK4=", "properties": {"@source_uri": "https://tools.usps.com/UspsToolsRestServices/rest/POLocator/findLocations", "@spider": "usps_collection_boxes", "addr:city": "SUMMER LAKE", "addr:country": "US", "addr:postcode": "97640", "addr:state": "OR", "addr:street_address": "54128 HIGHWAY 31", "amenity": "post_box", "collection_times": "Mo-Sa 12:45", "indoor": "yes", "note": "ON 12/24 AND 12/31, THIS BOX MAY BE COLLECTED AS EARLY AS 12 NOON.", "nsi_id": "unitedstatespostalservice-a77078", "operator": "United States Postal Service", "operator:short": "USPS", "operator:type": "public", "operator:wikidata": "Q668687", "ref": "9764000002"}, "type": "Feature"}
{"geometry": {"coordinates": [-120.693684, 43.237958], "type": "Point"}, "id": "Om74iheiv7ZtTRWxxo69tkFT40w=", "properties": {"@source_uri": "https://tools.usps.com/UspsToolsRestServices/rest/POLocator/findLocations", "@spider": "usps_collection_boxes", "addr:city": "CHRISTMAS VLY", "addr:country": "US", "addr:postcode": "97641", "addr:state": "OR", "addr:street_address": "86957 CHRISTMAS VALLEY HWY", "amenity": "post_box", "collection_times": "Mo-Sa 13:00", "indoor": "yes", "note": "ON 12/24 AND 12/31, THIS BOX MAY BE COLLECTED AS EARLY AS 12 NOON.", "nsi_id": "unitedstatespostalservice-a77078", "operator": "United States Postal Service", "operator:short": "USPS", "operator:type": "public", "operator:wikidata": "Q668687", "ref": "9764100000"}, "type": "Feature"}
