{"geometry": {"coordinates": [-119.054478, 43.584418], "type": "Point"}, "id": "UaXg2uTBoe9f0-vM6qPsrFCVwt8=", "properties": {"@spider": "usps_collection_boxes", "addr:city": "BURNS", "addr:country": "US", "addr:full": "100 S BROADWAY AVE", "addr:postcode": "97720", "addr:state": "OR", "brand": "USPS", "collection_times": "Mo-Sa 11:30", "name": "USPS COLLECTION BOX - BLUE BOX", "ref": "9772000000"}, "type": "Feature"}
{"geometry": {"coordinates": [-119.054478, 43.584418], "type": "Point"}, "id": "CJgKZ6j19T_c_QO9cKeqtSYUEx0=", "properties": {"@spider": "usps_collection_boxes", "addr:city": "BURNS", "addr:country": "US", "addr:full": "100 S BROADWAY AVE", "addr:postcode": "97720", "addr:state": "OR", "brand": "USPS", "collection_times": "Mo-Sa 11:30", "name": "USPS COLLECTION BOX - BLUE BOX", "ref": "9772000001"}, "type": "Feature"}
{"geometry": {"coordinates": [-119.054477898, 43.584416581], "type": "Point"}, "id": "n2uZRMuUq7p_rkDSP0DRAbo69f4=", "properties": {"@spider": "usps_collection_boxes", "addr:city": "BURNS", "addr:country": "US", "addr:full": "100 S BROADWAY AVE", "addr:postcode": "97720", "addr:state": "OR", "brand": "USPS", "collection_times": "Mo-Sa 11:30", "name": "USPS COLLECTION BOX - PO LOBBY", "ref": "9772000008"}, "type": "Feature"}
{"geometry": {"coordinates": [-119.054477898, 43.584416581], "type": "Point"}, "id": "_dzDVpeq47CoJqdZHc4P8ShGELo=", "properties": {"@spider": "usps_collection_boxes", "addr:city": "BURNS", "addr:country": "US", "addr:full": "100 S BROADWAY AVE", "addr:postcode": "97720", "addr:state": "OR", "brand": "USPS", "collection_times": "Mo-Fr 11:45", "name": "USPS COLLECTION BOX - PO LOBBY", "ref": "9772000011"}, "type": "Feature"}
{"geometry": {"coordinates": [-121.782832, 43.216638], "type": "Point"}, "id": "Ur0_-I8i1xMczDr6DrQwJeKmaMA=", "properties": {"@spider": "usps_collection_boxes", "addr:city": "CHEMULT", "addr:country": "US", "addr:full": "125 G C PALMER ST", "addr:postcode": "97731", "addr:state": "OR", "brand": "USPS", "collection_times": "Mo-Fr 13:15; Sa 09:45", "name": "USPS COLLECTION BOX - BLUE BOX", "note": "ON 12/24 AND 12/31, THIS BOX MAY BE COLLECTED AS EARLY AS 12 NOON.", "ref": "9773100000"}, "type": "Feature"}
{"geometry": {"coordinates": [-121.782884, 43.2166], "type": "Point"}, "id": "Pkj_NiIxJa7yYiDqio8BbNkCXEQ=", "properties": {"@spider": "usps_collection_boxes", "addr:city": "CHEMULT", "addr:country": "US", "addr:full": "125 G C PALMER ST", "addr:postcode": "97731", "addr:state": "OR", "brand": "USPS", "collection_times": "Mo-Fr 13:15; Sa 09:45", "name": "USPS COLLECTION BOX - PO LOBBY", "note": "ON 12/24 AND 12/31, THIS BOX MAY BE COLLECTED AS EARLY AS 12 NOON.", "ref": "9773100001"}, "type": "Feature"}
{"geometry": {"coordinates": [-121.782425678, 43.216809191], "type": "Point"}, "id": "_lvhJi7lpyIkqGjSoYItiOoQr8w=", "properties": {"@spider": "usps_collection_boxes", "addr:city": "CHEMULT", "addr:country": "US", "addr:full": "125 G C PALMER ST", "addr:postcode": "97731", "addr:state": "OR", "brand": "USPS", "collection_times": "Mo-Fr 13:15", "name": "USPS COLLECTION BOX - PO LOBBY", "note": "ON 12/24 AND 12/31, THIS BOX MAY BE COLLECTED AS EARLY AS 12 NOON.", "ref": "9773100004"}, "type": "Feature"}
{"geometry": {"coordinates": [-121.694331, 43.462522], "type": "Point"}, "id": "ff26i-AUSvBS_fv7ZQMaGwxKBH4=", "properties": {"@spider": "usps_collection_boxes", "addr:city": "CRESCENT", "addr:country": "US", "addr:full": "136728 MAIN ST", "addr:postcode": "97733", "addr:state": "OR", "brand": "USPS", "collection_times": "Mo-Fr 13:45; Sa 09:30", "name": "USPS COLLECTION BOX - BLUE BOX", "note": "ON 12/24 AND 12/31, THIS BOX MAY BE COLLECTED AS EARLY AS 12 NOON.", "ref": "9773300000"}, "type": "Feature"}
{"geometry": {"coordinates": [-121.694331, 43.462522], "type": "Point"}, "id": "2wwhKQ2_mGH1t9bbz2xFdlnpOWc=", "properties": {"@spider": "usps_collection_boxes", "addr:city": "CRESCENT", "addr:country": "US", "addr:full": "136728 MAIN ST", "addr:postcode": "97733", "addr:state": "OR", "brand": "USPS", "collection_times": "Mo-Fr 13:45; Sa 09:30", "name": "USPS COLLECTION BOX - PO LOBBY", "note": "ON 12/24 AND 12/31, THIS BOX MAY BE COLLECTED AS EARLY AS 12 NOON.", "ref": "9773300001"}, "type": "Feature"}
{"geometry": {"coordinates": [-121.69435428, 43.462590956], "type": "Point"}, "id": "d-J-rWJMmqpiLAAiyztXzsgAS_Y=", "properties": {"@spider": "usps_collection_boxes", "addr:city": "CRESCENT", "addr:country": "US", "addr:full": "136728 MAIN ST", "addr:postcode": "97733", "addr:state": "OR", "brand": "USPS", "collection_times": "Mo-Fr 13:45", "name": "USPS COLLECTION BOX - PO LOBBY", "note": "ON 12/24 AND 12/31, THIS BOX MAY BE COLLECTED AS EARLY AS 12 NOON.", "ref": "9773300004"}, "type": "Feature"}
{"geometry": {"coordinates": [-121.05129, 43.357849], "type": "Point"}, "id": "fISqxDw7TWZBYXzS3CBUYPnLsSk=", "properties": {"@spider": "usps_collection_boxes", "addr:city": "FORT ROCK", "addr:country": "US", "addr:full": "61698 ANTELOPE VISTA DR", "addr:postcode": "97735", "addr:state": "OR", "brand": "USPS", "collection_times": "Mo-Fr 11:45; Sa 09:30", "name": "USPS COLLECTION BOX - BLUE BOX", "ref": "9773500000"}, "type": "Feature"}
{"geometry": {"coordinates": [-121.051253, 43.357849], "type": "Point"}, "id": "vR7EhWns_l5AdMyfvsTu27H-qKA=", "properties": {"@spider": "usps_collection_boxes", "addr:city": "FORT ROCK", "addr:country": "US", "addr:full": "61698 ANTELOPE VISTA DR", "addr:postcode": "97735", "addr:state": "OR", "brand": "USPS", "collection_times": "Mo-Fr 11:45; Sa 09:30", "name": "USPS COLLECTION BOX - PO LOBBY", "ref": "9773500001"}, "type": "Feature"}
{"geometry": {"coordinates": [-121.0512682458, 43.3572128593], "type": "Point"}, "id": "2Mw7uuL_scl4OV0jHE-VMBGrTKk=", "properties": {"@spider": "usps_collection_boxes", "addr:city": "FORT ROCK", "addr:country": "US", "addr:full": "61698 ANTELOPE VISTA DR", "addr:postcode": "97735", "addr:state": "OR", "brand": "USPS", "collection_times": "Mo-Fr 14:30", "name": "USPS COLLECTION BOX - PO LOBBY", "note": "ON 12/24 AND 12/31, THIS BOX MAY BE COLLECTED AS EARLY AS 12 NOON.", "ref": "9773500002"}, "type": "Feature"}
{"geometry": {"coordinates": [-121.687922, 43.477266], "type": "Point"}, "id": "QrtdiycPiI3a_kKCA91ttDd-iJ8=", "properties": {"@spider": "usps_collection_boxes", "addr:city": "GILCHRIST", "addr:country": "US", "addr:full": "138309 HIGHWAY 97 N", "addr:postcode": "97737", "addr:state": "OR", "brand": "USPS", "collection_times": "Mo-Fr 14:00; Sa 09:30", "name": "USPS COLLECTION BOX - BLUE BOX", "note": "ON 12/24 AND 12/31, THIS BOX MAY BE COLLECTED AS EARLY AS 12 NOON.", "ref": "9773700000"}, "type": "Feature"}
{"geometry": {"coordinates": [-121.687940111, 43.477155105], "type": "Point"}, "id": "6Dk7PZLKmnqx-je_Cp6_8MQE-nA=", "properties": {"@spider": "usps_collection_boxes", "addr:city": "GILCHRIST", "addr:country": "US", "addr:full": "138309 HIGHWAY 97 N", "addr:postcode": "97737", "addr:state": "OR", "brand": "USPS", "collection_times": "Mo-Fr 14:00; Sa 09:30", "name": "USPS COLLECTION BOX - PO LOBBY", "note": "ON 12/24 AND 12/31, THIS BOX MAY BE COLLECTED AS EARLY AS 12 NOON.", "ref": "9773700001"}, "type": "Feature"}
{"geometry": {"coordinates": [-121.687940111, 43.477155105], "type": "Point"}, "id": "yqjz5f8Nb-fybLYTTHSc7Ez-YmE=", "properties": {"@spider": "usps_collection_boxes", "addr:city": "GILCHRIST", "addr:country": "US", "addr:full": "138309 HIGHWAY 97 N", "addr:postcode": "97737", "addr:state": "OR", "brand": "USPS", "collection_times": "Mo-Fr 14:00", "name": "USPS COLLECTION BOX - PO LOBBY", "note": "ON 12/24 AND 12/31, THIS BOX MAY BE COLLECTED AS EARLY AS 12 NOON.", "ref": "9773700002"}, "type": "Feature"}
{"geometry": {"coordinates": [-119.084597, 43.560972], "type": "Point"}, "id": "hZ0NS-2eAZB9_rYP5XXGDvwUt8w=", "properties": {"@spider": "usps_collection_boxes", "addr:city": "HINES", "addr:country": "US", "addr:full": "128 SW CIRCLE DR", "addr:postcode": "97738", "addr:state": "OR", "brand": "USPS", "collection_times": "Mo-Fr 11:45; Sa 11:00", "name": "USPS COLLECTION BOX - BLUE BOX", "ref": "9773800000"}, "type": "Feature"}
{"geometry": {"coordinates": [-119.084597, 43.560972], "type": "Point"}, "id": "d4FM886_qTlIPqxZhH7LjmDYREk=", "properties": {"@spider": "usps_collection_boxes", "addr:city": "HINES", "addr:country": "US", "addr:full": "128 SW CIRCLE DR", "addr:postcode": "97738", "addr:state": "OR", "brand": "USPS", "collection_times": "Mo-Fr 11:45; Sa 11:00", "name": "USPS COLLECTION BOX - PO LOBBY", "ref": "9773800001"}, "type": "Feature"}
{"geometry": {"coordinates": [-119.084600035, 43.560966657], "type": "Point"}, "id": "Iz5dqXZ5AP8O4EkH1yUNEICRF1M=", "properties": {"@spider": "usps_collection_boxes", "addr:city": "HINES", "addr:country": "US", "addr:full": "128 SW CIRCLE DR", "addr:postcode": "97738", "addr:state": "OR", "brand": "USPS", "collection_times": "Mo-Fr 11:45", "name": "USPS COLLECTION BOX - PO LOBBY", "ref": "9773800002"}, "type": "Feature"}
{"geometry": {"coordinates": [-121.504063, 43.676412], "type": "Point"}, "id": "Kswu8BwPxS3DirBSCyJUr2KQnZA=", "properties": {"@spider": "usps_collection_boxes", "addr:city": "LAPINE", "addr:country": "US", "addr:full": "51649 HUNTINGTON RD", "addr:postcode": "97739", "addr:state": "OR", "brand": "USPS", "collection_times": "Mo-Fr 14:30; Sa 11:00", "name": "USPS COLLECTION BOX - PO LOBBY", "note": "ON 12/24 AND 12/31, THIS BOX MAY BE COLLECTED AS EARLY AS 12 NOON.", "ref": "9773900001"}, "type": "Feature"}
{"geometry": {"coordinates": [-121.5040940541, 43.6762256259], "type": "Point"}, "id": "sjjiqJVuStJIwZpmkK6O8MN_TAA=", "properties": {"@spider": "usps_collection_boxes", "addr:city": "LAPINE", "addr:country": "US", "addr:full": "51649 HUNTINGTON RD", "addr:postcode": "97739", "addr:state": "OR", "brand": "USPS", "collection_times": "Mo-Sa 14:30", "name": "USPS COLLECTION BOX - BLUE BOX", "note": "ON 12/24 AND 12/31, THIS BOX MAY BE COLLECTED AS EARLY AS 12 NOON.", "ref": "9773900002"}, "type": "Feature"}
{"geometry": {"coordinates": [-121.5040940541, 43.6762256259], "type": "Point"}, "id": "ZajQVuBQH1fFdlfwwkoI7UNbqk0=", "properties": {"@spider": "usps_collection_boxes", "addr:city": "LAPINE", "addr:country": "US", "addr:full": "51649 HUNTINGTON RD", "addr:postcode": "97739", "addr:state": "OR", "brand": "USPS", "collection_times": "Mo-Sa 14:30", "name": "USPS COLLECTION BOX - BLUE BOX", "note": "ON 12/24 AND 12/31, THIS BOX MAY BE COLLECTED AS EARLY AS 12 NOON.", "ref": "9773900003"}, "type": "Feature"}
{"geometry": {"coordinates": [-121.504102329, 43.676189013], "type": "Point"}, "id": "abZyh1wQqDdZwgO3MZJPO0sgES0=", "properties": {"@spider": "usps_collection_boxes", "addr:city": "LAPINE", "addr:country": "US", "addr:full": "51649 HUNTINGTON RD", "addr:postcode": "97739", "addr:state": "OR", "brand": "USPS", "collection_times": "Mo-Fr 14:30", "name": "USPS COLLECTION BOX - PO LOBBY", "note": "ON 12/24 AND 12/31, THIS BOX MAY BE COLLECTED AS EARLY AS 12 NOON.", "ref": "9773900005"}, "type": "Feature"}
{"geometry": {"coordinates": [-121.128193, 44.63512], "type": "Point"}, "id": "H1tUtc7EeQsrDtsNwfHTTkCXegA=", "properties": {"@spider": "usps_collection_boxes", "addr:city": "MADRAS", "addr:country": "US", "addr:full": "73 SE 6TH ST", "addr:postcode": "97741", "addr:state": "OR", "brand": "USPS", "collection_times": "Mo-Sa 14:00", "name": "USPS COLLECTION BOX - BLUE BOX", "note": "ON 12/24 AND 12/31, THIS BOX MAY BE COLLECTED AS EARLY AS 12 NOON.", "ref": "9774100003"}, "type": "Feature"}
{"geometry": {"coordinates": [-121.128193, 44.63512], "type": "Point"}, "id": "jaZLkrbPlYKSScHmHelM6C8ruyg=", "properties": {"@spider": "usps_collection_boxes", "addr:city": "MADRAS", "addr:country": "US", "addr:full": "73 SE 6TH ST", "addr:postcode": "97741", "addr:state": "OR", "brand": "USPS", "collection_times": "Mo-Sa 14:00", "name": "USPS COLLECTION BOX - BLUE BOX", "note": "ON 12/24 AND 12/31, THIS BOX MAY BE COLLECTED AS EARLY AS 12 NOON.", "ref": "9774100004"}, "type": "Feature"}
{"geometry": {"coordinates": [-121.128193, 44.63512], "type": "Point"}, "id": "OT5qlEYRd2vNiYlp_Na_qEaHoms=", "properties": {"@spider": "usps_collection_boxes", "addr:city": "MADRAS", "addr:country": "US", "addr:full": "73 SE 6TH ST", "addr:postcode": "97741", "addr:state": "OR", "brand": "USPS", "collection_times": "Mo-Sa 14:00", "name": "USPS COLLECTION BOX - PO LOBBY", "note": "ON 12/24 AND 12/31, THIS BOX MAY BE COLLECTED AS EARLY AS 12 NOON.", "ref": "9774100005"}, "type": "Feature"}
{"geometry": {"coordinates": [-121.128193, 44.63512], "type": "Point"}, "id": "sAZOijis4_jAc1EGjEMaFuit_GQ=", "properties": {"@spider": "usps_collection_boxes", "addr:city": "MADRAS", "addr:country": "US", "addr:full": "73 SE 6TH ST", "addr:postcode": "97741", "addr:state": "OR", "brand": "USPS", "collection_times": "Mo-Sa 14:00", "name": "USPS COLLECTION BOX - PO LOBBY", "note": "ON 12/24 AND 12/31, THIS BOX MAY BE COLLECTED AS EARLY AS 12 NOON.", "ref": "9774100006"}, "type": "Feature"}
{"geometry": {"coordinates": [-121.130471, 44.634451], "type": "Point"}, "id": "0aFoG_6MEv6S9hh0PYsV-P0BmiE=", "properties": {"@spider": "usps_collection_boxes", "addr:city": "MADRAS", "addr:country": "US", "addr:full": "115 SW 4TH ST", "addr:postcode": "97741", "addr:state": "OR", "brand": "USPS", "collection_times": "Mo-Sa 11:30", "name": "USPS COLLECTION BOX - BLUE BOX", "ref": "9774100008"}, "type": "Feature"}
{"geometry": {"coordinates": [-121.129701, 44.628704], "type": "Point"}, "id": "PIGT8SfZxBCo77VWTKLIkOzGbHw=", "properties": {"@spider": "usps_collection_boxes", "addr:city": "MADRAS", "addr:country": "US", "addr:full": "534 SW 5TH ST", "addr:postcode": "97741", "addr:state": "OR", "brand": "USPS", "collection_times": "Mo-Sa 11:30", "name": "USPS COLLECTION BOX - BLUE BOX", "ref": "9774100009"}, "type": "Feature"}
{"geometry": {"coordinates": [-121.128463168, 44.635008584], "type": "Point"}, "id": "SOP3B628-h6MnkCXd3M2oVlugE4=", "properties": {"@spider": "usps_collection_boxes", "addr:city": "MADRAS", "addr:country": "US", "addr:full": "73 SE 6TH ST", "addr:postcode": "97741", "addr:state": "OR", "brand": "USPS", "collection_times": "Mo-Fr 14:00", "name": "USPS COLLECTION BOX - PO LOBBY", "note": "ON 12/24 AND 12/31, THIS BOX MAY BE COLLECTED AS EARLY AS 12 NOON.", "ref": "9774100010"}, "type": "Feature"}
{"geometry": {"coordinates": [-120.156198, 44.567274], "type": "Point"}, "id": "JDCetpPNCd2S6Z2v14dmDIhSgrk=", "properties": {"@spider": "usps_collection_boxes", "addr:city": "MITCHELL", "addr:country": "US", "addr:full": "212 W MAIN ST", "addr:postcode": "97750", "addr:state": "OR", "brand": "USPS", "collection_times": "Mo-Sa 12:00", "name": "USPS COLLECTION BOX - BLUE BOX", "ref": "9775000000"}, "type": "Feature"}
{"geometry": {"coordinates": [-120.156086, 44.567232], "type": "Point"}, "id": "hazG93e2JAs92dcwOCuY0HyR-xM=", "properties": {"@spider": "usps_collection_boxes", "addr:city": "MITCHELL", "addr:country": "US", "addr:full": "212 W MAIN ST", "addr:postcode": "97750", "addr:state": "OR", "brand": "USPS", "collection_times": "Mo-Sa 12:00", "name": "USPS COLLECTION BOX - PO LOBBY", "ref": "9775000001"}, "type": "Feature"}
{"geometry": {"coordinates": [-120.156340708, 44.567381736], "type": "Point"}, "id": "YwSP14p8GJ9U0EQBd3kzWEINLVo=", "properties": {"@spider": "usps_collection_boxes", "addr:city": "MITCHELL", "addr:country": "US", "addr:full": "212 W MAIN ST", "addr:postcode": "97750", "addr:state": "OR", "brand": "USPS", "collection_times": "Mo-Fr 12:00", "name": "USPS COLLECTION BOX - PO LOBBY", "ref": "9775000002"}, "type": "Feature"}
{"geometry": {"coordinates": [-119.50463, 43.542166], "type": "Point"}, "id": "Br6UAc_Lvd3gf4c_OUmAkwN5Zdw=", "properties": {"@spider": "usps_collection_boxes", "addr:city": "RILEY", "addr:country": "US", "addr:full": "17675 HIGHWAY 20 W", "addr:postcode": "97758", "addr:state": "OR", "brand": "USPS", "collection_times": "Mo-Fr 12:00; Sa 08:30", "name": "USPS COLLECTION BOX - BLUE BOX", "ref": "9775800000"}, "type": "Feature"}
{"geometry": {"coordinates": [-119.50463, 43.542166], "type": "Point"}, "id": "-0cJf9TjcrHVCcspa8CfLL8LyiY=", "properties": {"@spider": "usps_collection_boxes", "addr:city": "RILEY", "addr:country": "US", "addr:full": "17675 HIGHWAY 20 W", "addr:postcode": "97758", "addr:state": "OR", "brand": "USPS", "collection_times": "Mo-Fr 12:00; Sa 08:30", "name": "USPS COLLECTION BOX - PO LOBBY", "ref": "9775800001"}, "type": "Feature"}
{"geometry": {"coordinates": [-119.894965703, 43.568157425], "type": "Point"}, "id": "i_wthkPGe3iZwuojWQIlbsRrcsk=", "properties": {"@spider": "usps_collection_boxes", "addr:city": "RILEY", "addr:country": "US", "addr:full": "105 HIGHWAY 20", "addr:postcode": "97758", "addr:state": "OR", "brand": "USPS", "collection_times": "Mo-Fr 12:45", "name": "USPS COLLECTION BOX - PO LOBBY", "note": "ON 12/24 AND 12/31, THIS BOX MAY BE COLLECTED AS EARLY AS 12 NOON.", "ref": "9775800002"}, "type": "Feature"}
{"geometry": {"coordinates": [-121.546221, 44.296951], "type": "Point"}, "id": "vPpgXJo52zAImLYE7jPbeA9e6u8=", "properties": {"@spider": "usps_collection_boxes", "addr:city": "SISTERS", "addr:country": "US", "addr:full": "694 N LARCH ST", "addr:postcode": "97759", "addr:state": "OR", "brand": "USPS", "collection_times": "Mo-Fr 14:15; Sa 10:00", "name": "USPS COLLECTION BOX - PO LOBBY", "note": "ON 12/24 AND 12/31, THIS BOX MAY BE COLLECTED AS EARLY AS 12 NOON.", "ref": "9775900000"}, "type": "Feature"}
{"geometry": {"coordinates": [-121.545538, 44.296949], "type": "Point"}, "id": "oK7Atxd8aYTuekUFzz7JO0e-nGc=", "properties": {"@spider": "usps_collection_boxes", "addr:city": "SISTERS", "addr:country": "US", "addr:full": "694 N LARCH ST", "addr:postcode": "97759", "addr:state": "OR", "brand": "USPS", "collection_times": "Mo-Fr 14:15; Sa 14:00", "name": "USPS COLLECTION BOX - BLUE BOX", "note": "ON 12/24 AND 12/31, THIS BOX MAY BE COLLECTED AS EARLY AS 12 NOON.", "ref": "9775900002"}, "type": "Feature"}
{"geometry": {"coordinates": [-121.545584, 44.296911], "type": "Point"}, "id": "zvIvS4VvUQLnE_s8ONYsSlFNmHw=", "properties": {"@spider": "usps_collection_boxes", "addr:city": "SISTERS", "addr:country": "US", "addr:full": "694 N LARCH ST", "addr:postcode": "97759", "addr:state": "OR", "brand": "USPS", "collection_times": "Mo-Fr 14:15; Sa 14:00", "name": "USPS COLLECTION BOX - BLUE BOX", "note": "ON 12/24 AND 12/31, THIS BOX MAY BE COLLECTED AS EARLY AS 12 NOON.", "ref": "9775900003"}, "type": "Feature"}
{"geometry": {"coordinates": [-121.54622458, 44.297172], "type": "Point"}, "id": "gBUTR4cpiYDXTv7c7sDtYGmlLdU=", "properties": {"@spider": "usps_collection_boxes", "addr:city": "SISTERS", "addr:country": "US", "addr:full": "694 N LARCH ST", "addr:postcode": "97759", "addr:state": "OR", "brand": "USPS", "collection_times": "Mo-Fr 14:15", "name": "USPS COLLECTION BOX - PO LOBBY", "note": "ON 12/24 AND 12/31, THIS BOX MAY BE COLLECTED AS EARLY AS 12 NOON.", "ref": "9775900004"}, "type": "Feature"}
{"geometry": {"coordinates": [-121.216938452, 44.867160507], "type": "Point"}, "id": "e46A5mISDdZ7xtdWHb8sOkurBkE=", "properties": {"@spider": "usps_collection_boxes", "addr:city": "WARM SPRINGS", "addr:country": "US", "addr:full": "2128 WARM SPRINGS RD", "addr:postcode": "97761", "addr:state": "OR", "brand": "USPS", "collection_times": "Mo-Fr 13:30; Sa 10:00", "name": "USPS COLLECTION BOX - BLUE BOX", "note": "ON 12/24 AND 12/31, THIS BOX MAY BE COLLECTED AS EARLY AS 12 NOON.", "ref": "9776100000"}, "type": "Feature"}
{"geometry": {"coordinates": [-121.27186, 44.76362], "type": "Point"}, "id": "ZM8CpGQT5toDXQvavdP5K6OIMvs=", "properties": {"@spider": "usps_collection_boxes", "addr:city": "WARM SPRINGS", "addr:country": "US", "addr:full": "2128 WARM SPRINGS RD", "addr:postcode": "97761", "addr:state": "OR", "brand": "USPS", "collection_times": "Mo-Fr 13:30; Sa 10:00", "name": "USPS COLLECTION BOX - PO LOBBY", "note": "ON 12/24 AND 12/31, THIS BOX MAY BE COLLECTED AS EARLY AS 12 NOON.", "ref": "9776100001"}, "type": "Feature"}
{"geometry": {"coordinates": [-121.216938452, 44.867160507], "type": "Point"}, "id": "ae9P0o3ZapLyECGXwg4m_wOMp_o=", "properties": {"@spider": "usps_collection_boxes", "addr:city": "WARM SPRINGS", "addr:country": "US", "addr:full": "2128 WARM SPRINGS RD", "addr:postcode": "97761", "addr:state": "OR", "brand": "USPS", "collection_times": "Mo-Fr 13:30", "name": "USPS COLLECTION BOX - PO LOBBY", "note": "ON 12/24 AND 12/31, THIS BOX MAY BE COLLECTED AS EARLY AS 12 NOON.", "ref": "9776100002"}, "type": "Feature"}
