{"geometry": {"coordinates": [-118.807554, 45.666001], "type": "Point"}, "id": "aE0zSJHT5gAcbZ0R5vtnJ2Pp5_g=", "properties": {"@spider": "usps_collection_boxes", "addr:city": "PENDLETON", "addr:country": "US", "addr:full": "201 SW 20TH ST", "addr:postcode": "97801", "addr:state": "OR", "brand": "USPS", "collection_times": "Mo-Sa 12:00", "name": "USPS COLLECTION BOX - BLUE BOX", "ref": "9780100004"}, "type": "Feature"}
{"geometry": {"coordinates": [-118.7829600083, 45.6734499827], "type": "Point"}, "id": "9k1HySBl5MdEmg25vp1Kq1cNqkY=", "properties": {"@spider": "usps_collection_boxes", "addr:city": "PENDLETON", "addr:country": "US", "addr:full": "216 SE 4TH ST", "addr:postcode": "97801", "addr:state": "OR", "brand": "USPS", "collection_times": "Mo-Fr 12:00", "name": "USPS COLLECTION BOX - BLUE BOX", "ref": "9780100005"}, "type": "Feature"}
{"geometry": {"coordinates": [-118.778849, 45.672871], "type": "Point"}, "id": "kkLBq4Zj-UHODxUz7snv-cXsLf8=", "properties": {"@spider": "usps_collection_boxes", "addr:city": "PENDLETON", "addr:country": "US", "addr:full": "700 SE EMIGRANT AVE", "addr:postcode": "97801", "addr:state": "OR", "brand": "USPS", "collection_times": "Mo-Fr 12:00", "name": "USPS COLLECTION BOX - BLUE BOX", "ref": "9780100010"}, "type": "Feature"}
{"geometry": {"coordinates": [-118.788509, 45.671196], "type": "Point"}, "id": "DICFA9_rIr9fIQgqjGrNa9ftvB4=", "properties": {"@spider": "usps_collection_boxes", "addr:city": "PENDLETON", "addr:country": "US", "addr:full": "104 SW DORION AVE", "addr:postcode": "97801", "addr:state": "OR", "brand": "USPS", "collection_times": "Mo-Sa 14:30", "name": "USPS COLLECTION BOX - BLUE BOX", "note": "ON 12/24 AND 12/31, THIS BOX MAY BE COLLECTED AS EARLY AS 12 NOON.", "ref": "9780100018"}, "type": "Feature"}
{"geometry": {"coordinates": [-118.788053, 45.671079], "type": "Point"}, "id": "VrEvTfqs_M7HDMXbHRX3-RUXgsA=", "properties": {"@spider": "usps_collection_boxes", "addr:city": "PENDLETON", "addr:country": "US", "addr:full": "104 SW DORION AVE", "addr:postcode": "97801", "addr:state": "OR", "brand": "USPS", "collection_times": "Mo-Sa 14:30", "name": "USPS COLLECTION BOX - BLUE BOX", "note": "ON 12/24 AND 12/31, THIS BOX MAY BE COLLECTED AS EARLY AS 12 NOON.", "ref": "9780100019"}, "type": "Feature"}
{"geometry": {"coordinates": [-118.788053, 45.671079], "type": "Point"}, "id": "gcNIhRHshrmK_qnBsojDFkH12HY=", "properties": {"@spider": "usps_collection_boxes", "addr:city": "PENDLETON", "addr:country": "US", "addr:full": "104 SW DORION AVE", "addr:postcode": "97801", "addr:state": "OR", "brand": "USPS", "collection_times": "Mo-Sa 14:30", "name": "USPS COLLECTION BOX - BLUE BOX", "note": "ON 12/24 AND 12/31, THIS BOX MAY BE COLLECTED AS EARLY AS 12 NOON.", "ref": "9780100020"}, "type": "Feature"}
{"geometry": {"coordinates": [-118.788053, 45.671079], "type": "Point"}, "id": "T40PUk6Pnh0dtTlY3HY8Hj6Ybv0=", "properties": {"@spider": "usps_collection_boxes", "addr:city": "PENDLETON", "addr:country": "US", "addr:full": "104 SW DORION AVE", "addr:postcode": "97801", "addr:state": "OR", "brand": "USPS", "collection_times": "Mo-Sa 14:30", "name": "USPS COLLECTION BOX - BLUE BOX", "note": "ON 12/24 AND 12/31, THIS BOX MAY BE COLLECTED AS EARLY AS 12 NOON.", "ref": "9780100021"}, "type": "Feature"}
{"geometry": {"coordinates": [-118.791547, 45.669875], "type": "Point"}, "id": "1McjGeeLCaJc7zsM_y89vI4WmRc=", "properties": {"@spider": "usps_collection_boxes", "addr:city": "PENDLETON", "addr:country": "US", "addr:full": "500 SW DORION AVE", "addr:postcode": "97801", "addr:state": "OR", "brand": "USPS", "collection_times": "Mo-Sa 12:00", "name": "USPS COLLECTION BOX - BLUE BOX", "ref": "9780100022"}, "type": "Feature"}
{"geometry": {"coordinates": [-118.788053, 45.671079], "type": "Point"}, "id": "KaMV0_N1mh-P4yb0mvuLcuNJMIY=", "properties": {"@spider": "usps_collection_boxes", "addr:city": "PENDLETON", "addr:country": "US", "addr:full": "104 SW DORION AVE", "addr:postcode": "97801", "addr:state": "OR", "brand": "USPS", "collection_times": "Mo-Sa 14:30", "name": "USPS COLLECTION BOX - PO LOBBY", "note": "ON 12/24 AND 12/31, THIS BOX MAY BE COLLECTED AS EARLY AS 12 NOON.", "ref": "9780100025"}, "type": "Feature"}
{"geometry": {"coordinates": [-118.788059977, 45.670980004], "type": "Point"}, "id": "ZuUFqgcYO29Vmw_EpS3O9LryDCM=", "properties": {"@spider": "usps_collection_boxes", "addr:city": "PENDLETON", "addr:country": "US", "addr:full": "104 SW DORION AVE", "addr:postcode": "97801", "addr:state": "OR", "brand": "USPS", "collection_times": "Mo-Sa 14:30", "name": "USPS COLLECTION BOX - BLUE BOX", "note": "ON 12/24 AND 12/31, THIS BOX MAY BE COLLECTED AS EARLY AS 12 NOON.", "ref": "9780100026"}, "type": "Feature"}
{"geometry": {"coordinates": [-118.782982, 45.673718], "type": "Point"}, "id": "EAD76tIWhID0Tv0GDwSqRfcztcA=", "properties": {"@spider": "usps_collection_boxes", "addr:city": "PENDLETON", "addr:country": "US", "addr:full": "216 SE 4TH ST", "addr:postcode": "97801", "addr:state": "OR", "brand": "USPS", "collection_times": "Mo-Fr 12:00", "name": "USPS COLLECTION BOX - BLUE BOX", "ref": "9780100033"}, "type": "Feature"}
{"geometry": {"coordinates": [-118.788183624, 45.67123005], "type": "Point"}, "id": "KDnLkWSLZdqiKTV2t6iBRaDovSA=", "properties": {"@spider": "usps_collection_boxes", "addr:city": "PENDLETON", "addr:country": "US", "addr:full": "104 SW DORION AVE", "addr:postcode": "97801", "addr:state": "OR", "brand": "USPS", "collection_times": "Mo-Fr 15:30; Sa 13:00", "name": "USPS COLLECTION BOX - PO LOBBY", "note": "ON 12/24 AND 12/31, THIS BOX MAY BE COLLECTED AS EARLY AS 12 NOON.", "ref": "9780100034"}, "type": "Feature"}
{"geometry": {"coordinates": [-118.557496, 45.767489], "type": "Point"}, "id": "ysAAqQ_VkSssnjo4Q19GX22bfRY=", "properties": {"@spider": "usps_collection_boxes", "addr:city": "ADAMS", "addr:country": "US", "addr:full": "230 OLD HWY 11", "addr:postcode": "97810", "addr:state": "OR", "brand": "USPS", "collection_times": "Mo-Sa 13:50", "name": "USPS COLLECTION BOX - BLUE BOX", "note": "ON 12/24 AND 12/31, THIS BOX MAY BE COLLECTED AS EARLY AS 12 NOON.", "ref": "9781000000"}, "type": "Feature"}
{"geometry": {"coordinates": [-118.557501, 45.767534], "type": "Point"}, "id": "l5JMkRQPPiTuVTRtBfiZmuNWajM=", "properties": {"@spider": "usps_collection_boxes", "addr:city": "ADAMS", "addr:country": "US", "addr:full": "230 OLD HWY 11", "addr:postcode": "97810", "addr:state": "OR", "brand": "USPS", "collection_times": "Mo-Fr 13:50; Sa 13:00", "name": "USPS COLLECTION BOX - PO LOBBY", "note": "ON 12/24 AND 12/31, THIS BOX MAY BE COLLECTED AS EARLY AS 12 NOON.", "ref": "9781000001"}, "type": "Feature"}
{"geometry": {"coordinates": [-118.556628365, 45.768041009], "type": "Point"}, "id": "_6pQKakWf6ns2uKKgcf6i2Ek-XA=", "properties": {"@spider": "usps_collection_boxes", "addr:city": "ADAMS", "addr:country": "US", "addr:full": "230 OLD HWY 11", "addr:postcode": "97810", "addr:state": "OR", "brand": "USPS", "collection_times": "Mo-Fr 14:00", "name": "USPS COLLECTION BOX - PO LOBBY", "note": "ON 12/24 AND 12/31, THIS BOX MAY BE COLLECTED AS EARLY AS 12 NOON.", "ref": "9781000002"}, "type": "Feature"}
{"geometry": {"coordinates": [-120.2174199981, 45.5449833939], "type": "Point"}, "id": "i2GQSNjLsPfAlYqVUhw2cwu-qSU=", "properties": {"@spider": "usps_collection_boxes", "addr:city": "ARLINGTON", "addr:country": "US", "addr:full": "300 ARLINGTON MALL", "addr:postcode": "97812", "addr:state": "OR", "brand": "USPS", "collection_times": "Mo-Sa 10:45", "name": "USPS COLLECTION BOX - BLUE BOX", "ref": "9781200000"}, "type": "Feature"}
{"geometry": {"coordinates": [-120.2270463882, 45.6142668127], "type": "Point"}, "id": "Z3YA3xj-p9iEnarkaWZFrW7yiJY=", "properties": {"@spider": "usps_collection_boxes", "addr:city": "ARLINGTON", "addr:country": "US", "addr:full": "300 ARLINGTON MALL", "addr:postcode": "97812", "addr:state": "OR", "brand": "USPS", "collection_times": "Mo-Fr 10:45; Sa 10:00", "name": "USPS COLLECTION BOX - PO LOBBY", "ref": "9781200001"}, "type": "Feature"}
{"geometry": {"coordinates": [-120.2270463882, 45.6142668127], "type": "Point"}, "id": "JF4Xguq-RhDcNnGAmHZS5fgNhhA=", "properties": {"@spider": "usps_collection_boxes", "addr:city": "ARLINGTON", "addr:country": "US", "addr:full": "300 ARLINGTON MALL", "addr:postcode": "97812", "addr:state": "OR", "brand": "USPS", "collection_times": "Mo-Fr 10:45; Sa 10:00", "name": "USPS COLLECTION BOX - PO LOBBY", "ref": "9781200002"}, "type": "Feature"}
{"geometry": {"coordinates": [-120.20282034, 45.720512503], "type": "Point"}, "id": "PyaIEI2ByfVed7Ks2NNk2HpcpL0=", "properties": {"@spider": "usps_collection_boxes", "addr:city": "ARLINGTON", "addr:country": "US", "addr:full": "300 ARLINGTON MALL", "addr:postcode": "97812", "addr:state": "OR", "brand": "USPS", "collection_times": "Mo-Fr 11:00", "name": "USPS COLLECTION BOX - PO LOBBY", "ref": "9781200003"}, "type": "Feature"}
{"geometry": {"coordinates": [-119.703192, 45.83988], "type": "Point"}, "id": "TssKSr3-v2Us2IUySHnuy4bV49A=", "properties": {"@spider": "usps_collection_boxes", "addr:city": "BOARDMAN", "addr:country": "US", "addr:full": "200 NW 1ST ST", "addr:postcode": "97818", "addr:state": "OR", "brand": "USPS", "collection_times": "Mo-Sa 11:30", "name": "USPS COLLECTION BOX - BLUE BOX", "ref": "9781800000"}, "type": "Feature"}
{"geometry": {"coordinates": [-119.703192, 45.83988], "type": "Point"}, "id": "__FfttZ2l5oRvMVMP1l6tW7sAzQ=", "properties": {"@spider": "usps_collection_boxes", "addr:city": "BOARDMAN", "addr:country": "US", "addr:full": "200 NW 1ST ST", "addr:postcode": "97818", "addr:state": "OR", "brand": "USPS", "collection_times": "Mo-Fr 11:30; Sa 09:00", "name": "USPS COLLECTION BOX - PO LOBBY", "ref": "9781800001"}, "type": "Feature"}
{"geometry": {"coordinates": [-119.703257484, 45.840097551], "type": "Point"}, "id": "_zqRN9dIMbTaQW5FGuxOMVlcmYE=", "properties": {"@spider": "usps_collection_boxes", "addr:city": "BOARDMAN", "addr:country": "US", "addr:full": "200 NW 1ST ST", "addr:postcode": "97818", "addr:state": "OR", "brand": "USPS", "collection_times": "Mo-Fr 11:30", "name": "USPS COLLECTION BOX - PO LOBBY", "ref": "9781800002"}, "type": "Feature"}
{"geometry": {"coordinates": [-120.184721, 45.234321], "type": "Point"}, "id": "ueG4Oh1oKk1zNzcyJ-nHs6-tr8A=", "properties": {"@spider": "usps_collection_boxes", "addr:city": "CONDON", "addr:country": "US", "addr:full": "330 S MAIN ST", "addr:postcode": "97823", "addr:state": "OR", "brand": "USPS", "collection_times": "Mo-Fr 11:00; Sa 09:30", "name": "USPS COLLECTION BOX - BLUE BOX", "ref": "9782300000"}, "type": "Feature"}
{"geometry": {"coordinates": [-120.184721, 45.234321], "type": "Point"}, "id": "nExr1yr0wHLjbkwfsZ_mgdI1-lk=", "properties": {"@spider": "usps_collection_boxes", "addr:city": "CONDON", "addr:country": "US", "addr:full": "330 S MAIN ST", "addr:postcode": "97823", "addr:state": "OR", "brand": "USPS", "collection_times": "Mo-Fr 11:00; Sa 09:30", "name": "USPS COLLECTION BOX - PO LOBBY", "ref": "9782300001"}, "type": "Feature"}
{"geometry": {"coordinates": [-120.184722552, 45.234320636], "type": "Point"}, "id": "jZEwbBrqf6B96zQAGRIfIyP2A-c=", "properties": {"@spider": "usps_collection_boxes", "addr:city": "CONDON", "addr:country": "US", "addr:full": "330 S MAIN ST", "addr:postcode": "97823", "addr:state": "OR", "brand": "USPS", "collection_times": "Mo-Fr 11:00", "name": "USPS COLLECTION BOX - PO LOBBY", "ref": "9782300002"}, "type": "Feature"}
{"geometry": {"coordinates": [-119.196494, 45.742138], "type": "Point"}, "id": "1SLv0i6gDN9hPgGOWDtm-8ClgNk=", "properties": {"@spider": "usps_collection_boxes", "addr:city": "ECHO", "addr:country": "US", "addr:full": "130 W MAIN", "addr:postcode": "97826", "addr:state": "OR", "brand": "USPS", "collection_times": "Mo-Sa 13:45", "name": "USPS COLLECTION BOX - BLUE BOX", "note": "ON 12/24 AND 12/31, THIS BOX MAY BE COLLECTED AS EARLY AS 12 NOON.", "ref": "9782600000"}, "type": "Feature"}
{"geometry": {"coordinates": [-119.196494, 45.742138], "type": "Point"}, "id": "LTgrYDsIH8OYB0tn7y7aToQWifA=", "properties": {"@spider": "usps_collection_boxes", "addr:city": "ECHO", "addr:country": "US", "addr:full": "130 W MAIN", "addr:postcode": "97826", "addr:state": "OR", "brand": "USPS", "collection_times": "Mo-Fr 13:45", "name": "USPS COLLECTION BOX - PO LOBBY", "note": "ON 12/24 AND 12/31, THIS BOX MAY BE COLLECTED AS EARLY AS 12 NOON.", "ref": "9782600001"}, "type": "Feature"}
{"geometry": {"coordinates": [-119.196441, 45.742325481], "type": "Point"}, "id": "Ibcvnnj_fB9WSW2GyvpDcf6YsCM=", "properties": {"@spider": "usps_collection_boxes", "addr:city": "ECHO", "addr:country": "US", "addr:full": "130 W MAIN", "addr:postcode": "97826", "addr:state": "OR", "brand": "USPS", "collection_times": "Mo-Fr 13:45", "name": "USPS COLLECTION BOX - PO LOBBY", "note": "ON 12/24 AND 12/31, THIS BOX MAY BE COLLECTED AS EARLY AS 12 NOON.", "ref": "9782600002"}, "type": "Feature"}
{"geometry": {"coordinates": [-120.213671, 44.999169], "type": "Point"}, "id": "wSxGXcHEEL1itSXLFnwun6GD1A4=", "properties": {"@spider": "usps_collection_boxes", "addr:city": "FOSSIL", "addr:country": "US", "addr:full": "606 MAIN ST", "addr:postcode": "97830", "addr:state": "OR", "brand": "USPS", "collection_times": "Mo-Sa 10:15", "name": "USPS COLLECTION BOX - BLUE BOX", "ref": "9783000000"}, "type": "Feature"}
{"geometry": {"coordinates": [-120.213671, 44.999169], "type": "Point"}, "id": "MyYcNjK5dc3AGsgQwZEXAAYYHc8=", "properties": {"@spider": "usps_collection_boxes", "addr:city": "FOSSIL", "addr:country": "US", "addr:full": "606 MAIN ST", "addr:postcode": "97830", "addr:state": "OR", "brand": "USPS", "collection_times": "Mo-Sa 10:15", "name": "USPS COLLECTION BOX - PO LOBBY", "ref": "9783000001"}, "type": "Feature"}
{"geometry": {"coordinates": [-120.213672629, 44.999145], "type": "Point"}, "id": "i1rCpWPcFjO28JYFLjpyS9I9Ssw=", "properties": {"@spider": "usps_collection_boxes", "addr:city": "FOSSIL", "addr:country": "US", "addr:full": "606 MAIN ST", "addr:postcode": "97830", "addr:state": "OR", "brand": "USPS", "collection_times": "Mo-Fr 10:15", "name": "USPS COLLECTION BOX - PO LOBBY", "ref": "9783000002"}, "type": "Feature"}
{"geometry": {"coordinates": [-118.65619, 45.850521], "type": "Point"}, "id": "MDeA5MuVupiQjkS5N9uqwM0qC-s=", "properties": {"@spider": "usps_collection_boxes", "addr:city": "HELIX", "addr:country": "US", "addr:full": "209 CONCORD ST", "addr:postcode": "97835", "addr:state": "OR", "brand": "USPS", "collection_times": "Mo-Fr 13:00; Sa 12:30", "name": "USPS COLLECTION BOX - PO LOBBY", "note": "ON 12/24 AND 12/31, THIS BOX MAY BE COLLECTED AS EARLY AS 12 NOON.", "ref": "9783500000"}, "type": "Feature"}
{"geometry": {"coordinates": [-118.656193202, 45.850522507], "type": "Point"}, "id": "oB0S-mXRw8ks49g_xYcGboh6k6c=", "properties": {"@spider": "usps_collection_boxes", "addr:city": "HELIX", "addr:country": "US", "addr:full": "209 CONCORD ST", "addr:postcode": "97835", "addr:state": "OR", "brand": "USPS", "collection_times": "Mo-Fr 13:00", "name": "USPS COLLECTION BOX - PO LOBBY", "note": "ON 12/24 AND 12/31, THIS BOX MAY BE COLLECTED AS EARLY AS 12 NOON.", "ref": "9783500001"}, "type": "Feature"}
{"geometry": {"coordinates": [-119.553653, 45.354132], "type": "Point"}, "id": "Qaj6Rv0ItM0UFWgislNLxHq93SA=", "properties": {"@spider": "usps_collection_boxes", "addr:city": "HEPPNER", "addr:country": "US", "addr:full": "173 N MAIN ST", "addr:postcode": "97836", "addr:state": "OR", "brand": "USPS", "collection_times": "Mo-Sa 12:15", "name": "USPS COLLECTION BOX - BLUE BOX", "note": "ON 12/24 AND 12/31, THIS BOX MAY BE COLLECTED AS EARLY AS 12 NOON.", "ref": "9783600000"}, "type": "Feature"}
{"geometry": {"coordinates": [-119.686647, 45.447633], "type": "Point"}, "id": "lds1sRTuMTSP8wWHElRYdb6N4RE=", "properties": {"@spider": "usps_collection_boxes", "addr:city": "HEPPNER", "addr:country": "US", "addr:full": "340 E MAIN ST", "addr:postcode": "97836", "addr:state": "OR", "brand": "USPS", "collection_times": "Mo-Sa 12:00", "name": "USPS COLLECTION BOX - BLUE BOX", "ref": "9783600001"}, "type": "Feature"}
{"geometry": {"coordinates": [-119.553529, 45.354227], "type": "Point"}, "id": "ujDlaJ9EJx5vCjKLiJQu2LQWpdo=", "properties": {"@spider": "usps_collection_boxes", "addr:city": "HEPPNER", "addr:country": "US", "addr:full": "173 N MAIN ST", "addr:postcode": "97836", "addr:state": "OR", "brand": "USPS", "collection_times": "Mo-Fr 12:15; Sa 10:30", "name": "USPS COLLECTION BOX - PO LOBBY", "note": "ON 12/24 AND 12/31, THIS BOX MAY BE COLLECTED AS EARLY AS 12 NOON.", "ref": "9783600003"}, "type": "Feature"}
{"geometry": {"coordinates": [-119.553529, 45.354227], "type": "Point"}, "id": "dDhDoatxZwc8JQR4ggkHOhV1gE0=", "properties": {"@spider": "usps_collection_boxes", "addr:city": "HEPPNER", "addr:country": "US", "addr:full": "173 N MAIN ST", "addr:postcode": "97836", "addr:state": "OR", "brand": "USPS", "collection_times": "Mo-Fr 12:15; Sa 10:30", "name": "USPS COLLECTION BOX - PO LOBBY", "note": "ON 12/24 AND 12/31, THIS BOX MAY BE COLLECTED AS EARLY AS 12 NOON.", "ref": "9783600004"}, "type": "Feature"}
{"geometry": {"coordinates": [-119.554493465, 45.359789395], "type": "Point"}, "id": "q4liO4kjS1VRT_2_qgOQlmtfUYM=", "properties": {"@spider": "usps_collection_boxes", "addr:city": "HEPPNER", "addr:country": "US", "addr:full": "173 N MAIN ST", "addr:postcode": "97836", "addr:state": "OR", "brand": "USPS", "collection_times": "Mo-Fr 12:15", "name": "USPS COLLECTION BOX - PO LOBBY", "note": "ON 12/24 AND 12/31, THIS BOX MAY BE COLLECTED AS EARLY AS 12 NOON.", "ref": "9783600005"}, "type": "Feature"}
{"geometry": {"coordinates": [-119.301918, 45.849866], "type": "Point"}, "id": "L8ZFdb4Pcxkh1QyL7wA9gi5WfBc=", "properties": {"@spider": "usps_collection_boxes", "addr:city": "HERMISTON", "addr:country": "US", "addr:full": "750 W ELM AVE", "addr:postcode": "97838", "addr:state": "OR", "brand": "USPS", "collection_times": "Mo-Fr 12:00", "name": "USPS COLLECTION BOX - BLUE BOX", "ref": "9783800001"}, "type": "Feature"}
{"geometry": {"coordinates": [-119.285017, 45.840868], "type": "Point"}, "id": "Gez5o71jDta-Z9kGvSx0fNAV4J8=", "properties": {"@spider": "usps_collection_boxes", "addr:city": "HERMISTON", "addr:country": "US", "addr:full": "411 E MAIN ST", "addr:postcode": "97838", "addr:state": "OR", "brand": "USPS", "collection_times": "Mo-Fr 12:00", "name": "USPS COLLECTION BOX - BLUE BOX", "ref": "9783800003"}, "type": "Feature"}
{"geometry": {"coordinates": [-119.2819321676, 45.840409514], "type": "Point"}, "id": "XZu4-I13LAEERpLbjC9cBPVOB_E=", "properties": {"@spider": "usps_collection_boxes", "addr:city": "HERMISTON", "addr:country": "US", "addr:full": "582 E MAIN ST", "addr:postcode": "97838", "addr:state": "OR", "brand": "USPS", "collection_times": "Mo-Fr 12:00", "name": "USPS COLLECTION BOX - BLUE BOX", "ref": "9783800008"}, "type": "Feature"}
{"geometry": {"coordinates": [-119.293365, 45.838458], "type": "Point"}, "id": "kfdP-dWGjYlbSFki2XadxaM4ybY=", "properties": {"@spider": "usps_collection_boxes", "addr:city": "HERMISTON", "addr:country": "US", "addr:full": "375 W ORCHARD AVE", "addr:postcode": "97838", "addr:state": "OR", "brand": "USPS", "collection_times": "Mo-Sa 12:45", "name": "USPS COLLECTION BOX - BLUE BOX", "note": "ON 12/24 AND 12/31, THIS BOX MAY BE COLLECTED AS EARLY AS 12 NOON.", "ref": "9783800009"}, "type": "Feature"}
{"geometry": {"coordinates": [-119.293365, 45.838458], "type": "Point"}, "id": "8wIEnH8bogHYPAo8JgDA-L4Nc34=", "properties": {"@spider": "usps_collection_boxes", "addr:city": "HERMISTON", "addr:country": "US", "addr:full": "375 W ORCHARD AVE", "addr:postcode": "97838", "addr:state": "OR", "brand": "USPS", "collection_times": "Mo-Sa 12:45", "name": "USPS COLLECTION BOX - BLUE BOX", "note": "ON 12/24 AND 12/31, THIS BOX MAY BE COLLECTED AS EARLY AS 12 NOON.", "ref": "9783800010"}, "type": "Feature"}
{"geometry": {"coordinates": [-119.293365, 45.838458], "type": "Point"}, "id": "QYfXsTETohzkArFYgcmDJQex9nk=", "properties": {"@spider": "usps_collection_boxes", "addr:city": "HERMISTON", "addr:country": "US", "addr:full": "375 W ORCHARD AVE", "addr:postcode": "97838", "addr:state": "OR", "brand": "USPS", "collection_times": "Mo-Sa 12:45", "name": "USPS COLLECTION BOX - BLUE BOX", "note": "ON 12/24 AND 12/31, THIS BOX MAY BE COLLECTED AS EARLY AS 12 NOON.", "ref": "9783800014"}, "type": "Feature"}
{"geometry": {"coordinates": [-119.293339, 45.838402], "type": "Point"}, "id": "Nhf1fxQTdT9qCs_mnzn6U3-V-jo=", "properties": {"@spider": "usps_collection_boxes", "addr:city": "HERMISTON", "addr:country": "US", "addr:full": "375 W ORCHARD AVE", "addr:postcode": "97838", "addr:state": "OR", "brand": "USPS", "collection_times": "Mo-Sa 12:45", "name": "USPS COLLECTION BOX - PO LOBBY", "note": "ON 12/24 AND 12/31, THIS BOX MAY BE COLLECTED AS EARLY AS 12 NOON.", "ref": "9783800017"}, "type": "Feature"}
{"geometry": {"coordinates": [-119.293365, 45.838458], "type": "Point"}, "id": "p4Wy9f-O3A-_WSvwnsrvTsghviE=", "properties": {"@spider": "usps_collection_boxes", "addr:city": "HERMISTON", "addr:country": "US", "addr:full": "375 W ORCHARD AVE", "addr:postcode": "97838", "addr:state": "OR", "brand": "USPS", "collection_times": "Mo-Sa 12:45", "name": "USPS COLLECTION BOX - BLUE BOX", "note": "ON 12/24 AND 12/31, THIS BOX MAY BE COLLECTED AS EARLY AS 12 NOON.", "ref": "9783800019"}, "type": "Feature"}
{"geometry": {"coordinates": [-119.293385, 45.838404], "type": "Point"}, "id": "u6sZ8t1kJdz4BeH92lIp3w2R5PM=", "properties": {"@spider": "usps_collection_boxes", "addr:city": "HERMISTON", "addr:country": "US", "addr:full": "375 W ORCHARD AVE", "addr:postcode": "97838", "addr:state": "OR", "brand": "USPS", "collection_times": "Mo-Sa 12:45", "name": "USPS COLLECTION BOX - PO LOBBY", "note": "ON 12/24 AND 12/31, THIS BOX MAY BE COLLECTED AS EARLY AS 12 NOON.", "ref": "9783800020"}, "type": "Feature"}
{"geometry": {"coordinates": [-119.293482675, 45.838795016], "type": "Point"}, "id": "BIIuJihyZotuDK7KLoTxFRUvCkE=", "properties": {"@spider": "usps_collection_boxes", "addr:city": "HERMISTON", "addr:country": "US", "addr:full": "375 W ORCHARD AVE", "addr:postcode": "97838", "addr:state": "OR", "brand": "USPS", "collection_times": "Mo-Fr 12:45", "name": "USPS COLLECTION BOX - PO LOBBY", "note": "ON 12/24 AND 12/31, THIS BOX MAY BE COLLECTED AS EARLY AS 12 NOON.", "ref": "9783800021"}, "type": "Feature"}
{"geometry": {"coordinates": [-119.82668, 45.501342], "type": "Point"}, "id": "kFdOQI5Ik5aMY-IRtPXD_Snwj8w=", "properties": {"@spider": "usps_collection_boxes", "addr:city": "IONE", "addr:country": "US", "addr:full": "180 W MAIN ST", "addr:postcode": "97843", "addr:state": "OR", "brand": "USPS", "collection_times": "Mo-Fr 12:00; Sa 09:30", "name": "USPS COLLECTION BOX - BLUE BOX", "ref": "9784300000"}, "type": "Feature"}
{"geometry": {"coordinates": [-119.82668, 45.501342], "type": "Point"}, "id": "YpNNWf3I0HfjTwr8h15X3FdIMg0=", "properties": {"@spider": "usps_collection_boxes", "addr:city": "IONE", "addr:country": "US", "addr:full": "180 W MAIN ST", "addr:postcode": "97843", "addr:state": "OR", "brand": "USPS", "collection_times": "Mo-Fr 12:00; Sa 09:30", "name": "USPS COLLECTION BOX - PO LOBBY", "ref": "9784300001"}, "type": "Feature"}
{"geometry": {"coordinates": [-119.8266842515, 45.5013395323], "type": "Point"}, "id": "bhoPB9O-68nVUibN8C2tw2_0lOo=", "properties": {"@spider": "usps_collection_boxes", "addr:city": "IONE", "addr:country": "US", "addr:full": "180 W MAIN ST", "addr:postcode": "97843", "addr:state": "OR", "brand": "USPS", "collection_times": "Mo-Fr 12:00", "name": "USPS COLLECTION BOX - PO LOBBY", "ref": "9784300002"}, "type": "Feature"}
{"geometry": {"coordinates": [-119.497648, 45.895544], "type": "Point"}, "id": "k-8H-p7a8gMRXbc3I2UXJsfmpNE=", "properties": {"@spider": "usps_collection_boxes", "addr:city": "IRRIGON", "addr:country": "US", "addr:full": "300 NE MAIN AVE", "addr:postcode": "97844", "addr:state": "OR", "brand": "USPS", "collection_times": "Mo-Fr 11:45", "name": "USPS COLLECTION BOX - PO LOBBY", "ref": "9784400001"}, "type": "Feature"}
{"geometry": {"coordinates": [-119.497648, 45.895544], "type": "Point"}, "id": "3Tl5eSNUVIhgLVYEw2TWRucjvmM=", "properties": {"@spider": "usps_collection_boxes", "addr:city": "IRRIGON", "addr:country": "US", "addr:full": "300 NE MAIN AVE", "addr:postcode": "97844", "addr:state": "OR", "brand": "USPS", "collection_times": "Mo-Sa 11:45", "name": "USPS COLLECTION BOX - BLUE BOX", "ref": "9784400002"}, "type": "Feature"}
{"geometry": {"coordinates": [-119.497698769, 45.895483736], "type": "Point"}, "id": "hvoK0c0PxbHknfefWuOnmH-5B_U=", "properties": {"@spider": "usps_collection_boxes", "addr:city": "IRRIGON", "addr:country": "US", "addr:full": "300 NE MAIN AVE", "addr:postcode": "97844", "addr:state": "OR", "brand": "USPS", "collection_times": "Mo-Fr 11:45", "name": "USPS COLLECTION BOX - PO LOBBY", "ref": "9784400003"}, "type": "Feature"}
{"geometry": {"coordinates": [-119.643339, 44.758885], "type": "Point"}, "id": "ic4yLTxUGfe78T5Oldm9VgtyfOM=", "properties": {"@spider": "usps_collection_boxes", "addr:city": "KIMBERLY", "addr:country": "US", "addr:full": "41345 HWY 19", "addr:postcode": "97848", "addr:state": "OR", "brand": "USPS", "collection_times": "Mo-Fr 13:00; Sa 11:15", "name": "USPS COLLECTION BOX - PO LOBBY", "note": "ON 12/24 AND 12/31, THIS BOX MAY BE COLLECTED AS EARLY AS 12 NOON.", "ref": "9784800000"}, "type": "Feature"}
{"geometry": {"coordinates": [-119.643339, 44.758885], "type": "Point"}, "id": "dO2HVBgMMgQABPobGnhnFeySGgg=", "properties": {"@spider": "usps_collection_boxes", "addr:city": "KIMBERLY", "addr:country": "US", "addr:full": "41345 HWY 19", "addr:postcode": "97848", "addr:state": "OR", "brand": "USPS", "collection_times": "Mo-Fr 13:00; Sa 11:15", "name": "USPS COLLECTION BOX - PO LOBBY", "note": "ON 12/24 AND 12/31, THIS BOX MAY BE COLLECTED AS EARLY AS 12 NOON.", "ref": "9784800001"}, "type": "Feature"}
{"geometry": {"coordinates": [-119.64334099, 44.75888436], "type": "Point"}, "id": "vHunhR1AGwwpPAFJXdjSHI_mC_g=", "properties": {"@spider": "usps_collection_boxes", "addr:city": "KIMBERLY", "addr:country": "US", "addr:full": "41345 HWY 19 STE B", "addr:postcode": "97848", "addr:state": "OR", "brand": "USPS", "collection_times": "Mo-Fr 13:30; Sa 11:30", "name": "USPS COLLECTION BOX - PO LOBBY", "note": "ON 12/24 AND 12/31, THIS BOX MAY BE COLLECTED AS EARLY AS 12 NOON.", "ref": "9784800002"}, "type": "Feature"}
{"geometry": {"coordinates": [-119.419149, 44.820239], "type": "Point"}, "id": "0__CGpS4TVgvObThlBSSgkE1VK0=", "properties": {"@spider": "usps_collection_boxes", "addr:city": "MONUMENT", "addr:country": "US", "addr:full": "177 NORTH ST", "addr:postcode": "97864", "addr:state": "OR", "brand": "USPS", "collection_times": "Mo-Fr 13:30; Sa 13:00", "name": "USPS COLLECTION BOX - BLUE BOX", "note": "ON 12/24 AND 12/31, THIS BOX MAY BE COLLECTED AS EARLY AS 12 NOON.", "ref": "9786400000"}, "type": "Feature"}
{"geometry": {"coordinates": [-119.419149, 44.820239], "type": "Point"}, "id": "eWGXV15kds2yFvNo2FPjA8nyaVs=", "properties": {"@spider": "usps_collection_boxes", "addr:city": "MONUMENT", "addr:country": "US", "addr:full": "177 NORTH ST", "addr:postcode": "97864", "addr:state": "OR", "brand": "USPS", "collection_times": "Mo-Fr 14:10; Sa 11:15", "name": "USPS COLLECTION BOX - PO LOBBY", "note": "ON 12/24 AND 12/31, THIS BOX MAY BE COLLECTED AS EARLY AS 12 NOON.", "ref": "9786400002"}, "type": "Feature"}
{"geometry": {"coordinates": [-119.419178662, 44.820173885], "type": "Point"}, "id": "fY2VCOS1zzI018vvQ9ib4kyGV80=", "properties": {"@spider": "usps_collection_boxes", "addr:city": "MONUMENT", "addr:country": "US", "addr:full": "177 NORTH ST", "addr:postcode": "97864", "addr:state": "OR", "brand": "USPS", "collection_times": "Mo-Fr 14:00", "name": "USPS COLLECTION BOX - PO LOBBY", "note": "ON 12/24 AND 12/31, THIS BOX MAY BE COLLECTED AS EARLY AS 12 NOON.", "ref": "9786400003"}, "type": "Feature"}
{"geometry": {"coordinates": [-118.833766, 45.482843], "type": "Point"}, "id": "flf51nCpIhStyW4xAif2ifH_mFE=", "properties": {"@spider": "usps_collection_boxes", "addr:city": "PILOT ROCK", "addr:country": "US", "addr:full": "103 NW ALDER PL", "addr:postcode": "97868", "addr:state": "OR", "brand": "USPS", "collection_times": "Mo-Sa 13:45", "name": "USPS COLLECTION BOX - BLUE BOX", "note": "ON 12/24 AND 12/31, THIS BOX MAY BE COLLECTED AS EARLY AS 12 NOON.", "ref": "9786800000"}, "type": "Feature"}
{"geometry": {"coordinates": [-118.833766, 45.482843], "type": "Point"}, "id": "rvcRW_o9zZSSyWM4o96PPCEyjXE=", "properties": {"@spider": "usps_collection_boxes", "addr:city": "PILOT ROCK", "addr:country": "US", "addr:full": "103 NW ALDER PL", "addr:postcode": "97868", "addr:state": "OR", "brand": "USPS", "collection_times": "Mo-Fr 13:45", "name": "USPS COLLECTION BOX - PO LOBBY", "note": "ON 12/24 AND 12/31, THIS BOX MAY BE COLLECTED AS EARLY AS 12 NOON.", "ref": "9786800001"}, "type": "Feature"}
{"geometry": {"coordinates": [-118.83377021, 45.483012974], "type": "Point"}, "id": "udSUXLrLGSELPP-lo0Si9iWN-NI=", "properties": {"@spider": "usps_collection_boxes", "addr:city": "PILOT ROCK", "addr:country": "US", "addr:full": "103 NW ALDER PL", "addr:postcode": "97868", "addr:state": "OR", "brand": "USPS", "collection_times": "Mo-Fr 13:45", "name": "USPS COLLECTION BOX - PO LOBBY", "note": "ON 12/24 AND 12/31, THIS BOX MAY BE COLLECTED AS EARLY AS 12 NOON.", "ref": "9786800002"}, "type": "Feature"}
{"geometry": {"coordinates": [-119.793842, 44.831287], "type": "Point"}, "id": "LRM_CJMagaZaIYS0Y5a7LZiV9oQ=", "properties": {"@spider": "usps_collection_boxes", "addr:city": "SPRAY", "addr:country": "US", "addr:full": "701 WILLOW ST", "addr:postcode": "97874", "addr:state": "OR", "brand": "USPS", "collection_times": "Mo-Fr 12:30; Sa 12:00", "name": "USPS COLLECTION BOX - PO LOBBY", "note": "ON 12/24 AND 12/31, THIS BOX MAY BE COLLECTED AS EARLY AS 12 NOON.", "ref": "9787400000"}, "type": "Feature"}
{"geometry": {"coordinates": [-119.79368667, 44.83358433], "type": "Point"}, "id": "pju90MymemO-6V5mCVVyVG9fBP8=", "properties": {"@spider": "usps_collection_boxes", "addr:city": "SPRAY", "addr:country": "US", "addr:full": "701 WILLOW ST", "addr:postcode": "97874", "addr:state": "OR", "brand": "USPS", "collection_times": "Mo-Fr 12:30; Sa 12:00", "name": "USPS COLLECTION BOX - PO LOBBY", "note": "ON 12/24 AND 12/31, THIS BOX MAY BE COLLECTED AS EARLY AS 12 NOON.", "ref": "9787400001"}, "type": "Feature"}
{"geometry": {"coordinates": [-119.21764, 45.777952], "type": "Point"}, "id": "HzC-jXQk6SVDq4px3dHlgbNW8YM=", "properties": {"@spider": "usps_collection_boxes", "addr:city": "STANFIELD", "addr:country": "US", "addr:full": "420 S MAIN ST", "addr:postcode": "97875", "addr:state": "OR", "brand": "USPS", "collection_times": "Mo-Sa 13:00", "name": "USPS COLLECTION BOX - BLUE BOX", "note": "ON 12/24 AND 12/31, THIS BOX MAY BE COLLECTED AS EARLY AS 12 NOON.", "ref": "9787500000"}, "type": "Feature"}
{"geometry": {"coordinates": [-119.21764, 45.777952], "type": "Point"}, "id": "VrQOTmWiHyhw7ZTMP8Vm8phyOWY=", "properties": {"@spider": "usps_collection_boxes", "addr:city": "STANFIELD", "addr:country": "US", "addr:full": "420 S MAIN ST", "addr:postcode": "97875", "addr:state": "OR", "brand": "USPS", "collection_times": "Mo-Fr 13:00", "name": "USPS COLLECTION BOX - PO LOBBY", "note": "ON 12/24 AND 12/31, THIS BOX MAY BE COLLECTED AS EARLY AS 12 NOON.", "ref": "9787500002"}, "type": "Feature"}
{"geometry": {"coordinates": [-119.21761918, 45.777960706], "type": "Point"}, "id": "LuoygLEUMoGgIyvCzGNlB1gtJOI=", "properties": {"@spider": "usps_collection_boxes", "addr:city": "STANFIELD", "addr:country": "US", "addr:full": "420 S MAIN ST", "addr:postcode": "97875", "addr:state": "OR", "brand": "USPS", "collection_times": "Mo-Fr 13:00", "name": "USPS COLLECTION BOX - PO LOBBY", "note": "ON 12/24 AND 12/31, THIS BOX MAY BE COLLECTED AS EARLY AS 12 NOON.", "ref": "9787500003"}, "type": "Feature"}
{"geometry": {"coordinates": [-118.931306, 45.134218], "type": "Point"}, "id": "9T_WkDgZt3GxU1R4PMuPLpz-Vdc=", "properties": {"@spider": "usps_collection_boxes", "addr:city": "UKIAH", "addr:country": "US", "addr:full": "105 E MAIN ST", "addr:postcode": "97880", "addr:state": "OR", "brand": "USPS", "collection_times": "Mo-Fr 13:00; Sa 09:45", "name": "USPS COLLECTION BOX - BLUE BOX", "note": "ON 12/24 AND 12/31, THIS BOX MAY BE COLLECTED AS EARLY AS 12 NOON.", "ref": "9788000000"}, "type": "Feature"}
{"geometry": {"coordinates": [-118.931653, 45.134155], "type": "Point"}, "id": "rXEtSESq6P2POZv7thlsVquyfEw=", "properties": {"@spider": "usps_collection_boxes", "addr:city": "UKIAH", "addr:country": "US", "addr:full": "105 E MAIN ST", "addr:postcode": "97880", "addr:state": "OR", "brand": "USPS", "collection_times": "Mo-Fr 12:00", "name": "USPS COLLECTION BOX - PO LOBBY", "ref": "9788000001"}, "type": "Feature"}
{"geometry": {"coordinates": [-118.9316568635, 45.1342088801], "type": "Point"}, "id": "3BXinWkcKi0ADtQ_qeC-Y8D-ZKo=", "properties": {"@spider": "usps_collection_boxes", "addr:city": "UKIAH", "addr:country": "US", "addr:full": "PO BOX 2051", "addr:postcode": "97880", "addr:state": "OR", "brand": "USPS", "collection_times": "Mo-Fr 11:00; Sa 09:45", "name": "USPS COLLECTION BOX - PO LOBBY", "ref": "9788000002"}, "type": "Feature"}
{"geometry": {"coordinates": [-118.931382, 45.134181512], "type": "Point"}, "id": "LI870MGgGVli0QWAglOtC5MW1ok=", "properties": {"@spider": "usps_collection_boxes", "addr:city": "UKIAH", "addr:country": "US", "addr:full": "105 E MAIN ST", "addr:postcode": "97880", "addr:state": "OR", "brand": "USPS", "collection_times": "Mo-Fr 12:00", "name": "USPS COLLECTION BOX - PO LOBBY", "ref": "9788000003"}, "type": "Feature"}
{"geometry": {"coordinates": [-119.327266, 45.918241], "type": "Point"}, "id": "kp2FCsWPiqAJmdWuCwJLVa9UFG4=", "properties": {"@spider": "usps_collection_boxes", "addr:city": "UMATILLA", "addr:country": "US", "addr:full": "1900 6TH ST", "addr:postcode": "97882", "addr:state": "OR", "brand": "USPS", "collection_times": "Mo-Fr 12:15; Sa 09:00", "name": "USPS COLLECTION BOX - PO LOBBY", "note": "ON 12/24 AND 12/31, THIS BOX MAY BE COLLECTED AS EARLY AS 12 NOON.", "ref": "9788200002"}, "type": "Feature"}
{"geometry": {"coordinates": [-119.326168, 45.917895], "type": "Point"}, "id": "MzqwGmAjkk7A-cU1IhqNYH9rFsU=", "properties": {"@spider": "usps_collection_boxes", "addr:city": "UMATILLA", "addr:country": "US", "addr:full": "1900 6TH ST", "addr:postcode": "97882", "addr:state": "OR", "brand": "USPS", "collection_times": "Mo-Sa 12:15", "name": "USPS COLLECTION BOX - BLUE BOX", "note": "ON 12/24 AND 12/31, THIS BOX MAY BE COLLECTED AS EARLY AS 12 NOON.", "ref": "9788200003"}, "type": "Feature"}
{"geometry": {"coordinates": [-119.327266, 45.918241], "type": "Point"}, "id": "WbBt9iskbYcvhRlbhmjavgydiWs=", "properties": {"@spider": "usps_collection_boxes", "addr:city": "UMATILLA", "addr:country": "US", "addr:full": "1900 6TH ST", "addr:postcode": "97882", "addr:state": "OR", "brand": "USPS", "collection_times": "Mo-Fr 12:15; Sa 09:00", "name": "USPS COLLECTION BOX - PO LOBBY", "note": "ON 12/24 AND 12/31, THIS BOX MAY BE COLLECTED AS EARLY AS 12 NOON.", "ref": "9788200006"}, "type": "Feature"}
{"geometry": {"coordinates": [-119.327269175, 45.918178711], "type": "Point"}, "id": "VE99VDrLScguZatqJ5JBVDHZ4dM=", "properties": {"@spider": "usps_collection_boxes", "addr:city": "UMATILLA", "addr:country": "US", "addr:full": "1900 6TH ST", "addr:postcode": "97882", "addr:state": "OR", "brand": "USPS", "collection_times": "Mo-Fr 12:15", "name": "USPS COLLECTION BOX - PO LOBBY", "note": "ON 12/24 AND 12/31, THIS BOX MAY BE COLLECTED AS EARLY AS 12 NOON.", "ref": "9788200007"}, "type": "Feature"}
