{"geometry": {"coordinates": [-117.07114, 43.739716], "type": "Point"}, "id": "9bwdXF480GwGKqIDIaLPmG9tyJ8=", "properties": {"@source_uri": "https://tools.usps.com/UspsToolsRestServices/rest/POLocator/findLocations", "@spider": "usps_collection_boxes", "addr:city": "ADRIAN", "addr:country": "US", "addr:postcode": "97901", "addr:state": "OR", "addr:street_address": "105 OREGON ST", "amenity": "post_box", "collection_times": "Mo-Fr 13:00; Sa 08:30", "indoor": "yes", "note": "ON 12/24 AND 12/31, THIS BOX MAY BE COLLECTED AS EARLY AS 12 NOON.", "nsi_id": "unitedstatespostalservice-a77078", "operator": "United States Postal Service", "operator:short": "USPS", "operator:type": "public", "operator:wikidata": "Q668687", "ref": "9790100000"}, "type": "Feature"}
{"geometry": {"coordinates": [-117.07114, 43.739716], "type": "Point"}, "id": "wDFlgxqPcvW7Dn2audy8IgK0BXY=", "properties": {"@source_uri": "https://tools.usps.com/UspsToolsRestServices/rest/POLocator/findLocations", "@spider": "usps_collection_boxes", "addr:city": "ADRIAN", "addr:country": "US", "addr:postcode": "97901", "addr:state": "OR", "addr:street_address": "105 OREGON ST", "amenity": "post_box", "collection_times": "Mo-Fr 17:00; Sa 08:30", "note": "ON 12/24 AND 12/31, THIS BOX MAY BE COLLECTED AS EARLY AS 12 NOON.", "nsi_id": "unitedstatespostalservice-a77078", "operator": "United States Postal Service", "operator:short": "USPS", "operator:type": "public", "operator:wikidata": "Q668687", "ref": "9790100001"}, "type": "Feature"}
{"geometry": {"coordinates": [-117.0711403324, 43.7397174893], "type": "Point"}, "id": "vy2RkikP11XYhWSu5J6RPwhObHo=", "properties": {"@source_uri": "https://tools.usps.com/UspsToolsRestServices/rest/POLocator/findLocations", "@spider": "usps_collection_boxes", "addr:city": "ADRIAN", "addr:country": "US", "addr:postcode": "97901", "addr:state": "OR", "addr:street_address": "105 OREGON ST", "amenity": "post_box", "collection_times": "Mo-Fr 01:00", "indoor": "yes", "nsi_id": "unitedstatespostalservice-a77078", "operator": "United States Postal Service", "operator:short": "USPS", "operator:type": "public", "operator:wikidata": "Q668687", "ref": "9790100002"}, "type": "Feature"}
{"geometry": {"coordinates": [-117.526165, 42.914899], "type": "Point"}, "id": "aSvecFfyOY_WMGpaXXp0IbDFvl8=", "properties": {"@source_uri": "https://tools.usps.com/UspsToolsRestServices/rest/POLocator/findLocations", "@spider": "usps_collection_boxes", "addr:city": "AROCK", "addr:country": "US", "addr:postcode": "97902", "addr:state": "OR", "addr:street_address": "3070 OREGON AVE", "amenity": "post_box", "collection_times": "Mo-Fr 11:50", "nsi_id": "unitedstatespostalservice-a77078", "operator": "United States Postal Service", "operator:short": "USPS", "operator:type": "public", "operator:wikidata": "Q668687", "ref": "9790200000"}, "type": "Feature"}
{"geometry": {"coordinates": [-117.526106, 42.914882], "type": "Point"}, "id": "HzP_zaUWe4bBLKcM_OpxC4vaEH8=", "properties": {"@source_uri": "https://tools.usps.com/UspsToolsRestServices/rest/POLocator/findLocations", "@spider": "usps_collection_boxes", "addr:city": "AROCK", "addr:country": "US", "addr:postcode": "97902", "addr:state": "OR", "addr:street_address": "3070 OREGON AVE", "amenity": "post_box", "collection_times": "Mo-Fr 11:50", "indoor": "yes", "nsi_id": "unitedstatespostalservice-a77078", "operator": "United States Postal Service", "operator:short": "USPS", "operator:type": "public", "operator:wikidata": "Q668687", "ref": "9790200001"}, "type": "Feature"}
{"geometry": {"coordinates": [-117.5260024237, 42.9149638376], "type": "Point"}, "id": "5hkNSK2ym0NJ4-QH95kspEHewcc=", "properties": {"@source_uri": "https://tools.usps.com/UspsToolsRestServices/rest/POLocator/findLocations", "@spider": "usps_collection_boxes", "addr:city": "AROCK", "addr:country": "US", "addr:postcode": "97902", "addr:state": "OR", "addr:street_address": "3070 OREGON AVE", "amenity": "post_box", "collection_times": "Mo-Fr 11:50", "indoor": "yes", "nsi_id": "unitedstatespostalservice-a77078", "operator": "United States Postal Service", "operator:short": "USPS", "operator:type": "public", "operator:wikidata": "Q668687", "ref": "9790200002"}, "type": "Feature"}
{"geometry": {"coordinates": [-118.377252, 43.807704], "type": "Point"}, "id": "0PwBNks9A8CvMnRKEnh0tlezxck=", "properties": {"@source_uri": "https://tools.usps.com/UspsToolsRestServices/rest/POLocator/findLocations", "@spider": "usps_collection_boxes", "addr:city": "DREWSEY", "addr:country": "US", "addr:postcode": "97904", "addr:state": "OR", "addr:street_address": "78912 DREWSEY RD", "amenity": "post_box", "collection_times": "Mo-Fr 09:00; Sa 08:30", "indoor": "yes", "nsi_id": "unitedstatespostalservice-a77078", "operator": "United States Postal Service", "operator:short": "USPS", "operator:type": "public", "operator:wikidata": "Q668687", "ref": "9790400000"}, "type": "Feature"}
{"geometry": {"coordinates": [-118.377253134, 43.807701394], "type": "Point"}, "id": "0dHmy2OsJdoMSjZOe3kH00L15Ec=", "properties": {"@source_uri": "https://tools.usps.com/UspsToolsRestServices/rest/POLocator/findLocations", "@spider": "usps_collection_boxes", "addr:city": "DREWSEY", "addr:country": "US", "addr:postcode": "97904", "addr:state": "OR", "addr:street_address": "78912 DREWSEY RD", "amenity": "post_box", "collection_times": "Mo-Fr 09:15", "indoor": "yes", "nsi_id": "unitedstatespostalservice-a77078", "operator": "United States Postal Service", "operator:short": "USPS", "operator:type": "public", "operator:wikidata": "Q668687", "ref": "9790400001"}, "type": "Feature"}
{"geometry": {"coordinates": [-117.463504, 44.580975], "type": "Point"}, "id": "WkYICYBvlF8CjjtoDG1e491IU8Q=", "properties": {"@source_uri": "https://tools.usps.com/UspsToolsRestServices/rest/POLocator/findLocations", "@spider": "usps_collection_boxes", "addr:city": "DURKEE", "addr:country": "US", "addr:postcode": "97905", "addr:state": "OR", "addr:street_address": "28677 OLD HWY 30", "amenity": "post_box", "collection_times": "Mo-Fr 14:15; Sa 09:45", "note": "ON 12/24 AND 12/31, THIS BOX MAY BE COLLECTED AS EARLY AS 12 NOON.", "nsi_id": "unitedstatespostalservice-a77078", "operator": "United States Postal Service", "operator:short": "USPS", "operator:type": "public", "operator:wikidata": "Q668687", "ref": "9790500001"}, "type": "Feature"}
{"geometry": {"coordinates": [-117.463504, 44.580979], "type": "Point"}, "id": "LDdgp5Mq9hrviahI2fAwOYpam-s=", "properties": {"@source_uri": "https://tools.usps.com/UspsToolsRestServices/rest/POLocator/findLocations", "@spider": "usps_collection_boxes", "addr:city": "DURKEE", "addr:country": "US", "addr:postcode": "97905", "addr:state": "OR", "addr:street_address": "28677 OLD HWY 30", "amenity": "post_box", "collection_times": "Mo-Sa 09:45", "indoor": "yes", "nsi_id": "unitedstatespostalservice-a77078", "operator": "United States Postal Service", "operator:short": "USPS", "operator:type": "public", "operator:wikidata": "Q668687", "ref": "9790500002"}, "type": "Feature"}
{"geometry": {"coordinates": [-117.463512855, 44.581023692], "type": "Point"}, "id": "Y_jVT4neT1g24UDI1BhohZaBosI=", "properties": {"@source_uri": "https://tools.usps.com/UspsToolsRestServices/rest/POLocator/findLocations", "@spider": "usps_collection_boxes", "addr:city": "DURKEE", "addr:country": "US", "addr:postcode": "97905", "addr:state": "OR", "addr:street_address": "28677 OLD HWY 30", "amenity": "post_box", "collection_times": "Mo-Fr 10:00", "indoor": "yes", "nsi_id": "unitedstatespostalservice-a77078", "operator": "United States Postal Service", "operator:short": "USPS", "operator:type": "public", "operator:wikidata": "Q668687", "ref": "9790500003"}, "type": "Feature"}
{"geometry": {"coordinates": [-117.610437, 43.862574], "type": "Point"}, "id": "dwa1Gtppvv6ovGe_kL9JEhY_0xE=", "properties": {"@source_uri": "https://tools.usps.com/UspsToolsRestServices/rest/POLocator/findLocations", "@spider": "usps_collection_boxes", "addr:city": "HARPER", "addr:country": "US", "addr:postcode": "97906", "addr:state": "OR", "addr:street_address": "2965 A ST", "amenity": "post_box", "collection_times": "Mo-Fr 09:45; Sa 11:30", "indoor": "yes", "nsi_id": "unitedstatespostalservice-a77078", "operator": "United States Postal Service", "operator:short": "USPS", "operator:type": "public", "operator:wikidata": "Q668687", "ref": "9790600000"}, "type": "Feature"}
{"geometry": {"coordinates": [-117.610534, 43.862604], "type": "Point"}, "id": "-PR1jF4UCMAg2VetuucsijvuMEI=", "properties": {"@source_uri": "https://tools.usps.com/UspsToolsRestServices/rest/POLocator/findLocations", "@spider": "usps_collection_boxes", "addr:city": "HARPER", "addr:country": "US", "addr:postcode": "97906", "addr:state": "OR", "addr:street_address": "2965 A ST", "amenity": "post_box", "collection_times": "Mo-Fr 12:00; Sa 11:30", "nsi_id": "unitedstatespostalservice-a77078", "operator": "United States Postal Service", "operator:short": "USPS", "operator:type": "public", "operator:wikidata": "Q668687", "ref": "9790600001"}, "type": "Feature"}
{"geometry": {"coordinates": [-117.6104401069, 43.8625665668], "type": "Point"}, "id": "rDQwOA4kpu9Z4ZWA0dlZnJRTXGU=", "properties": {"@source_uri": "https://tools.usps.com/UspsToolsRestServices/rest/POLocator/findLocations", "@spider": "usps_collection_boxes", "addr:city": "HARPER", "addr:country": "US", "addr:postcode": "97906", "addr:state": "OR", "addr:street_address": "2965 A ST", "amenity": "post_box", "collection_times": "Mo-Fr 10:00; Sa 12:30", "indoor": "yes", "note": "ON 12/24 AND 12/31, THIS BOX MAY BE COLLECTED AS EARLY AS 12 NOON.", "nsi_id": "unitedstatespostalservice-a77078", "operator": "United States Postal Service", "operator:short": "USPS", "operator:type": "public", "operator:wikidata": "Q668687", "ref": "9790600002"}, "type": "Feature"}
{"geometry": {"coordinates": [-117.267737, 44.351312], "type": "Point"}, "id": "ALudry8ZCYeG6v2oPCr8Pmq755U=", "properties": {"@source_uri": "https://tools.usps.com/UspsToolsRestServices/rest/POLocator/findLocations", "@spider": "usps_collection_boxes", "addr:city": "HUNTINGTON", "addr:country": "US", "addr:postcode": "97907", "addr:state": "OR", "addr:street_address": "10 E WASHINGTON ST", "amenity": "post_box", "collection_times": "Mo-Fr 13:30; Sa 12:30", "note": "ON 12/24 AND 12/31, THIS BOX MAY BE COLLECTED AS EARLY AS 12 NOON.", "nsi_id": "unitedstatespostalservice-a77078", "operator": "United States Postal Service", "operator:short": "USPS", "operator:type": "public", "operator:wikidata": "Q668687", "ref": "9790700000"}, "type": "Feature"}
{"geometry": {"coordinates": [-117.267737, 44.351312], "type": "Point"}, "id": "WQ1XqI_Ax7jfIiIXgcfm6tlGp9k=", "properties": {"@source_uri": "https://tools.usps.com/UspsToolsRestServices/rest/POLocator/findLocations", "@spider": "usps_collection_boxes", "addr:city": "HUNTINGTON", "addr:country": "US", "addr:postcode": "97907", "addr:state": "OR", "addr:street_address": "10 E WASHINGTON ST", "amenity": "post_box", "collection_times": "Mo-Fr 14:30; Sa 09:30", "indoor": "yes", "note": "ON 12/24 AND 12/31, THIS BOX MAY BE COLLECTED AS EARLY AS 12 NOON.", "nsi_id": "unitedstatespostalservice-a77078", "operator": "United States Postal Service", "operator:short": "USPS", "operator:type": "public", "operator:wikidata": "Q668687", "ref": "9790700002"}, "type": "Feature"}
{"geometry": {"coordinates": [-117.267741021, 44.351311507], "type": "Point"}, "id": "1dICc7ajqgda_jTd9bXboJr59rg=", "properties": {"@source_uri": "https://tools.usps.com/UspsToolsRestServices/rest/POLocator/findLocations", "@spider": "usps_collection_boxes", "addr:city": "HUNTINGTON", "addr:country": "US", "addr:postcode": "97907", "addr:state": "OR", "addr:street_address": "10 E WASHINGTON ST", "amenity": "post_box", "collection_times": "Mo-Fr 14:30", "indoor": "yes", "note": "ON 12/24 AND 12/31, THIS BOX MAY BE COLLECTED AS EARLY AS 12 NOON.", "nsi_id": "unitedstatespostalservice-a77078", "operator": "United States Postal Service", "operator:short": "USPS", "operator:type": "public", "operator:wikidata": "Q668687", "ref": "9790700003"}, "type": "Feature"}
{"geometry": {"coordinates": [-117.227381053, 44.302564988], "type": "Point"}, "id": "9mAShVwCLONHiZFv63vrfp4qOnQ=", "properties": {"@source_uri": "https://tools.usps.com/UspsToolsRestServices/rest/POLocator/findLocations", "@spider": "usps_collection_boxes", "addr:city": "HUNTINGTON", "addr:country": "US", "addr:postcode": "97907", "addr:state": "OR", "addr:street_address": "5945 US HWY 30", "amenity": "post_box", "collection_times": "Mo-Fr 10:30; Sa 09:00", "nsi_id": "unitedstatespostalservice-a77078", "operator": "United States Postal Service", "operator:short": "USPS", "operator:type": "public", "operator:wikidata": "Q668687", "ref": "9790700006"}, "type": "Feature"}
{"geometry": {"coordinates": [-117.438153, 44.182169], "type": "Point"}, "id": "Q-HrBvFGAHzytsuNLR3fCfuEQ0c=", "properties": {"@source_uri": "https://tools.usps.com/UspsToolsRestServices/rest/POLocator/findLocations", "@spider": "usps_collection_boxes", "addr:city": "JAMIESON", "addr:country": "US", "addr:postcode": "97909", "addr:state": "OR", "addr:street_address": "5180 JOHN DAY HWY", "amenity": "post_box", "collection_times": "Mo-Sa 13:45", "indoor": "yes", "note": "ON 12/24 AND 12/31, THIS BOX MAY BE COLLECTED AS EARLY AS 12 NOON.", "nsi_id": "unitedstatespostalservice-a77078", "operator": "United States Postal Service", "operator:short": "USPS", "operator:type": "public", "operator:wikidata": "Q668687", "ref": "9790900000"}, "type": "Feature"}
{"geometry": {"coordinates": [-117.437317132, 44.180667038], "type": "Point"}, "id": "4ppGADwPnuMBjV1cD0V2HQUXzUo=", "properties": {"@source_uri": "https://tools.usps.com/UspsToolsRestServices/rest/POLocator/findLocations", "@spider": "usps_collection_boxes", "addr:city": "JAMIESON", "addr:country": "US", "addr:postcode": "97909", "addr:state": "OR", "addr:street_address": "5180 JOHN DAY HWY", "amenity": "post_box", "collection_times": "Mo-Fr 12:30; Sa 13:45", "indoor": "yes", "note": "ON 12/24 AND 12/31, THIS BOX MAY BE COLLECTED AS EARLY AS 12 NOON.", "nsi_id": "unitedstatespostalservice-a77078", "operator": "United States Postal Service", "operator:short": "USPS", "operator:type": "public", "operator:wikidata": "Q668687", "ref": "9790900001"}, "type": "Feature"}
{"geometry": {"coordinates": [-117.052853, 42.973812], "type": "Point"}, "id": "1UQ9zilbFIVBFW046uqFobTDeAs=", "properties": {"@source_uri": "https://tools.usps.com/UspsToolsRestServices/rest/POLocator/findLocations", "@spider": "usps_collection_boxes", "addr:city": "JORDAN VALLEY", "addr:country": "US", "addr:postcode": "97910", "addr:state": "OR", "addr:street_address": "509 YTURRI BLVD", "amenity": "post_box", "collection_times": "Mo-Fr 14:00; Sa 11:15", "note": "ON 12/24 AND 12/31, THIS BOX MAY BE COLLECTED AS EARLY AS 12 NOON.", "nsi_id": "unitedstatespostalservice-a77078", "operator": "United States Postal Service", "operator:short": "USPS", "operator:type": "public", "operator:wikidata": "Q668687", "ref": "9791000000"}, "type": "Feature"}
{"geometry": {"coordinates": [-117.052853, 42.973812], "type": "Point"}, "id": "0SdUFC_QoPDxgaK7M01Gb11zNH4=", "properties": {"@source_uri": "https://tools.usps.com/UspsToolsRestServices/rest/POLocator/findLocations", "@spider": "usps_collection_boxes", "addr:city": "JORDAN VALLEY", "addr:country": "US", "addr:postcode": "97910", "addr:state": "OR", "addr:street_address": "509 YTURRI BLVD", "amenity": "post_box", "collection_times": "Mo-Fr 14:30; Sa 11:15", "indoor": "yes", "note": "ON 12/24 AND 12/31, THIS BOX MAY BE COLLECTED AS EARLY AS 12 NOON.", "nsi_id": "unitedstatespostalservice-a77078", "operator": "United States Postal Service", "operator:short": "USPS", "operator:type": "public", "operator:wikidata": "Q668687", "ref": "9791000001"}, "type": "Feature"}
{"geometry": {"coordinates": [-117.052855533, 42.973811572], "type": "Point"}, "id": "tbnuVc0s6XBp5hfSfxe74bbRbNw=", "properties": {"@source_uri": "https://tools.usps.com/UspsToolsRestServices/rest/POLocator/findLocations", "@spider": "usps_collection_boxes", "addr:city": "JORDAN VALLEY", "addr:country": "US", "addr:postcode": "97910", "addr:state": "OR", "addr:street_address": "509 YTURRI BLVD", "amenity": "post_box", "collection_times": "Mo-Fr 14:30; Sa 11:00", "indoor": "yes", "note": "ON 12/24 AND 12/31, THIS BOX MAY BE COLLECTED AS EARLY AS 12 NOON.", "nsi_id": "unitedstatespostalservice-a77078", "operator": "United States Postal Service", "operator:short": "USPS", "operator:type": "public", "operator:wikidata": "Q668687", "ref": "9791000002"}, "type": "Feature"}
{"geometry": {"coordinates": [-118.078366, 43.744044], "type": "Point"}, "id": "M0vQE38RBe76anKnDrFzUN9Mj14=", "properties": {"@source_uri": "https://tools.usps.com/UspsToolsRestServices/rest/POLocator/findLocations", "@spider": "usps_collection_boxes", "addr:city": "JUNTURA", "addr:country": "US", "addr:postcode": "97911", "addr:state": "OR", "addr:street_address": "5828 4TH ST", "amenity": "post_box", "collection_times": "Mo-Fr 11:15; Sa 10:30", "nsi_id": "unitedstatespostalservice-a77078", "operator": "United States Postal Service", "operator:short": "USPS", "operator:type": "public", "operator:wikidata": "Q668687", "ref": "9791100000"}, "type": "Feature"}
{"geometry": {"coordinates": [-118.078366, 43.744044], "type": "Point"}, "id": "lbui9QxFmGDTbf4D0Qp8nrhBX_M=", "properties": {"@source_uri": "https://tools.usps.com/UspsToolsRestServices/rest/POLocator/findLocations", "@spider": "usps_collection_boxes", "addr:city": "JUNTURA", "addr:country": "US", "addr:postcode": "97911", "addr:state": "OR", "addr:street_address": "5828 4TH ST", "amenity": "post_box", "collection_times": "Mo-Fr 11:15; Sa 10:30", "indoor": "yes", "nsi_id": "unitedstatespostalservice-a77078", "operator": "United States Postal Service", "operator:short": "USPS", "operator:type": "public", "operator:wikidata": "Q668687", "ref": "9791100001"}, "type": "Feature"}
{"geometry": {"coordinates": [-118.078369189, 43.744038296], "type": "Point"}, "id": "59IFNWlOeBtpC--AqU11tdZ_bi8=", "properties": {"@source_uri": "https://tools.usps.com/UspsToolsRestServices/rest/POLocator/findLocations", "@spider": "usps_collection_boxes", "addr:city": "JUNTURA", "addr:country": "US", "addr:postcode": "97911", "addr:state": "OR", "addr:street_address": "5828 4TH ST", "amenity": "post_box", "collection_times": "Mo-Fr 11:30; Sa 11:00", "indoor": "yes", "nsi_id": "unitedstatespostalservice-a77078", "operator": "United States Postal Service", "operator:short": "USPS", "operator:type": "public", "operator:wikidata": "Q668687", "ref": "9791100002"}, "type": "Feature"}
{"geometry": {"coordinates": [-116.997562, 43.877529], "type": "Point"}, "id": "2cuw6QywswjfSDGvAhW4PZrkAbM=", "properties": {"@source_uri": "https://tools.usps.com/UspsToolsRestServices/rest/POLocator/findLocations", "@spider": "usps_collection_boxes", "addr:city": "NYSSA", "addr:country": "US", "addr:postcode": "97913", "addr:state": "OR", "addr:street_address": "16 N 4TH ST", "amenity": "post_box", "collection_times": "Mo-Fr 17:00; Sa 14:00", "note": "ON 12/24 AND 12/31, THIS BOX MAY BE COLLECTED AS EARLY AS 12 NOON.", "nsi_id": "unitedstatespostalservice-a77078", "operator": "United States Postal Service", "operator:short": "USPS", "operator:type": "public", "operator:wikidata": "Q668687", "ref": "9791300001"}, "type": "Feature"}
{"geometry": {"coordinates": [-116.997562, 43.877529], "type": "Point"}, "id": "z_7WaRKJkStjNMallwTk-8CNqTQ=", "properties": {"@source_uri": "https://tools.usps.com/UspsToolsRestServices/rest/POLocator/findLocations", "@spider": "usps_collection_boxes", "addr:city": "NYSSA", "addr:country": "US", "addr:postcode": "97913", "addr:state": "OR", "addr:street_address": "16 N 4TH ST", "amenity": "post_box", "collection_times": "Mo-Fr 17:00; Sa 14:00", "indoor": "yes", "note": "ON 12/24 AND 12/31, THIS BOX MAY BE COLLECTED AS EARLY AS 12 NOON.", "nsi_id": "unitedstatespostalservice-a77078", "operator": "United States Postal Service", "operator:short": "USPS", "operator:type": "public", "operator:wikidata": "Q668687", "ref": "9791300002"}, "type": "Feature"}
{"geometry": {"coordinates": [-116.997562, 43.877529], "type": "Point"}, "id": "81uruN10O577EHRY9qpPhPytm8Y=", "properties": {"@source_uri": "https://tools.usps.com/UspsToolsRestServices/rest/POLocator/findLocations", "@spider": "usps_collection_boxes", "addr:city": "NYSSA", "addr:country": "US", "addr:postcode": "97913", "addr:state": "OR", "addr:street_address": "16 N 4TH ST", "amenity": "post_box", "collection_times": "Mo-Fr 17:00; Sa 14:00", "indoor": "yes", "note": "ON 12/24 AND 12/31, THIS BOX MAY BE COLLECTED AS EARLY AS 12 NOON.", "nsi_id": "unitedstatespostalservice-a77078", "operator": "United States Postal Service", "operator:short": "USPS", "operator:type": "public", "operator:wikidata": "Q668687", "ref": "9791300003"}, "type": "Feature"}
{"geometry": {"coordinates": [-116.997565398, 43.877529], "type": "Point"}, "id": "ZDuA5AFL3TjXOpC1WQcbEotMaDU=", "properties": {"@source_uri": "https://tools.usps.com/UspsToolsRestServices/rest/POLocator/findLocations", "@spider": "usps_collection_boxes", "addr:city": "NYSSA", "addr:country": "US", "addr:postcode": "97913", "addr:state": "OR", "addr:street_address": "16 N 4TH ST", "amenity": "post_box", "collection_times": "Mo-Fr 17:00", "indoor": "yes", "note": "ON 12/24 AND 12/31, THIS BOX MAY BE COLLECTED AS EARLY AS 12 NOON.", "nsi_id": "unitedstatespostalservice-a77078", "operator": "United States Postal Service", "operator:short": "USPS", "operator:type": "public", "operator:wikidata": "Q668687", "ref": "9791300004"}, "type": "Feature"}
{"geometry": {"coordinates": [-116.968835, 44.026655], "type": "Point"}, "id": "Bq7MqCi_75GuivhY4PiiAdMnkA4=", "properties": {"@source_uri": "https://tools.usps.com/UspsToolsRestServices/rest/POLocator/findLocations", "@spider": "usps_collection_boxes", "addr:city": "ONTARIO", "addr:country": "US", "addr:postcode": "97914", "addr:state": "OR", "addr:street_address": "200 SW 1ST ST", "amenity": "post_box", "collection_times": "Mo-Fr 17:00; Sa 15:00", "note": "ON 12/24 AND 12/31, THIS BOX MAY BE COLLECTED AS EARLY AS 12 NOON.", "nsi_id": "unitedstatespostalservice-a77078", "operator": "United States Postal Service", "operator:short": "USPS", "operator:type": "public", "operator:wikidata": "Q668687", "ref": "9791400000"}, "type": "Feature"}
{"geometry": {"coordinates": [-116.96476, 44.024959], "type": "Point"}, "id": "yMV1AJsJCTkgW_mHSy-mR5Up1fI=", "properties": {"@source_uri": "https://tools.usps.com/UspsToolsRestServices/rest/POLocator/findLocations", "@spider": "usps_collection_boxes", "addr:city": "ONTARIO", "addr:country": "US", "addr:postcode": "97914", "addr:state": "OR", "addr:street_address": "200 SW 1ST ST", "amenity": "post_box", "collection_times": "Mo-Fr 17:00; Sa 15:00", "note": "ON 12/24 AND 12/31, THIS BOX MAY BE COLLECTED AS EARLY AS 12 NOON.", "nsi_id": "unitedstatespostalservice-a77078", "operator": "United States Postal Service", "operator:short": "USPS", "operator:type": "public", "operator:wikidata": "Q668687", "ref": "9791400001"}, "type": "Feature"}
{"geometry": {"coordinates": [-116.964494, 44.024721], "type": "Point"}, "id": "UdxHWhmcz61AhUyKB0efPjuOCQU=", "properties": {"@source_uri": "https://tools.usps.com/UspsToolsRestServices/rest/POLocator/findLocations", "@spider": "usps_collection_boxes", "addr:city": "ONTARIO", "addr:country": "US", "addr:postcode": "97914", "addr:state": "OR", "addr:street_address": "88 SW 2ND AVE", "amenity": "post_box", "collection_times": "Mo-Fr 17:00; Sa 15:00", "indoor": "yes", "note": "ON 12/24 AND 12/31, THIS BOX MAY BE COLLECTED AS EARLY AS 12 NOON.", "nsi_id": "unitedstatespostalservice-a77078", "operator": "United States Postal Service", "operator:short": "USPS", "operator:type": "public", "operator:wikidata": "Q668687", "ref": "9791400004"}, "type": "Feature"}
{"geometry": {"coordinates": [-116.964494, 44.024721], "type": "Point"}, "id": "fnjF3BKMaDemuAXEWd00XfstwyQ=", "properties": {"@source_uri": "https://tools.usps.com/UspsToolsRestServices/rest/POLocator/findLocations", "@spider": "usps_collection_boxes", "addr:city": "ONTARIO", "addr:country": "US", "addr:postcode": "97914", "addr:state": "OR", "addr:street_address": "88 SW 2ND AVE", "amenity": "post_box", "collection_times": "Mo-Fr 17:00; Sa 15:00", "indoor": "yes", "note": "ON 12/24 AND 12/31, THIS BOX MAY BE COLLECTED AS EARLY AS 12 NOON.", "nsi_id": "unitedstatespostalservice-a77078", "operator": "United States Postal Service", "operator:short": "USPS", "operator:type": "public", "operator:wikidata": "Q668687", "ref": "9791400005"}, "type": "Feature"}
{"geometry": {"coordinates": [-116.964494, 44.024721], "type": "Point"}, "id": "L9yt5WzNBgMwdeJq0Q7Kv-XQmWk=", "properties": {"@source_uri": "https://tools.usps.com/UspsToolsRestServices/rest/POLocator/findLocations", "@spider": "usps_collection_boxes", "addr:city": "ONTARIO", "addr:country": "US", "addr:postcode": "97914", "addr:state": "OR", "addr:street_address": "88 SW 2ND AVE", "amenity": "post_box", "collection_times": "Mo-Fr 17:00; Sa 15:00", "indoor": "yes", "note": "ON 12/24 AND 12/31, THIS BOX MAY BE COLLECTED AS EARLY AS 12 NOON.", "nsi_id": "unitedstatespostalservice-a77078", "operator": "United States Postal Service", "operator:short": "USPS", "operator:type": "public", "operator:wikidata": "Q668687", "ref": "9791400006"}, "type": "Feature"}
{"geometry": {"coordinates": [-116.984386, 44.023898], "type": "Point"}, "id": "3RvHWX_AS7A8mAvX12NmoPaISLI=", "properties": {"@source_uri": "https://tools.usps.com/UspsToolsRestServices/rest/POLocator/findLocations", "@spider": "usps_collection_boxes", "addr:city": "ONTARIO", "addr:country": "US", "addr:postcode": "97914", "addr:state": "OR", "addr:street_address": "1410 WESTPARK PLZ", "amenity": "post_box", "collection_times": "Mo-Sa 12:00", "nsi_id": "unitedstatespostalservice-a77078", "operator": "United States Postal Service", "operator:short": "USPS", "operator:type": "public", "operator:wikidata": "Q668687", "ref": "9791400011"}, "type": "Feature"}
{"geometry": {"coordinates": [-116.939053, 44.022822], "type": "Point"}, "id": "WtQ3fR0USaYcjHRGrYc774P0XNU=", "properties": {"@source_uri": "https://tools.usps.com/UspsToolsRestServices/rest/POLocator/findLocations", "@spider": "usps_collection_boxes", "addr:city": "ONTARIO", "addr:country": "US", "addr:postcode": "97914", "addr:state": "OR", "addr:street_address": "188 EAST LN", "amenity": "post_box", "collection_times": "Mo-Sa 09:00", "nsi_id": "unitedstatespostalservice-a77078", "operator": "United States Postal Service", "operator:short": "USPS", "operator:type": "public", "operator:wikidata": "Q668687", "ref": "9791400012"}, "type": "Feature"}
{"geometry": {"coordinates": [-116.964426614, 44.024957678], "type": "Point"}, "id": "93UkpdoBrvrjaXBwJNiFRj2AEtg=", "properties": {"@source_uri": "https://tools.usps.com/UspsToolsRestServices/rest/POLocator/findLocations", "@spider": "usps_collection_boxes", "addr:city": "ONTARIO", "addr:country": "US", "addr:postcode": "97914", "addr:state": "OR", "addr:street_address": "88 SW 2ND AVE", "amenity": "post_box", "collection_times": "Mo-Fr 17:00", "indoor": "yes", "note": "ON 12/24 AND 12/31, THIS BOX MAY BE COLLECTED AS EARLY AS 12 NOON.", "nsi_id": "unitedstatespostalservice-a77078", "operator": "United States Postal Service", "operator:short": "USPS", "operator:type": "public", "operator:wikidata": "Q668687", "ref": "9791400013"}, "type": "Feature"}
{"geometry": {"coordinates": [-117.23936, 43.981102], "type": "Point"}, "id": "8xVXixiW-t8smpfJcPkr4vmMlY8=", "properties": {"@source_uri": "https://tools.usps.com/UspsToolsRestServices/rest/POLocator/findLocations", "@spider": "usps_collection_boxes", "addr:city": "VALE", "addr:country": "US", "addr:postcode": "97918", "addr:state": "OR", "addr:street_address": "177 B ST E", "amenity": "post_box", "collection_times": "Mo-Fr 16:00; Sa 15:00", "note": "ON 12/24 AND 12/31, THIS BOX MAY BE COLLECTED AS EARLY AS 12 NOON.", "nsi_id": "unitedstatespostalservice-a77078", "operator": "United States Postal Service", "operator:short": "USPS", "operator:type": "public", "operator:wikidata": "Q668687", "ref": "9791800000"}, "type": "Feature"}
{"geometry": {"coordinates": [-117.23936, 43.981102], "type": "Point"}, "id": "6S-EY8rTOL0RI-nO_YyKa1GLBUc=", "properties": {"@source_uri": "https://tools.usps.com/UspsToolsRestServices/rest/POLocator/findLocations", "@spider": "usps_collection_boxes", "addr:city": "VALE", "addr:country": "US", "addr:postcode": "97918", "addr:state": "OR", "addr:street_address": "177 B ST E", "amenity": "post_box", "collection_times": "Mo-Fr 16:15; Sa 15:00", "indoor": "yes", "note": "ON 12/24 AND 12/31, THIS BOX MAY BE COLLECTED AS EARLY AS 12 NOON.", "nsi_id": "unitedstatespostalservice-a77078", "operator": "United States Postal Service", "operator:short": "USPS", "operator:type": "public", "operator:wikidata": "Q668687", "ref": "9791800002"}, "type": "Feature"}
{"geometry": {"coordinates": [-117.234845, 43.983152], "type": "Point"}, "id": "l7lZR5xex3U4JAOl6osUx2QdMYQ=", "properties": {"@source_uri": "https://tools.usps.com/UspsToolsRestServices/rest/POLocator/findLocations", "@spider": "usps_collection_boxes", "addr:city": "VALE", "addr:country": "US", "addr:postcode": "97918", "addr:state": "OR", "addr:street_address": "250 10TH ST N", "amenity": "post_box", "collection_times": "Mo-Sa 10:30", "nsi_id": "unitedstatespostalservice-a77078", "operator": "United States Postal Service", "operator:short": "USPS", "operator:type": "public", "operator:wikidata": "Q668687", "ref": "9791800004"}, "type": "Feature"}
{"geometry": {"coordinates": [-117.239364, 43.981099514], "type": "Point"}, "id": "On7kLEZEEvtdTjgG9tgmq-5UnhI=", "properties": {"@source_uri": "https://tools.usps.com/UspsToolsRestServices/rest/POLocator/findLocations", "@spider": "usps_collection_boxes", "addr:city": "VALE", "addr:country": "US", "addr:postcode": "97918", "addr:state": "OR", "addr:street_address": "177 B ST E", "amenity": "post_box", "collection_times": "Mo-Fr 16:30", "indoor": "yes", "note": "ON 12/24 AND 12/31, THIS BOX MAY BE COLLECTED AS EARLY AS 12 NOON.", "nsi_id": "unitedstatespostalservice-a77078", "operator": "United States Postal Service", "operator:short": "USPS", "operator:type": "public", "operator:wikidata": "Q668687", "ref": "9791800005"}, "type": "Feature"}
{"geometry": {"coordinates": [-117.7526748, 44.0415056], "type": "Point"}, "id": "BPXr0ntboltmlVuUVXkC0nf2w0w=", "properties": {"@source_uri": "https://tools.usps.com/UspsToolsRestServices/rest/POLocator/findLocations", "@spider": "usps_collection_boxes", "addr:city": "WESTFALL", "addr:country": "US", "addr:postcode": "97920", "addr:state": "OR", "addr:street_address": "3870 N MAIN ST", "amenity": "post_box", "collection_times": "Mo-Sa 10:15", "nsi_id": "unitedstatespostalservice-a77078", "operator": "United States Postal Service", "operator:short": "USPS", "operator:type": "public", "operator:wikidata": "Q668687", "ref": "9792000000"}, "type": "Feature"}
{"geometry": {"coordinates": [-117.7526748, 44.0415056], "type": "Point"}, "id": "nSDlga1ZguEIljzvx1CgOgmoRIQ=", "properties": {"@source_uri": "https://tools.usps.com/UspsToolsRestServices/rest/POLocator/findLocations", "@spider": "usps_collection_boxes", "addr:city": "WESTFALL", "addr:country": "US", "addr:postcode": "97920", "addr:state": "OR", "addr:street_address": "3870 N MAIN ST", "amenity": "post_box", "collection_times": "Mo-Sa 10:15", "indoor": "yes", "nsi_id": "unitedstatespostalservice-a77078", "operator": "United States Postal Service", "operator:short": "USPS", "operator:type": "public", "operator:wikidata": "Q668687", "ref": "9792000001"}, "type": "Feature"}
{"geometry": {"coordinates": [-117.7406976, 43.9761689], "type": "Point"}, "id": "Ibo84VZSfnuRARqCL3yAQmuMPZE=", "properties": {"@source_uri": "https://tools.usps.com/UspsToolsRestServices/rest/POLocator/findLocations", "@spider": "usps_collection_boxes", "addr:city": "WESTFALL", "addr:country": "US", "addr:postcode": "97920", "addr:state": "OR", "addr:street_address": "3870 N MAIN ST", "amenity": "post_box", "collection_times": "Mo-Sa 10:30", "indoor": "yes", "nsi_id": "unitedstatespostalservice-a77078", "operator": "United States Postal Service", "operator:short": "USPS", "operator:type": "public", "operator:wikidata": "Q668687", "ref": "9792000002"}, "type": "Feature"}
