{"geometry": {"coordinates": [-122.510365, 47.663774], "type": "Point"}, "id": "GxMhxf5KurgtzIah_MBcmK1bm3I=", "properties": {"@spider": "usps_collection_boxes", "addr:city": "ROLLINGBAY", "addr:country": "US", "addr:full": "10355 NE VALLEY RD", "addr:postcode": "98061", "addr:state": "WA", "brand": "USPS", "collection_times": "Mo-Fr 17:00; Sa 09:30", "name": "USPS COLLECTION BOX - BLUE BOX", "note": "ON 12/24 AND 12/31, THIS BOX MAY BE COLLECTED AS EARLY AS 12 NOON.", "ref": "9806100969"}, "type": "Feature"}
{"geometry": {"coordinates": [-122.510365, 47.663774], "type": "Point"}, "id": "IPxGlv12AR_f2RafuEjDbeQeuQ4=", "properties": {"@spider": "usps_collection_boxes", "addr:city": "ROLLINGBAY", "addr:country": "US", "addr:full": "10355 NE VALLEY RD", "addr:postcode": "98061", "addr:state": "WA", "brand": "USPS", "collection_times": "Mo-Fr 17:00", "name": "USPS COLLECTION BOX - PO LOBBY", "note": "ON 12/24 AND 12/31, THIS BOX MAY BE COLLECTED AS EARLY AS 12 NOON.", "ref": "9806100970"}, "type": "Feature"}
{"geometry": {"coordinates": [-122.510713416, 47.664711547], "type": "Point"}, "id": "o4gAbqJfcmdwzZzPIk7US4bICHw=", "properties": {"@spider": "usps_collection_boxes", "addr:city": "ROLLINGBAY", "addr:country": "US", "addr:full": "10355 NE VALLEY RD", "addr:postcode": "98061", "addr:state": "WA", "brand": "USPS", "collection_times": "Mo-Fr 17:00", "name": "USPS COLLECTION BOX - PO LOBBY", "note": "ON 12/24 AND 12/31, THIS BOX MAY BE COLLECTED AS EARLY AS 12 NOON.", "ref": "9806100971"}, "type": "Feature"}
