{"geometry": {"coordinates": [-122.518325, 47.635007], "type": "Point"}, "id": "V0B1PwCC8UokpK8aAx2DCXX0ES0=", "properties": {"@spider": "usps_collection_boxes", "addr:city": "BAINBRIDGE IS", "addr:country": "US", "addr:full": "301 HIGH SCHOOL RD NE", "addr:postcode": "98110", "addr:state": "WA", "brand": "USPS", "collection_times": "Mo-Fr 16:00; Sa 14:00", "name": "USPS COLLECTION BOX - BLUE BOX", "note": "ON 12/24 AND 12/31, THIS BOX MAY BE COLLECTED AS EARLY AS 12 NOON.", "ref": "9811000630"}, "type": "Feature"}
{"geometry": {"coordinates": [-122.513565, 47.625337], "type": "Point"}, "id": "ZvHCMBn3yLQMQqjBElXYZha3J6g=", "properties": {"@spider": "usps_collection_boxes", "addr:city": "BAINBRIDGE IS", "addr:country": "US", "addr:full": "600 WINSLOW WAY E", "addr:postcode": "98110", "addr:state": "WA", "brand": "USPS", "collection_times": "Mo-Sa 14:00", "name": "USPS COLLECTION BOX - BLUE BOX", "note": "ON 12/24 AND 12/31, THIS BOX MAY BE COLLECTED AS EARLY AS 12 NOON.", "ref": "9811001468"}, "type": "Feature"}
{"geometry": {"coordinates": [-122.521903, 47.625442], "type": "Point"}, "id": "1_VmwNFFMjtnShXsHXmmZ6Oyrr0=", "properties": {"@spider": "usps_collection_boxes", "addr:city": "BAINBRIDGE IS", "addr:country": "US", "addr:full": "140 WINSLOW WAY E", "addr:postcode": "98110", "addr:state": "WA", "brand": "USPS", "collection_times": "Mo-Fr 14:00; Sa 13:00", "name": "USPS COLLECTION BOX - BLUE BOX", "note": "ON 12/24 AND 12/31, THIS BOX MAY BE COLLECTED AS EARLY AS 12 NOON.", "ref": "9811001469"}, "type": "Feature"}
{"geometry": {"coordinates": [-122.564156, 47.642862], "type": "Point"}, "id": "zgSpJH5q8HaOG8BG-Rnio2SRz_o=", "properties": {"@spider": "usps_collection_boxes", "addr:city": "BAINBRIDGE IS", "addr:country": "US", "addr:full": "8800 FLETCHER BAY RD NE", "addr:postcode": "98110", "addr:state": "WA", "brand": "USPS", "collection_times": "Mo-Fr 11:00; Sa 10:00", "name": "USPS COLLECTION BOX - BLUE BOX", "ref": "9811001470"}, "type": "Feature"}
{"geometry": {"coordinates": [-122.518644, 47.624814], "type": "Point"}, "id": "t_rcrp5iMarMMlHpXS8S7rQoYTE=", "properties": {"@spider": "usps_collection_boxes", "addr:city": "BAINBRIDGE IS", "addr:country": "US", "addr:full": "271 WINSLOW WAY E", "addr:postcode": "98110", "addr:state": "WA", "brand": "USPS", "collection_times": "Mo-Fr 17:15; Sa 15:15", "name": "USPS COLLECTION BOX - PO LOBBY", "note": "ON 12/24 AND 12/31, THIS BOX MAY BE COLLECTED AS EARLY AS 12 NOON.", "ref": "9811001560"}, "type": "Feature"}
{"geometry": {"coordinates": [-122.518682, 47.624841], "type": "Point"}, "id": "NAQYkdTcQiEYAjakYXX-bPDCdQ8=", "properties": {"@spider": "usps_collection_boxes", "addr:city": "BAINBRIDGE IS", "addr:country": "US", "addr:full": "271 WINSLOW WAY E", "addr:postcode": "98110", "addr:state": "WA", "brand": "USPS", "collection_times": "Mo-Fr 17:15; Sa 15:15", "name": "USPS COLLECTION BOX - APC", "note": "ON 12/24 AND 12/31, THIS BOX MAY BE COLLECTED AS EARLY AS 12 NOON.", "ref": "9811001570"}, "type": "Feature"}
{"geometry": {"coordinates": [-122.518682, 47.624841], "type": "Point"}, "id": "_lTEgDGVb6-HL5loJ7oy4btV5mY=", "properties": {"@spider": "usps_collection_boxes", "addr:city": "BAINBRIDGE IS", "addr:country": "US", "addr:full": "271 WINSLOW WAY E", "addr:postcode": "98110", "addr:state": "WA", "brand": "USPS", "collection_times": "Mo-Fr 17:15; Sa 15:15", "name": "USPS COLLECTION BOX - BLUE BOX", "note": "ON 12/24 AND 12/31, THIS BOX MAY BE COLLECTED AS EARLY AS 12 NOON.", "ref": "9811001571"}, "type": "Feature"}
{"geometry": {"coordinates": [-122.518682, 47.624841], "type": "Point"}, "id": "QwhdwZx2YCD6JESs5dBfMP0KlSE=", "properties": {"@spider": "usps_collection_boxes", "addr:city": "BAINBRIDGE IS", "addr:country": "US", "addr:full": "271 WINSLOW WAY E", "addr:postcode": "98110", "addr:state": "WA", "brand": "USPS", "collection_times": "Mo-Fr 17:15; Sa 15:15", "name": "USPS COLLECTION BOX - BLUE BOX", "note": "ON 12/24 AND 12/31, THIS BOX MAY BE COLLECTED AS EARLY AS 12 NOON.", "ref": "9811001572"}, "type": "Feature"}
{"geometry": {"coordinates": [-122.518693978, 47.624749711], "type": "Point"}, "id": "466D1F9Zfy4xR_oQ-eGCsZ3mxcU=", "properties": {"@spider": "usps_collection_boxes", "addr:city": "BAINBRIDGE IS", "addr:country": "US", "addr:full": "271 WINSLOW WAY E", "addr:postcode": "98110", "addr:state": "WA", "brand": "USPS", "collection_times": "Mo-Fr 17:30; Sa 15:00", "name": "USPS COLLECTION BOX - PO LOBBY", "note": "ON 12/24 AND 12/31, THIS BOX MAY BE COLLECTED AS EARLY AS 12 NOON.", "ref": "9811001574"}, "type": "Feature"}
{"geometry": {"coordinates": [-122.5472540218, 47.6040137746], "type": "Point"}, "id": "LAtGbpgzaSMU3eENcYXA0-7LtaY=", "properties": {"@spider": "usps_collection_boxes", "addr:city": "BAINBRIDGE IS", "addr:country": "US", "addr:full": "4569 LYNWOOD CENTER RD NE", "addr:postcode": "98110", "addr:state": "WA", "brand": "USPS", "collection_times": "Mo-Sa 11:00", "name": "USPS COLLECTION BOX - BLUE BOX", "ref": "9811001575"}, "type": "Feature"}
