{"geometry": {"coordinates": [-122.126563, 48.194828], "type": "Point"}, "id": "xgEyN2ja-RZinArW9hT2JhJif48=", "properties": {"@spider": "usps_collection_boxes", "addr:city": "ARLINGTON", "addr:country": "US", "addr:full": "238 N OLYMPIC AVE", "addr:postcode": "98223", "addr:state": "WA", "brand": "USPS", "collection_times": "Mo-Sa 10:00", "name": "USPS COLLECTION BOX - BLUE BOX", "ref": "9822300005"}, "type": "Feature"}
{"geometry": {"coordinates": [-122.126599, 48.19805], "type": "Point"}, "id": "Kmc9ToQWzCPobblWDdbDq6VlBY8=", "properties": {"@spider": "usps_collection_boxes", "addr:city": "ARLINGTON", "addr:country": "US", "addr:full": "524 N OLYMPIC AVE", "addr:postcode": "98223", "addr:state": "WA", "brand": "USPS", "collection_times": "Mo-Fr 17:00; Sa 14:00", "name": "USPS COLLECTION BOX - BLUE BOX", "note": "ON 12/24 AND 12/31, THIS BOX MAY BE COLLECTED AS EARLY AS 12 NOON.", "ref": "9822300007"}, "type": "Feature"}
{"geometry": {"coordinates": [-122.126599, 48.19805], "type": "Point"}, "id": "eddF2Z9zduXcY4qN46Yb0isjg4E=", "properties": {"@spider": "usps_collection_boxes", "addr:city": "ARLINGTON", "addr:country": "US", "addr:full": "524 N OLYMPIC AVE", "addr:postcode": "98223", "addr:state": "WA", "brand": "USPS", "collection_times": "Mo-Fr 17:00; Sa 14:00", "name": "USPS COLLECTION BOX - PO LOBBY", "note": "ON 12/24 AND 12/31, THIS BOX MAY BE COLLECTED AS EARLY AS 12 NOON.", "ref": "9822300008"}, "type": "Feature"}
{"geometry": {"coordinates": [-122.123367, 48.198653], "type": "Point"}, "id": "wNb0eBmYY_TBjj4YbP6DOAX5vtY=", "properties": {"@spider": "usps_collection_boxes", "addr:city": "ARLINGTON", "addr:country": "US", "addr:full": "225 E DIVISION ST", "addr:postcode": "98223", "addr:state": "WA", "brand": "USPS", "collection_times": "Mo-Sa 10:00", "name": "USPS COLLECTION BOX - BLUE BOX", "ref": "9822300011"}, "type": "Feature"}
{"geometry": {"coordinates": [-122.1264078185, 48.1805647966], "type": "Point"}, "id": "-lKn2osIu5MVXqt9VwMIpa8fae8=", "properties": {"@spider": "usps_collection_boxes", "addr:city": "ARLINGTON", "addr:country": "US", "addr:full": "20313 77TH AVE NE", "addr:postcode": "98223", "addr:state": "WA", "brand": "USPS", "collection_times": "Mo-Sa 10:00", "name": "USPS COLLECTION BOX - BLUE BOX", "ref": "9822300013"}, "type": "Feature"}
{"geometry": {"coordinates": [-122.127191004, 48.156549518], "type": "Point"}, "id": "ghl1wfHDeqU3OUWPngACNnsNAIQ=", "properties": {"@spider": "usps_collection_boxes", "addr:city": "ARLINGTON", "addr:country": "US", "addr:full": "7700 E COUNTRY CLUB DR", "addr:postcode": "98223", "addr:state": "WA", "brand": "USPS", "collection_times": "Mo-Sa 10:00", "name": "USPS COLLECTION BOX - BLUE BOX", "ref": "9822300014"}, "type": "Feature"}
{"geometry": {"coordinates": [-122.126332156, 48.198079173], "type": "Point"}, "id": "An0tfrSx2SdvqzMYouRrAmUD7eY=", "properties": {"@spider": "usps_collection_boxes", "addr:city": "ARLINGTON", "addr:country": "US", "addr:full": "524 N OLYMPIC AVE", "addr:postcode": "98223", "addr:state": "WA", "brand": "USPS", "collection_times": "Mo-Fr 17:00", "name": "USPS COLLECTION BOX - PO LOBBY", "note": "ON 12/24 AND 12/31, THIS BOX MAY BE COLLECTED AS EARLY AS 12 NOON.", "ref": "9822300016"}, "type": "Feature"}
{"geometry": {"coordinates": [-121.486707, 47.771604], "type": "Point"}, "id": "bXDCa8XMOYzVtl4XIiZ-9HLQdNo=", "properties": {"@spider": "usps_collection_boxes", "addr:city": "BARING", "addr:country": "US", "addr:full": "63501 NE STEVENS PASS HWY", "addr:postcode": "98224", "addr:state": "WA", "brand": "USPS", "collection_times": "Mo-Fr 15:30; Sa 09:45", "name": "USPS COLLECTION BOX - BLUE BOX", "note": "ON 12/24 AND 12/31, THIS BOX MAY BE COLLECTED AS EARLY AS 12 NOON.", "ref": "9822400000"}, "type": "Feature"}
{"geometry": {"coordinates": [-121.486707, 47.771604], "type": "Point"}, "id": "1P9OE0Kny7wBJLPBB_26LyD7Nis=", "properties": {"@spider": "usps_collection_boxes", "addr:city": "BARING", "addr:country": "US", "addr:full": "63501 NE STEVENS PASS HWY", "addr:postcode": "98224", "addr:state": "WA", "brand": "USPS", "collection_times": "Mo-Fr 15:30; Sa 09:45", "name": "USPS COLLECTION BOX - PO LOBBY", "note": "ON 12/24 AND 12/31, THIS BOX MAY BE COLLECTED AS EARLY AS 12 NOON.", "ref": "9822400001"}, "type": "Feature"}
{"geometry": {"coordinates": [-121.486707, 47.771604], "type": "Point"}, "id": "KPb1XE8aXwdY-HDUfZ8v3WT6uuo=", "properties": {"@spider": "usps_collection_boxes", "addr:city": "BARING", "addr:country": "US", "addr:full": "63501 NE STEVENS PASS HWY", "addr:postcode": "98224", "addr:state": "WA", "brand": "USPS", "collection_times": "Mo-Fr 15:30; Sa 09:45", "name": "USPS COLLECTION BOX - PO LOBBY", "note": "ON 12/24 AND 12/31, THIS BOX MAY BE COLLECTED AS EARLY AS 12 NOON.", "ref": "9822400003"}, "type": "Feature"}
{"geometry": {"coordinates": [-121.751993, 48.538893], "type": "Point"}, "id": "tIECVn6u6Mm9MMs9SY2-Ex7XRFg=", "properties": {"@spider": "usps_collection_boxes", "addr:city": "CONCRETE", "addr:country": "US", "addr:full": "45650 MAIN ST", "addr:postcode": "98237", "addr:state": "WA", "brand": "USPS", "collection_times": "Mo-Fr 15:30; Sa 10:00", "name": "USPS COLLECTION BOX - BLUE BOX", "note": "ON 12/24 AND 12/31, THIS BOX MAY BE COLLECTED AS EARLY AS 12 NOON.", "ref": "9823700000"}, "type": "Feature"}
{"geometry": {"coordinates": [-121.751993, 48.538893], "type": "Point"}, "id": "EXbnHMx3W_menieWMCzRf1qynM4=", "properties": {"@spider": "usps_collection_boxes", "addr:city": "CONCRETE", "addr:country": "US", "addr:full": "45650 MAIN ST", "addr:postcode": "98237", "addr:state": "WA", "brand": "USPS", "collection_times": "Mo-Fr 15:30; Sa 10:30", "name": "USPS COLLECTION BOX - PO LOBBY", "note": "ON 12/24 AND 12/31, THIS BOX MAY BE COLLECTED AS EARLY AS 12 NOON.", "ref": "9823700002"}, "type": "Feature"}
{"geometry": {"coordinates": [-121.751992723, 48.538891521], "type": "Point"}, "id": "seSJZEzzbSEkMMRWmdBHsTZJcXc=", "properties": {"@spider": "usps_collection_boxes", "addr:city": "CONCRETE", "addr:country": "US", "addr:full": "45650 MAIN ST", "addr:postcode": "98237", "addr:state": "WA", "brand": "USPS", "collection_times": "Mo-Fr 15:30", "name": "USPS COLLECTION BOX - PO LOBBY", "note": "ON 12/24 AND 12/31, THIS BOX MAY BE COLLECTED AS EARLY AS 12 NOON.", "ref": "9823700004"}, "type": "Feature"}
{"geometry": {"coordinates": [-121.6035122035, 48.2502051618], "type": "Point"}, "id": "NDS2LkdxMgRbf2NN6pvyZIiPyZ4=", "properties": {"@spider": "usps_collection_boxes", "addr:city": "DARRINGTON", "addr:country": "US", "addr:full": "715 GIVENS AVE", "addr:postcode": "98241", "addr:state": "WA", "brand": "USPS", "collection_times": "Mo-Fr 13:00; Sa 09:00", "name": "USPS COLLECTION BOX - BLUE BOX", "note": "ON 12/24 AND 12/31, THIS BOX MAY BE COLLECTED AS EARLY AS 12 NOON.", "ref": "9824100000"}, "type": "Feature"}
{"geometry": {"coordinates": [-121.603466, 48.250025], "type": "Point"}, "id": "jv8GhxhSTu9VMZIswBfBv_-YSLo=", "properties": {"@spider": "usps_collection_boxes", "addr:city": "DARRINGTON", "addr:country": "US", "addr:full": "715 GIVENS AVE", "addr:postcode": "98241", "addr:state": "WA", "brand": "USPS", "collection_times": "Mo-Fr 13:00; Sa 09:00", "name": "USPS COLLECTION BOX - PO LOBBY", "note": "ON 12/24 AND 12/31, THIS BOX MAY BE COLLECTED AS EARLY AS 12 NOON.", "ref": "9824100001"}, "type": "Feature"}
{"geometry": {"coordinates": [-121.603466, 48.250025], "type": "Point"}, "id": "wgck7CQqQ2_x9BxBtmdk1NBhBww=", "properties": {"@spider": "usps_collection_boxes", "addr:city": "DARRINGTON", "addr:country": "US", "addr:full": "715 GIVENS AVE", "addr:postcode": "98241", "addr:state": "WA", "brand": "USPS", "collection_times": "Mo-Fr 13:00; Sa 09:00", "name": "USPS COLLECTION BOX - PO LOBBY", "note": "ON 12/24 AND 12/31, THIS BOX MAY BE COLLECTED AS EARLY AS 12 NOON.", "ref": "9824100002"}, "type": "Feature"}
{"geometry": {"coordinates": [-121.603512203, 48.250205162], "type": "Point"}, "id": "47Pxbjnje2Oei5SN5FUBsLBgfNI=", "properties": {"@spider": "usps_collection_boxes", "addr:city": "DARRINGTON", "addr:country": "US", "addr:full": "715 GIVENS AVE", "addr:postcode": "98241", "addr:state": "WA", "brand": "USPS", "collection_times": "Mo-Fr 16:00", "name": "USPS COLLECTION BOX - PO LOBBY", "note": "ON 12/24 AND 12/31, THIS BOX MAY BE COLLECTED AS EARLY AS 12 NOON.", "ref": "9824100003"}, "type": "Feature"}
{"geometry": {"coordinates": [-123.000692, 48.619859], "type": "Point"}, "id": "t8Yb4Ejhe6YUbv2--ZrdQavnBtU=", "properties": {"@spider": "usps_collection_boxes", "addr:city": "DEER HARBOR", "addr:country": "US", "addr:full": "20 JACK AND JILL PL", "addr:postcode": "98243", "addr:state": "WA", "brand": "USPS", "collection_times": "Mo-Fr 14:20; Sa 10:00", "name": "USPS COLLECTION BOX - BLUE BOX", "note": "ON 12/24 AND 12/31, THIS BOX MAY BE COLLECTED AS EARLY AS 12 NOON.", "ref": "9824300000"}, "type": "Feature"}
{"geometry": {"coordinates": [-123.000777, 48.619886], "type": "Point"}, "id": "yYUDqMjSu9WoWK8vudEb1eqmAHk=", "properties": {"@spider": "usps_collection_boxes", "addr:city": "DEER HARBOR", "addr:country": "US", "addr:full": "20 JACK AND JILL PL", "addr:postcode": "98243", "addr:state": "WA", "brand": "USPS", "collection_times": "Mo-Fr 14:20; Sa 10:00", "name": "USPS COLLECTION BOX - PO LOBBY", "note": "ON 12/24 AND 12/31, THIS BOX MAY BE COLLECTED AS EARLY AS 12 NOON.", "ref": "9824300001"}, "type": "Feature"}
{"geometry": {"coordinates": [-123.00066, 48.619862529], "type": "Point"}, "id": "FO7c7-bQcEcFdvXed42G0sq0jA0=", "properties": {"@spider": "usps_collection_boxes", "addr:city": "DEER HARBOR", "addr:country": "US", "addr:full": "20 JACK AND JILL PL", "addr:postcode": "98243", "addr:state": "WA", "brand": "USPS", "collection_times": "Mo-Fr 14:15", "name": "USPS COLLECTION BOX - PO LOBBY", "note": "ON 12/24 AND 12/31, THIS BOX MAY BE COLLECTED AS EARLY AS 12 NOON.", "ref": "9824300003"}, "type": "Feature"}
{"geometry": {"coordinates": [-122.906263, 48.694935], "type": "Point"}, "id": "TH7LrTb-r0GrmpNP5-6EE2XwEUY=", "properties": {"@spider": "usps_collection_boxes", "addr:city": "EASTSOUND", "addr:country": "US", "addr:full": "68 N BEACH RD", "addr:postcode": "98245", "addr:state": "WA", "brand": "USPS", "collection_times": "Mo-Fr 14:00; Sa 10:45", "name": "USPS COLLECTION BOX - BLUE BOX", "note": "ON 12/24 AND 12/31, THIS BOX MAY BE COLLECTED AS EARLY AS 12 NOON.", "ref": "9824500002"}, "type": "Feature"}
{"geometry": {"coordinates": [-122.904538, 48.695076], "type": "Point"}, "id": "9VKsQBfhcB-2F8ou8YQ1kAxDziQ=", "properties": {"@spider": "usps_collection_boxes", "addr:city": "EASTSOUND", "addr:country": "US", "addr:full": "469 MARKET ST", "addr:postcode": "98245", "addr:state": "WA", "brand": "USPS", "collection_times": "Mo-Fr 14:00; Sa 10:45", "name": "USPS COLLECTION BOX - BLUE BOX", "note": "ON 12/24 AND 12/31, THIS BOX MAY BE COLLECTED AS EARLY AS 12 NOON.", "ref": "9824500004"}, "type": "Feature"}
{"geometry": {"coordinates": [-122.9075, 48.696846], "type": "Point"}, "id": "zVcRPSn9gi9rYTI5xrxB6rEGyQU=", "properties": {"@spider": "usps_collection_boxes", "addr:city": "EASTSOUND", "addr:country": "US", "addr:full": "221 A ST", "addr:postcode": "98245", "addr:state": "WA", "brand": "USPS", "collection_times": "Mo-Fr 15:00; Sa 10:45", "name": "USPS COLLECTION BOX - BLUE BOX", "note": "ON 12/24 AND 12/31, THIS BOX MAY BE COLLECTED AS EARLY AS 12 NOON.", "ref": "9824500005"}, "type": "Feature"}
{"geometry": {"coordinates": [-122.9075, 48.696846], "type": "Point"}, "id": "9BQU9M0L_Px3wTzSCm_Oh9HzjcQ=", "properties": {"@spider": "usps_collection_boxes", "addr:city": "EASTSOUND", "addr:country": "US", "addr:full": "221 A ST STE 1", "addr:postcode": "98245", "addr:state": "WA", "brand": "USPS", "collection_times": "Mo-Fr 15:00; Sa 10:45", "name": "USPS COLLECTION BOX - PO LOBBY", "note": "ON 12/24 AND 12/31, THIS BOX MAY BE COLLECTED AS EARLY AS 12 NOON.", "ref": "9824500009"}, "type": "Feature"}
{"geometry": {"coordinates": [-122.9075, 48.696846], "type": "Point"}, "id": "qDGE7ELns5OUQGsFukJGGjFHUYI=", "properties": {"@spider": "usps_collection_boxes", "addr:city": "EASTSOUND", "addr:country": "US", "addr:full": "221 A ST STE 1", "addr:postcode": "98245", "addr:state": "WA", "brand": "USPS", "collection_times": "Mo-Fr 15:00; Sa 10:45", "name": "USPS COLLECTION BOX - PO LOBBY", "note": "ON 12/24 AND 12/31, THIS BOX MAY BE COLLECTED AS EARLY AS 12 NOON.", "ref": "9824500010"}, "type": "Feature"}
{"geometry": {"coordinates": [-122.907501, 48.696846483], "type": "Point"}, "id": "oWQH8re4dnWl-6h65xHX3JolRE8=", "properties": {"@spider": "usps_collection_boxes", "addr:city": "EASTSOUND", "addr:country": "US", "addr:full": "221 A ST STE 1", "addr:postcode": "98245", "addr:state": "WA", "brand": "USPS", "collection_times": "Mo-Fr 15:00", "name": "USPS COLLECTION BOX - PO LOBBY", "note": "ON 12/24 AND 12/31, THIS BOX MAY BE COLLECTED AS EARLY AS 12 NOON.", "ref": "9824500011"}, "type": "Feature"}
{"geometry": {"coordinates": [-123.152725, 48.60841], "type": "Point"}, "id": "tmIB53HPuBR9BWBbv9yuIe8C4Is=", "properties": {"@spider": "usps_collection_boxes", "addr:city": "FRIDAY HARBOR", "addr:country": "US", "addr:full": "195 REUBEN MEMORIAL DR", "addr:postcode": "98250", "addr:state": "WA", "brand": "USPS", "collection_times": "Mo-Sa 11:00", "name": "USPS COLLECTION BOX - BLUE BOX", "ref": "9825000009"}, "type": "Feature"}
{"geometry": {"coordinates": [-121.692233, 47.852745], "type": "Point"}, "id": "Ek7eXY8MZhxOYGY1hKj-KgcsD7U=", "properties": {"@spider": "usps_collection_boxes", "addr:city": "GOLD BAR", "addr:country": "US", "addr:full": "122 10TH ST", "addr:postcode": "98251", "addr:state": "WA", "brand": "USPS", "collection_times": "Mo-Fr 14:00; Sa 11:30", "name": "USPS COLLECTION BOX - PO LOBBY", "note": "ON 12/24 AND 12/31, THIS BOX MAY BE COLLECTED AS EARLY AS 12 NOON.", "ref": "9825100000"}, "type": "Feature"}
{"geometry": {"coordinates": [-121.692252, 47.852773], "type": "Point"}, "id": "nSLSq8Sule5qqWtRc1TmbEnUcVY=", "properties": {"@spider": "usps_collection_boxes", "addr:city": "GOLD BAR", "addr:country": "US", "addr:full": "122 10TH ST", "addr:postcode": "98251", "addr:state": "WA", "brand": "USPS", "collection_times": "Mo-Fr 14:00; Sa 11:30", "name": "USPS COLLECTION BOX - BLUE BOX", "note": "ON 12/24 AND 12/31, THIS BOX MAY BE COLLECTED AS EARLY AS 12 NOON.", "ref": "9825100001"}, "type": "Feature"}
{"geometry": {"coordinates": [-121.692252, 47.852773], "type": "Point"}, "id": "WHHh9dY2Y-Fn6efqCRhQ2FGKYcs=", "properties": {"@spider": "usps_collection_boxes", "addr:city": "GOLD BAR", "addr:country": "US", "addr:full": "122 10TH ST", "addr:postcode": "98251", "addr:state": "WA", "brand": "USPS", "collection_times": "Mo-Fr 14:00; Sa 11:30", "name": "USPS COLLECTION BOX - BLUE BOX", "note": "ON 12/24 AND 12/31, THIS BOX MAY BE COLLECTED AS EARLY AS 12 NOON.", "ref": "9825100002"}, "type": "Feature"}
{"geometry": {"coordinates": [-121.691999653, 47.852942104], "type": "Point"}, "id": "y17mZDhqc78-I8iMbSiK5cygwaE=", "properties": {"@spider": "usps_collection_boxes", "addr:city": "GOLD BAR", "addr:country": "US", "addr:full": "122 10TH ST", "addr:postcode": "98251", "addr:state": "WA", "brand": "USPS", "collection_times": "Mo-Fr 16:15", "name": "USPS COLLECTION BOX - PO LOBBY", "note": "ON 12/24 AND 12/31, THIS BOX MAY BE COLLECTED AS EARLY AS 12 NOON.", "ref": "9825100003"}, "type": "Feature"}
{"geometry": {"coordinates": [-121.967826, 48.083407], "type": "Point"}, "id": "8hybappjv-thYOGcktbnHg_z09Y=", "properties": {"@spider": "usps_collection_boxes", "addr:city": "GRANITE FALLS", "addr:country": "US", "addr:full": "205 E STANLEY ST", "addr:postcode": "98252", "addr:state": "WA", "brand": "USPS", "collection_times": "Mo-Fr 16:15; Sa 11:30", "name": "USPS COLLECTION BOX - BLUE BOX", "note": "ON 12/24 AND 12/31, THIS BOX MAY BE COLLECTED AS EARLY AS 12 NOON.", "ref": "9825200000"}, "type": "Feature"}
{"geometry": {"coordinates": [-121.967947, 48.083379], "type": "Point"}, "id": "ScmTPFO327WYOnDgn_iM2DtOG_o=", "properties": {"@spider": "usps_collection_boxes", "addr:city": "GRANITE FALLS", "addr:country": "US", "addr:full": "205 E STANLEY ST", "addr:postcode": "98252", "addr:state": "WA", "brand": "USPS", "collection_times": "Mo-Fr 16:15; Sa 11:30", "name": "USPS COLLECTION BOX - PO LOBBY", "note": "ON 12/24 AND 12/31, THIS BOX MAY BE COLLECTED AS EARLY AS 12 NOON.", "ref": "9825200001"}, "type": "Feature"}
{"geometry": {"coordinates": [-121.969269, 48.083541], "type": "Point"}, "id": "kRMgGD-ejm-ubxv3RQY6UP5SHKE=", "properties": {"@spider": "usps_collection_boxes", "addr:city": "GRANITE FALLS", "addr:country": "US", "addr:full": "115 N GRANITE AVE", "addr:postcode": "98252", "addr:state": "WA", "brand": "USPS", "collection_times": "Mo-Fr 12:30; Sa 11:30", "name": "USPS COLLECTION BOX - BLUE BOX", "note": "ON 12/24 AND 12/31, THIS BOX MAY BE COLLECTED AS EARLY AS 12 NOON.", "ref": "9825200002"}, "type": "Feature"}
{"geometry": {"coordinates": [-121.967652945, 48.083390453], "type": "Point"}, "id": "4pZADvFAHiwz-9yPXTkog2jDMZ0=", "properties": {"@spider": "usps_collection_boxes", "addr:city": "GRANITE FALLS", "addr:country": "US", "addr:full": "205 E STANLEY ST", "addr:postcode": "98252", "addr:state": "WA", "brand": "USPS", "collection_times": "Mo-Fr 16:30", "name": "USPS COLLECTION BOX - PO LOBBY", "note": "ON 12/24 AND 12/31, THIS BOX MAY BE COLLECTED AS EARLY AS 12 NOON.", "ref": "9825200003"}, "type": "Feature"}
{"geometry": {"coordinates": [-121.989688, 48.521934], "type": "Point"}, "id": "-VxQET9iHwXmfPC4A32I8DCyX-o=", "properties": {"@spider": "usps_collection_boxes", "addr:city": "HAMILTON", "addr:country": "US", "addr:full": "520B MAPLE ST", "addr:postcode": "98255", "addr:state": "WA", "brand": "USPS", "collection_times": "Mo-Fr 13:00; Sa 09:45", "name": "USPS COLLECTION BOX - BLUE BOX", "note": "ON 12/24 AND 12/31, THIS BOX MAY BE COLLECTED AS EARLY AS 12 NOON.", "ref": "9825500000"}, "type": "Feature"}
{"geometry": {"coordinates": [-121.9896, 48.521941], "type": "Point"}, "id": "47vayC9sL4lIak34RMUNSoG2CnE=", "properties": {"@spider": "usps_collection_boxes", "addr:city": "HAMILTON", "addr:country": "US", "addr:full": "520B MAPLE ST", "addr:postcode": "98255", "addr:state": "WA", "brand": "USPS", "collection_times": "Mo-Fr 13:00; Sa 09:45", "name": "USPS COLLECTION BOX - PO LOBBY", "note": "ON 12/24 AND 12/31, THIS BOX MAY BE COLLECTED AS EARLY AS 12 NOON.", "ref": "9825500001"}, "type": "Feature"}
{"geometry": {"coordinates": [-121.989661377, 48.521862817], "type": "Point"}, "id": "RYBQGXGJKPMlFaV-8OLr2HePQJI=", "properties": {"@spider": "usps_collection_boxes", "addr:city": "HAMILTON", "addr:country": "US", "addr:full": "520B MAPLE ST", "addr:postcode": "98255", "addr:state": "WA", "brand": "USPS", "collection_times": "Mo-Fr 13:00; Sa 09:45", "name": "USPS COLLECTION BOX - PO LOBBY", "note": "ON 12/24 AND 12/31, THIS BOX MAY BE COLLECTED AS EARLY AS 12 NOON.", "ref": "9825500002"}, "type": "Feature"}
{"geometry": {"coordinates": [-121.5541575, 47.82042], "type": "Point"}, "id": "vbPBXs01FflXpmrJX02jK4KlR_Y=", "properties": {"@spider": "usps_collection_boxes", "addr:city": "INDEX", "addr:country": "US", "addr:full": "503 AVENUE A", "addr:postcode": "98256", "addr:state": "WA", "brand": "USPS", "collection_times": "Mo-Fr 15:00; Sa 10:00", "name": "USPS COLLECTION BOX - PO LOBBY", "note": "ON 12/24 AND 12/31, THIS BOX MAY BE COLLECTED AS EARLY AS 12 NOON.", "ref": "9825600001"}, "type": "Feature"}
{"geometry": {"coordinates": [-121.5541575, 47.82042], "type": "Point"}, "id": "kInikdRp4csJQdllvPbGxQ1kSmc=", "properties": {"@spider": "usps_collection_boxes", "addr:city": "INDEX", "addr:country": "US", "addr:full": "503 AVENUE A", "addr:postcode": "98256", "addr:state": "WA", "brand": "USPS", "collection_times": "Mo-Fr 15:30; Sa 10:30", "name": "USPS COLLECTION BOX - PO LOBBY", "note": "ON 12/24 AND 12/31, THIS BOX MAY BE COLLECTED AS EARLY AS 12 NOON.", "ref": "9825600002"}, "type": "Feature"}
{"geometry": {"coordinates": [-122.064056, 48.013213], "type": "Point"}, "id": "T-_L4gkwZgu7hZ-jZqCUW_9QMHQ=", "properties": {"@spider": "usps_collection_boxes", "addr:city": "LAKE STEVENS", "addr:country": "US", "addr:full": "1709 124TH AVE NE", "addr:postcode": "98258", "addr:state": "WA", "brand": "USPS", "collection_times": "Mo-Fr 17:00; Sa 11:00", "name": "USPS COLLECTION BOX - BLUE BOX", "note": "ON 12/24 AND 12/31, THIS BOX MAY BE COLLECTED AS EARLY AS 12 NOON.", "ref": "9825800001"}, "type": "Feature"}
{"geometry": {"coordinates": [-122.064091, 48.013137], "type": "Point"}, "id": "LT5AI8eHdBZ940JN1861R9FbI9c=", "properties": {"@spider": "usps_collection_boxes", "addr:city": "LAKE STEVENS", "addr:country": "US", "addr:full": "1709 124TH AVE NE", "addr:postcode": "98258", "addr:state": "WA", "brand": "USPS", "collection_times": "Mo-Fr 17:00; Sa 11:00", "name": "USPS COLLECTION BOX - PO LOBBY", "note": "ON 12/24 AND 12/31, THIS BOX MAY BE COLLECTED AS EARLY AS 12 NOON.", "ref": "9825800004"}, "type": "Feature"}
{"geometry": {"coordinates": [-122.064138, 48.013222], "type": "Point"}, "id": "vaQGD6o6JmWKPDTdqPKU_6Ygduw=", "properties": {"@spider": "usps_collection_boxes", "addr:city": "LAKE STEVENS", "addr:country": "US", "addr:full": "1710 124TH AVE NE", "addr:postcode": "98258", "addr:state": "WA", "brand": "USPS", "collection_times": "Mo-Fr 14:00; Sa 10:30", "name": "USPS COLLECTION BOX - BLUE BOX", "note": "ON 12/24 AND 12/31, THIS BOX MAY BE COLLECTED AS EARLY AS 12 NOON.", "ref": "9825800005"}, "type": "Feature"}
{"geometry": {"coordinates": [-122.10702, 47.999696], "type": "Point"}, "id": "PMcj8Z4xmUb9wIxBhZ-MwYGb1OE=", "properties": {"@spider": "usps_collection_boxes", "addr:city": "LAKE STEVENS", "addr:country": "US", "addr:full": "303 91ST AVE NE", "addr:postcode": "98258", "addr:state": "WA", "brand": "USPS", "collection_times": "Mo-Fr 09:30", "name": "USPS COLLECTION BOX - BLUE BOX", "ref": "9825800007"}, "type": "Feature"}
{"geometry": {"coordinates": [-122.064111446, 48.013650199], "type": "Point"}, "id": "SYZSANuxGfQ9pvlRNQHmRPfT-xg=", "properties": {"@spider": "usps_collection_boxes", "addr:city": "LAKE STEVENS", "addr:country": "US", "addr:full": "1709 124TH AVE NE", "addr:postcode": "98258", "addr:state": "WA", "brand": "USPS", "collection_times": "Mo-Fr 17:00", "name": "USPS COLLECTION BOX - PO LOBBY", "note": "ON 12/24 AND 12/31, THIS BOX MAY BE COLLECTED AS EARLY AS 12 NOON.", "ref": "9825800008"}, "type": "Feature"}
{"geometry": {"coordinates": [-122.059701, 48.525727], "type": "Point"}, "id": "gsNcS3qNfZbOb1uXX7f7a49nwQI=", "properties": {"@spider": "usps_collection_boxes", "addr:city": "LYMAN", "addr:country": "US", "addr:full": "8353 S MAIN ST", "addr:postcode": "98263", "addr:state": "WA", "brand": "USPS", "collection_times": "Mo-Fr 16:00; Sa 09:15", "name": "USPS COLLECTION BOX - BLUE BOX", "note": "ON 12/24 AND 12/31, THIS BOX MAY BE COLLECTED AS EARLY AS 12 NOON.", "ref": "9826300000"}, "type": "Feature"}
{"geometry": {"coordinates": [-122.059738, 48.525818], "type": "Point"}, "id": "t0wk2md_cGpkarTl29l5zW4HAHA=", "properties": {"@spider": "usps_collection_boxes", "addr:city": "LYMAN", "addr:country": "US", "addr:full": "8353 S MAIN ST", "addr:postcode": "98263", "addr:state": "WA", "brand": "USPS", "collection_times": "Mo-Fr 16:00; Sa 09:15", "name": "USPS COLLECTION BOX - PO LOBBY", "note": "ON 12/24 AND 12/31, THIS BOX MAY BE COLLECTED AS EARLY AS 12 NOON.", "ref": "9826300001"}, "type": "Feature"}
{"geometry": {"coordinates": [-122.059711626, 48.52562313], "type": "Point"}, "id": "JUz2nABp7u_ZpNfFu6nRXfCUbtk=", "properties": {"@spider": "usps_collection_boxes", "addr:city": "LYMAN", "addr:country": "US", "addr:full": "8353 S MAIN ST", "addr:postcode": "98263", "addr:state": "WA", "brand": "USPS", "collection_times": "Mo-Fr 15:45; Sa 09:00", "name": "USPS COLLECTION BOX - PO LOBBY", "note": "ON 12/24 AND 12/31, THIS BOX MAY BE COLLECTED AS EARLY AS 12 NOON.", "ref": "9826300002"}, "type": "Feature"}
{"geometry": {"coordinates": [-121.692689, 48.847498], "type": "Point"}, "id": "qvMvn2uYyoUG6lmvMAnmheLyN-E=", "properties": {"@spider": "usps_collection_boxes", "addr:city": "MAPLE FALLS", "addr:country": "US", "addr:full": "7392 MOUNT BAKER HWY", "addr:postcode": "98266", "addr:state": "WA", "brand": "USPS", "collection_times": "Mo-Fr 15:00; Sa 11:30", "name": "USPS COLLECTION BOX - BLUE BOX", "note": "ON 12/24 AND 12/31, THIS BOX MAY BE COLLECTED AS EARLY AS 12 NOON.", "ref": "9826600000"}, "type": "Feature"}
{"geometry": {"coordinates": [-121.692689, 48.847498], "type": "Point"}, "id": "ZWyHVGwfkBvm-xm4iB19qaLWuZI=", "properties": {"@spider": "usps_collection_boxes", "addr:city": "MAPLE FALLS", "addr:country": "US", "addr:full": "7392 MOUNT BAKER HWY", "addr:postcode": "98266", "addr:state": "WA", "brand": "USPS", "collection_times": "Mo-Fr 15:00; Sa 11:30", "name": "USPS COLLECTION BOX - PO LOBBY", "note": "ON 12/24 AND 12/31, THIS BOX MAY BE COLLECTED AS EARLY AS 12 NOON.", "ref": "9826600001"}, "type": "Feature"}
{"geometry": {"coordinates": [-122.082321298, 48.924205519], "type": "Point"}, "id": "0ipQVtlZ_RSCVRVFqDpoYd9bqBs=", "properties": {"@spider": "usps_collection_boxes", "addr:city": "MAPLE FALLS", "addr:country": "US", "addr:full": "7392 MOUNT BAKER HWY", "addr:postcode": "98266", "addr:state": "WA", "brand": "USPS", "collection_times": "Mo-Fr 15:00; Sa 11:30", "name": "USPS COLLECTION BOX - PO LOBBY", "note": "ON 12/24 AND 12/31, THIS BOX MAY BE COLLECTED AS EARLY AS 12 NOON.", "ref": "9826600002"}, "type": "Feature"}
{"geometry": {"coordinates": [-121.432868, 48.52669], "type": "Point"}, "id": "yuOcC95WXbz8XdjhS6gdYZSC1Xs=", "properties": {"@spider": "usps_collection_boxes", "addr:city": "MARBLEMOUNT", "addr:country": "US", "addr:full": "60096 STATE ROUTE 20", "addr:postcode": "98267", "addr:state": "WA", "brand": "USPS", "collection_times": "Mo-Fr 13:00; Sa 09:30", "name": "USPS COLLECTION BOX - BLUE BOX", "note": "ON 12/24 AND 12/31, THIS BOX MAY BE COLLECTED AS EARLY AS 12 NOON.", "ref": "9826700000"}, "type": "Feature"}
{"geometry": {"coordinates": [-121.432994, 48.526717], "type": "Point"}, "id": "AI71S8r3oH5a1IM5wH4H5PYt9B4=", "properties": {"@spider": "usps_collection_boxes", "addr:city": "MARBLEMOUNT", "addr:country": "US", "addr:full": "60096 STATE ROUTE 20", "addr:postcode": "98267", "addr:state": "WA", "brand": "USPS", "collection_times": "Mo-Fr 11:45; Sa 09:30", "name": "USPS COLLECTION BOX - PO LOBBY", "ref": "9826700001"}, "type": "Feature"}
{"geometry": {"coordinates": [-121.432994, 48.526717], "type": "Point"}, "id": "c1jAWvGGBEU-mOdLWhgtIj5iVPQ=", "properties": {"@spider": "usps_collection_boxes", "addr:city": "MARBLEMOUNT", "addr:country": "US", "addr:full": "60096 STATE ROUTE 20", "addr:postcode": "98267", "addr:state": "WA", "brand": "USPS", "collection_times": "Mo-Fr 11:45; Sa 09:30", "name": "USPS COLLECTION BOX - PO LOBBY", "ref": "9826700002"}, "type": "Feature"}
{"geometry": {"coordinates": [-121.432593054, 48.52668047], "type": "Point"}, "id": "HORyUMnwIu792iyIBUBUK7RUrek=", "properties": {"@spider": "usps_collection_boxes", "addr:city": "MARBLEMOUNT", "addr:country": "US", "addr:full": "60096 STATE ROUTE 20", "addr:postcode": "98267", "addr:state": "WA", "brand": "USPS", "collection_times": "Mo-Fr 14:15", "name": "USPS COLLECTION BOX - PO LOBBY", "note": "ON 12/24 AND 12/31, THIS BOX MAY BE COLLECTED AS EARLY AS 12 NOON.", "ref": "9826700003"}, "type": "Feature"}
{"geometry": {"coordinates": [-122.142208, 48.053031], "type": "Point"}, "id": "da20dZW9DeknAu0lCEkg3QoZ26U=", "properties": {"@spider": "usps_collection_boxes", "addr:city": "MARYSVILLE", "addr:country": "US", "addr:full": "6610 64TH ST NE", "addr:postcode": "98270", "addr:state": "WA", "brand": "USPS", "collection_times": "Mo-Sa 13:00", "name": "USPS COLLECTION BOX - BLUE BOX", "note": "ON 12/24 AND 12/31, THIS BOX MAY BE COLLECTED AS EARLY AS 12 NOON.", "ref": "9827000022"}, "type": "Feature"}
{"geometry": {"coordinates": [-121.9692915, 47.859462], "type": "Point"}, "id": "6fU-dNbLBb47eDkP_aCRvdY1eMw=", "properties": {"@spider": "usps_collection_boxes", "addr:city": "MONROE", "addr:country": "US", "addr:full": "19501 STATE ROUTE 2", "addr:postcode": "98272", "addr:state": "WA", "brand": "USPS", "collection_times": "Mo-Fr 13:20; Sa 12:30", "name": "USPS COLLECTION BOX - BLUE BOX", "note": "ON 12/24 AND 12/31, THIS BOX MAY BE COLLECTED AS EARLY AS 12 NOON.", "ref": "9827200004"}, "type": "Feature"}
{"geometry": {"coordinates": [-121.963423, 47.859809], "type": "Point"}, "id": "0EXxWdmSg_Uf_z9_XFLI354Fz6A=", "properties": {"@spider": "usps_collection_boxes", "addr:city": "MONROE", "addr:country": "US", "addr:full": "19923 STATE ROUTE 2", "addr:postcode": "98272", "addr:state": "WA", "brand": "USPS", "collection_times": "Mo-Sa 12:30", "name": "USPS COLLECTION BOX - BLUE BOX", "note": "ON 12/24 AND 12/31, THIS BOX MAY BE COLLECTED AS EARLY AS 12 NOON.", "ref": "9827200006"}, "type": "Feature"}
{"geometry": {"coordinates": [-121.990547, 47.863824], "type": "Point"}, "id": "cNuEAlrJCipt9Y0ABz7mahLJRRI=", "properties": {"@spider": "usps_collection_boxes", "addr:city": "MONROE", "addr:country": "US", "addr:full": "14701 179TH AVE SE", "addr:postcode": "98272", "addr:state": "WA", "brand": "USPS", "collection_times": "Mo-Fr 14:00; Sa 12:30", "name": "USPS COLLECTION BOX - BLUE BOX", "note": "ON 12/24 AND 12/31, THIS BOX MAY BE COLLECTED AS EARLY AS 12 NOON.", "ref": "9827200009"}, "type": "Feature"}
{"geometry": {"coordinates": [-121.9780957007, 47.8609780976], "type": "Point"}, "id": "VQO0_se8SU_KlO9Ai4auLGfeVgM=", "properties": {"@spider": "usps_collection_boxes", "addr:city": "MONROE", "addr:country": "US", "addr:full": "18802 STATE ROUTE 2", "addr:postcode": "98272", "addr:state": "WA", "brand": "USPS", "collection_times": "Mo-Fr 14:00; Sa 12:30", "name": "USPS COLLECTION BOX - BLUE BOX", "note": "ON 12/24 AND 12/31, THIS BOX MAY BE COLLECTED AS EARLY AS 12 NOON.", "ref": "9827200010"}, "type": "Feature"}
{"geometry": {"coordinates": [-121.9724139767, 47.8560119904], "type": "Point"}, "id": "vs3qR1figswAVt_0pJP8W-pA2P0=", "properties": {"@spider": "usps_collection_boxes", "addr:city": "MONROE", "addr:country": "US", "addr:full": "122 N BLAKELEY ST", "addr:postcode": "98272", "addr:state": "WA", "brand": "USPS", "collection_times": "Mo-Fr 17:00; Sa 15:00", "name": "USPS COLLECTION BOX - PO LOBBY", "note": "ON 12/24 AND 12/31, THIS BOX MAY BE COLLECTED AS EARLY AS 12 NOON.", "ref": "9827200012"}, "type": "Feature"}
{"geometry": {"coordinates": [-121.9724139767, 47.8560119904], "type": "Point"}, "id": "v4F5I1-v9mq5Cnd_7VdsDQlpI1E=", "properties": {"@spider": "usps_collection_boxes", "addr:city": "MONROE", "addr:country": "US", "addr:full": "122 N BLAKELEY ST", "addr:postcode": "98272", "addr:state": "WA", "brand": "USPS", "collection_times": "Mo-Fr 17:00; Sa 15:00", "name": "USPS COLLECTION BOX - PO LOBBY", "note": "ON 12/24 AND 12/31, THIS BOX MAY BE COLLECTED AS EARLY AS 12 NOON.", "ref": "9827200013"}, "type": "Feature"}
{"geometry": {"coordinates": [-121.9724139767, 47.8560119904], "type": "Point"}, "id": "Jcc63-E_fPIJGZe5DHSaiWVP4dw=", "properties": {"@spider": "usps_collection_boxes", "addr:city": "MONROE", "addr:country": "US", "addr:full": "122 N BLAKELEY ST", "addr:postcode": "98272", "addr:state": "WA", "brand": "USPS", "collection_times": "Mo-Fr 17:00; Sa 15:00", "name": "USPS COLLECTION BOX - BLUE BOX", "note": "ON 12/24 AND 12/31, THIS BOX MAY BE COLLECTED AS EARLY AS 12 NOON.", "ref": "9827200015"}, "type": "Feature"}
{"geometry": {"coordinates": [-121.9724139767, 47.8560119904], "type": "Point"}, "id": "ZTg1CsVNI_Di2eiAaKE_RkEd4JQ=", "properties": {"@spider": "usps_collection_boxes", "addr:city": "MONROE", "addr:country": "US", "addr:full": "122 N BLAKELEY ST", "addr:postcode": "98272", "addr:state": "WA", "brand": "USPS", "collection_times": "Mo-Fr 17:00", "name": "USPS COLLECTION BOX - PO LOBBY", "note": "ON 12/24 AND 12/31, THIS BOX MAY BE COLLECTED AS EARLY AS 12 NOON.", "ref": "9827200016"}, "type": "Feature"}
{"geometry": {"coordinates": [-123.068513, 48.984693], "type": "Point"}, "id": "WSMM43IKwEwaF4Bw2Puj773OjHY=", "properties": {"@spider": "usps_collection_boxes", "addr:city": "POINT ROBERTS", "addr:country": "US", "addr:full": "1582 GULF RD", "addr:postcode": "98281", "addr:state": "WA", "brand": "USPS", "collection_times": "Mo-Fr 14:00; Sa 13:15", "name": "USPS COLLECTION BOX - BLUE BOX", "note": "ON 12/24 AND 12/31, THIS BOX MAY BE COLLECTED AS EARLY AS 12 NOON.", "ref": "9828100001"}, "type": "Feature"}
{"geometry": {"coordinates": [-123.068476, 48.984666], "type": "Point"}, "id": "5zyCpR2vAqWczXxzKMnZOSIPEv0=", "properties": {"@spider": "usps_collection_boxes", "addr:city": "POINT ROBERTS", "addr:country": "US", "addr:full": "1582 GULF RD", "addr:postcode": "98281", "addr:state": "WA", "brand": "USPS", "collection_times": "Mo-Fr 14:00; Sa 13:15", "name": "USPS COLLECTION BOX - PO LOBBY", "note": "ON 12/24 AND 12/31, THIS BOX MAY BE COLLECTED AS EARLY AS 12 NOON.", "ref": "9828100002"}, "type": "Feature"}
{"geometry": {"coordinates": [-123.068476, 48.984666], "type": "Point"}, "id": "GdqUyZDg0MJflw0_p8fs2_PAyfk=", "properties": {"@spider": "usps_collection_boxes", "addr:city": "POINT ROBERTS", "addr:country": "US", "addr:full": "1582 GULF RD", "addr:postcode": "98281", "addr:state": "WA", "brand": "USPS", "collection_times": "Mo-Fr 14:00; Sa 13:15", "name": "USPS COLLECTION BOX - PO LOBBY", "note": "ON 12/24 AND 12/31, THIS BOX MAY BE COLLECTED AS EARLY AS 12 NOON.", "ref": "9828100003"}, "type": "Feature"}
{"geometry": {"coordinates": [-123.068569512, 48.984765042], "type": "Point"}, "id": "UP2VAIwb49Vj2jhT3vVIQfVAEyE=", "properties": {"@spider": "usps_collection_boxes", "addr:city": "POINT ROBERTS", "addr:country": "US", "addr:full": "1582 GULF RD", "addr:postcode": "98281", "addr:state": "WA", "brand": "USPS", "collection_times": "Mo-Fr 14:00", "name": "USPS COLLECTION BOX - PO LOBBY", "note": "ON 12/24 AND 12/31, THIS BOX MAY BE COLLECTED AS EARLY AS 12 NOON.", "ref": "9828100004"}, "type": "Feature"}
{"geometry": {"coordinates": [-121.598584, 48.484954], "type": "Point"}, "id": "KZEj_9yJCSncupF6HeXlLW4kL2k=", "properties": {"@spider": "usps_collection_boxes", "addr:city": "ROCKPORT", "addr:country": "US", "addr:full": "52779 RAILROAD AVE", "addr:postcode": "98283", "addr:state": "WA", "brand": "USPS", "collection_times": "Mo-Fr 15:15; Sa 09:00", "name": "USPS COLLECTION BOX - BLUE BOX", "note": "ON 12/24 AND 12/31, THIS BOX MAY BE COLLECTED AS EARLY AS 12 NOON.", "ref": "9828300000"}, "type": "Feature"}
{"geometry": {"coordinates": [-121.598584, 48.484954], "type": "Point"}, "id": "ZD00i14l8aIavEc7pz18eCKbGFw=", "properties": {"@spider": "usps_collection_boxes", "addr:city": "ROCKPORT", "addr:country": "US", "addr:full": "52779 RAILROAD AVE", "addr:postcode": "98283", "addr:state": "WA", "brand": "USPS", "collection_times": "Mo-Fr 15:15; Sa 09:00", "name": "USPS COLLECTION BOX - PO LOBBY", "note": "ON 12/24 AND 12/31, THIS BOX MAY BE COLLECTED AS EARLY AS 12 NOON.", "ref": "9828300001"}, "type": "Feature"}
{"geometry": {"coordinates": [-121.598521057, 48.485009786], "type": "Point"}, "id": "KPG-IJOqzSYOSYXY9n1M43wf4EM=", "properties": {"@spider": "usps_collection_boxes", "addr:city": "ROCKPORT", "addr:country": "US", "addr:full": "52779 RAILROAD AVE", "addr:postcode": "98283", "addr:state": "WA", "brand": "USPS", "collection_times": "Mo-Fr 15:15; Sa 09:00", "name": "USPS COLLECTION BOX - PO LOBBY", "note": "ON 12/24 AND 12/31, THIS BOX MAY BE COLLECTED AS EARLY AS 12 NOON.", "ref": "9828300003"}, "type": "Feature"}
{"geometry": {"coordinates": [-121.3586774714, 47.7074956794], "type": "Point"}, "id": "_up0L7SRm86VEfPd58rM1WAn8ZA=", "properties": {"@spider": "usps_collection_boxes", "addr:city": "SKYKOMISH", "addr:country": "US", "addr:full": "108 THELMA ST", "addr:postcode": "98288", "addr:state": "WA", "brand": "USPS", "collection_times": "Mo-Fr 15:15; Sa 09:30", "name": "USPS COLLECTION BOX - BLUE BOX", "note": "ON 12/24 AND 12/31, THIS BOX MAY BE COLLECTED AS EARLY AS 12 NOON.", "ref": "9828800000"}, "type": "Feature"}
{"geometry": {"coordinates": [-121.3586774714, 47.7074956794], "type": "Point"}, "id": "wc9ljbR0pJeyomXlNnlTrO6BUME=", "properties": {"@spider": "usps_collection_boxes", "addr:city": "SKYKOMISH", "addr:country": "US", "addr:full": "108 THELMA ST", "addr:postcode": "98288", "addr:state": "WA", "brand": "USPS", "collection_times": "Mo-Fr 15:15; Sa 09:30", "name": "USPS COLLECTION BOX - PO LOBBY", "note": "ON 12/24 AND 12/31, THIS BOX MAY BE COLLECTED AS EARLY AS 12 NOON.", "ref": "9828800001"}, "type": "Feature"}
{"geometry": {"coordinates": [-121.3586774714, 47.7074956794], "type": "Point"}, "id": "SlUijCV_yK8SBpNYRbddVP_oCXw=", "properties": {"@spider": "usps_collection_boxes", "addr:city": "SKYKOMISH", "addr:country": "US", "addr:full": "108 THELMA ST", "addr:postcode": "98288", "addr:state": "WA", "brand": "USPS", "collection_times": "Mo-Fr 15:15", "name": "USPS COLLECTION BOX - PO LOBBY", "note": "ON 12/24 AND 12/31, THIS BOX MAY BE COLLECTED AS EARLY AS 12 NOON.", "ref": "9828800002"}, "type": "Feature"}
{"geometry": {"coordinates": [-121.742218, 47.867221], "type": "Point"}, "id": "-SewSLcYrSA1qvOEWRXREGtxpIE=", "properties": {"@spider": "usps_collection_boxes", "addr:city": "STARTUP", "addr:country": "US", "addr:full": "36513 STATE ROUTE 2", "addr:postcode": "98293", "addr:state": "WA", "brand": "USPS", "collection_times": "Mo-Fr 16:15; Sa 10:15", "name": "USPS COLLECTION BOX - BLUE BOX", "note": "ON 12/24 AND 12/31, THIS BOX MAY BE COLLECTED AS EARLY AS 12 NOON.", "ref": "9829300000"}, "type": "Feature"}
{"geometry": {"coordinates": [-121.742218, 47.867221], "type": "Point"}, "id": "s-09CvXV0N0jaLYQAEIhbN802NE=", "properties": {"@spider": "usps_collection_boxes", "addr:city": "STARTUP", "addr:country": "US", "addr:full": "36513 STATE ROUTE 2", "addr:postcode": "98293", "addr:state": "WA", "brand": "USPS", "collection_times": "Mo-Fr 16:15; Sa 10:15", "name": "USPS COLLECTION BOX - PO LOBBY", "note": "ON 12/24 AND 12/31, THIS BOX MAY BE COLLECTED AS EARLY AS 12 NOON.", "ref": "9829300001"}, "type": "Feature"}
{"geometry": {"coordinates": [-121.7421405, 47.867205519], "type": "Point"}, "id": "DrpZXpoYXijXMHXaif2R3YAvvjs=", "properties": {"@spider": "usps_collection_boxes", "addr:city": "STARTUP", "addr:country": "US", "addr:full": "36513 STATE ROUTE 2", "addr:postcode": "98293", "addr:state": "WA", "brand": "USPS", "collection_times": "Mo-Fr 16:15; Sa 10:00", "name": "USPS COLLECTION BOX - PO LOBBY", "note": "ON 12/24 AND 12/31, THIS BOX MAY BE COLLECTED AS EARLY AS 12 NOON.", "ref": "9829300002"}, "type": "Feature"}
{"geometry": {"coordinates": [-121.816416, 47.862409], "type": "Point"}, "id": "WABda_JGLnEswiWmBtQC90V-pks=", "properties": {"@spider": "usps_collection_boxes", "addr:city": "SULTAN", "addr:country": "US", "addr:full": "102 4TH ST", "addr:postcode": "98294", "addr:state": "WA", "brand": "USPS", "collection_times": "Mo-Fr 16:30; Sa 12:00", "name": "USPS COLLECTION BOX - BLUE BOX", "note": "ON 12/24 AND 12/31, THIS BOX MAY BE COLLECTED AS EARLY AS 12 NOON.", "ref": "9829400000"}, "type": "Feature"}
{"geometry": {"coordinates": [-121.816458, 47.862323], "type": "Point"}, "id": "eUu5EG8yOCAPbMRleUez0IdLGcE=", "properties": {"@spider": "usps_collection_boxes", "addr:city": "SULTAN", "addr:country": "US", "addr:full": "102 4TH ST", "addr:postcode": "98294", "addr:state": "WA", "brand": "USPS", "collection_times": "Mo-Fr 16:30; Sa 12:00", "name": "USPS COLLECTION BOX - PO LOBBY", "note": "ON 12/24 AND 12/31, THIS BOX MAY BE COLLECTED AS EARLY AS 12 NOON.", "ref": "9829400001"}, "type": "Feature"}
{"geometry": {"coordinates": [-121.81641011, 47.862100509], "type": "Point"}, "id": "QkxI_2biU_6-SJ32ek_8CeQDqj8=", "properties": {"@spider": "usps_collection_boxes", "addr:city": "SULTAN", "addr:country": "US", "addr:full": "102 4TH ST", "addr:postcode": "98294", "addr:state": "WA", "brand": "USPS", "collection_times": "Mo-Fr 16:45", "name": "USPS COLLECTION BOX - PO LOBBY", "note": "ON 12/24 AND 12/31, THIS BOX MAY BE COLLECTED AS EARLY AS 12 NOON.", "ref": "9829400003"}, "type": "Feature"}
