{"geometry": {"coordinates": [-124.349412, 48.056199], "type": "Point"}, "id": "--GrWbwvtAbf8sU3ISuChLfy6I0=", "properties": {"@spider": "usps_collection_boxes", "addr:city": "BEAVER", "addr:country": "US", "addr:full": "200341 HIGHWAY 101", "addr:postcode": "98305", "addr:state": "WA", "brand": "USPS", "collection_times": "Mo-Fr 15:00; Sa 11:00", "name": "USPS COLLECTION BOX - BLUE BOX", "note": "ON 12/24 AND 12/31, THIS BOX MAY BE COLLECTED AS EARLY AS 12 NOON.", "ref": "9830500000"}, "type": "Feature"}
{"geometry": {"coordinates": [-124.349549, 48.05618], "type": "Point"}, "id": "2dK4XPPdHv10e3sSIrNEWbui1MY=", "properties": {"@spider": "usps_collection_boxes", "addr:city": "BEAVER", "addr:country": "US", "addr:full": "200341 HIGHWAY 101", "addr:postcode": "98305", "addr:state": "WA", "brand": "USPS", "collection_times": "Mo-Fr 15:00; Sa 11:00", "name": "USPS COLLECTION BOX - PO LOBBY", "note": "ON 12/24 AND 12/31, THIS BOX MAY BE COLLECTED AS EARLY AS 12 NOON.", "ref": "9830500001"}, "type": "Feature"}
{"geometry": {"coordinates": [-124.348707828, 48.056156475], "type": "Point"}, "id": "nY6vC2O3cFZ_R5RIYCoXG_Ilb00=", "properties": {"@spider": "usps_collection_boxes", "addr:city": "BEAVER", "addr:country": "US", "addr:full": "200341 HIGHWAY 101", "addr:postcode": "98305", "addr:state": "WA", "brand": "USPS", "collection_times": "Mo-Fr 15:30; Sa 11:30", "name": "USPS COLLECTION BOX - PO LOBBY", "note": "ON 12/24 AND 12/31, THIS BOX MAY BE COLLECTED AS EARLY AS 12 NOON.", "ref": "9830500002"}, "type": "Feature"}
{"geometry": {"coordinates": [-122.628662, 47.604343], "type": "Point"}, "id": "CfGW8nWB_DpaaPVKYZ5IznqtgbA=", "properties": {"@spider": "usps_collection_boxes", "addr:city": "BREMERTON", "addr:country": "US", "addr:full": "4212 WHEATON WAY", "addr:postcode": "98310", "addr:state": "WA", "brand": "USPS", "collection_times": "Mo-Sa 15:00", "name": "USPS COLLECTION BOX - BLUE BOX", "note": "ON 12/24 AND 12/31, THIS BOX MAY BE COLLECTED AS EARLY AS 12 NOON.", "ref": "9831000000"}, "type": "Feature"}
{"geometry": {"coordinates": [-122.625606, 47.583393], "type": "Point"}, "id": "7mnHCn2uHP28tkun6h2XozDjgFU=", "properties": {"@spider": "usps_collection_boxes", "addr:city": "BREMERTON", "addr:country": "US", "addr:full": "2520 CHERRY AVE", "addr:postcode": "98310", "addr:state": "WA", "brand": "USPS", "collection_times": "Mo-Sa 15:00", "name": "USPS COLLECTION BOX - BLUE BOX", "note": "ON 12/24 AND 12/31, THIS BOX MAY BE COLLECTED AS EARLY AS 12 NOON.", "ref": "9831000002"}, "type": "Feature"}
{"geometry": {"coordinates": [-122.614498, 47.589605], "type": "Point"}, "id": "9TdKc_mZbq-95wIRf4LPmAeAuT4=", "properties": {"@spider": "usps_collection_boxes", "addr:city": "BREMERTON", "addr:country": "US", "addr:full": "2901 PERRY AVE", "addr:postcode": "98310", "addr:state": "WA", "brand": "USPS", "collection_times": "Mo-Sa 15:00", "name": "USPS COLLECTION BOX - BLUE BOX", "note": "ON 12/24 AND 12/31, THIS BOX MAY BE COLLECTED AS EARLY AS 12 NOON.", "ref": "9831000004"}, "type": "Feature"}
{"geometry": {"coordinates": [-122.613454, 47.593412], "type": "Point"}, "id": "QMYXE5h76M9fdte_CoDyJLe9M14=", "properties": {"@spider": "usps_collection_boxes", "addr:city": "BREMERTON", "addr:country": "US", "addr:full": "3249 PERRY AVE", "addr:postcode": "98310", "addr:state": "WA", "brand": "USPS", "collection_times": "Mo-Sa 15:00", "name": "USPS COLLECTION BOX - BLUE BOX", "note": "ON 12/24 AND 12/31, THIS BOX MAY BE COLLECTED AS EARLY AS 12 NOON.", "ref": "9831000005"}, "type": "Feature"}
{"geometry": {"coordinates": [-122.627894, 47.589153], "type": "Point"}, "id": "Gg7yXdnIU0RgjNaTJxoKv0FPc7U=", "properties": {"@spider": "usps_collection_boxes", "addr:city": "BREMERTON", "addr:country": "US", "addr:full": "2900 WHEATON WAY", "addr:postcode": "98310", "addr:state": "WA", "brand": "USPS", "collection_times": "Mo-Sa 15:00", "name": "USPS COLLECTION BOX - BLUE BOX", "note": "ON 12/24 AND 12/31, THIS BOX MAY BE COLLECTED AS EARLY AS 12 NOON.", "ref": "9831000008"}, "type": "Feature"}
{"geometry": {"coordinates": [-122.627579, 47.582212], "type": "Point"}, "id": "PO4fe57hvk1csK7GwK_UfJm6rT4=", "properties": {"@spider": "usps_collection_boxes", "addr:city": "BREMERTON", "addr:country": "US", "addr:full": "742 LEBO BLVD", "addr:postcode": "98310", "addr:state": "WA", "brand": "USPS", "collection_times": "Mo-Sa 15:00", "name": "USPS COLLECTION BOX - BLUE BOX", "note": "ON 12/24 AND 12/31, THIS BOX MAY BE COLLECTED AS EARLY AS 12 NOON.", "ref": "9831000013"}, "type": "Feature"}
{"geometry": {"coordinates": [-122.6271, 47.595155], "type": "Point"}, "id": "rsZpTHxPACMezqu1skpbWszrx1Y=", "properties": {"@spider": "usps_collection_boxes", "addr:city": "BREMERTON", "addr:country": "US", "addr:full": "1281 SYLVAN WAY", "addr:postcode": "98310", "addr:state": "WA", "brand": "USPS", "collection_times": "Mo-Fr 17:00; Sa 16:15", "name": "USPS COLLECTION BOX - PO LOBBY", "note": "ON 12/24 AND 12/31, THIS BOX MAY BE COLLECTED AS EARLY AS 12 NOON.", "ref": "9831000016"}, "type": "Feature"}
{"geometry": {"coordinates": [-122.627302, 47.595249], "type": "Point"}, "id": "nx0SGpSY1wxGV5Wr_B5UjwOJt_c=", "properties": {"@spider": "usps_collection_boxes", "addr:city": "BREMERTON", "addr:country": "US", "addr:full": "1281 SYLVAN WAY", "addr:postcode": "98310", "addr:state": "WA", "brand": "USPS", "collection_times": "Mo-Fr 17:00; Sa 16:15", "name": "USPS COLLECTION BOX - PO LOBBY", "note": "ON 12/24 AND 12/31, THIS BOX MAY BE COLLECTED AS EARLY AS 12 NOON.", "ref": "9831000017"}, "type": "Feature"}
{"geometry": {"coordinates": [-122.627223, 47.595483], "type": "Point"}, "id": "VlPPSENvmX7m-6mOzeg-fVq4Ncs=", "properties": {"@spider": "usps_collection_boxes", "addr:city": "BREMERTON", "addr:country": "US", "addr:full": "1281 SYLVAN WAY", "addr:postcode": "98310", "addr:state": "WA", "brand": "USPS", "collection_times": "Mo-Fr 17:00; Sa 16:15", "name": "USPS COLLECTION BOX - BLUE BOX", "note": "ON 12/24 AND 12/31, THIS BOX MAY BE COLLECTED AS EARLY AS 12 NOON.", "ref": "9831000018"}, "type": "Feature"}
{"geometry": {"coordinates": [-122.626872, 47.595566539], "type": "Point"}, "id": "_1upK7VN844k9tTdULaIUUG-hyc=", "properties": {"@spider": "usps_collection_boxes", "addr:city": "BREMERTON", "addr:country": "US", "addr:full": "1281 SYLVAN WAY", "addr:postcode": "98310", "addr:state": "WA", "brand": "USPS", "collection_times": "Mo-Fr 17:00", "name": "USPS COLLECTION BOX - PO LOBBY", "note": "ON 12/24 AND 12/31, THIS BOX MAY BE COLLECTED AS EARLY AS 12 NOON.", "ref": "9831000020"}, "type": "Feature"}
{"geometry": {"coordinates": [-122.627604, 47.609717], "type": "Point"}, "id": "vShVrzbxKKYzI1ErNFrv3zKZYcw=", "properties": {"@spider": "usps_collection_boxes", "addr:city": "BREMERTON", "addr:country": "US", "addr:full": "5050 STATE HIGHWAY 303 NE", "addr:postcode": "98311", "addr:state": "WA", "brand": "USPS", "collection_times": "Mo-Fr 15:00; Sa 14:30", "name": "USPS COLLECTION BOX - BLUE BOX", "note": "ON 12/24 AND 12/31, THIS BOX MAY BE COLLECTED AS EARLY AS 12 NOON.", "ref": "9831100000"}, "type": "Feature"}
{"geometry": {"coordinates": [-122.630351, 47.620588], "type": "Point"}, "id": "uXEKMa9e_wBTng9zh0B8bSewPA4=", "properties": {"@spider": "usps_collection_boxes", "addr:city": "BREMERTON", "addr:country": "US", "addr:full": "1401 NE MCWILLIAMS RD", "addr:postcode": "98311", "addr:state": "WA", "brand": "USPS", "collection_times": "Mo-Fr 15:00; Sa 14:30", "name": "USPS COLLECTION BOX - BLUE BOX", "note": "ON 12/24 AND 12/31, THIS BOX MAY BE COLLECTED AS EARLY AS 12 NOON.", "ref": "9831100002"}, "type": "Feature"}
{"geometry": {"coordinates": [-122.667697, 47.56144], "type": "Point"}, "id": "ZpIUlgNcf0hGmq_AMO93-cdDe5c=", "properties": {"@spider": "usps_collection_boxes", "addr:city": "BREMERTON", "addr:country": "US", "addr:full": "200 NATIONAL AVE S", "addr:postcode": "98312", "addr:state": "WA", "brand": "USPS", "collection_times": "Mo-Fr 17:30; Sa 17:00", "name": "USPS COLLECTION BOX - BLUE BOX", "note": "ON 12/24 AND 12/31, THIS BOX MAY BE COLLECTED AS EARLY AS 12 NOON.", "ref": "9831200001"}, "type": "Feature"}
{"geometry": {"coordinates": [-122.661964, 47.567131], "type": "Point"}, "id": "1wQcnuMGolxhd6uSicZmw__7XuY=", "properties": {"@spider": "usps_collection_boxes", "addr:city": "BREMERTON", "addr:country": "US", "addr:full": "3423 6TH ST", "addr:postcode": "98312", "addr:state": "WA", "brand": "USPS", "collection_times": "Mo-Fr 15:00; Sa 14:00", "name": "USPS COLLECTION BOX - BLUE BOX", "note": "ON 12/24 AND 12/31, THIS BOX MAY BE COLLECTED AS EARLY AS 12 NOON.", "ref": "9831200003"}, "type": "Feature"}
{"geometry": {"coordinates": [-122.671592, 47.568372], "type": "Point"}, "id": "QymbpMMyBBYXbVk1bdnIJ0olamM=", "properties": {"@spider": "usps_collection_boxes", "addr:city": "BREMERTON", "addr:country": "US", "addr:full": "4206 KITSAP WAY", "addr:postcode": "98312", "addr:state": "WA", "brand": "USPS", "collection_times": "Mo-Fr 15:00; Sa 14:00", "name": "USPS COLLECTION BOX - BLUE BOX", "note": "ON 12/24 AND 12/31, THIS BOX MAY BE COLLECTED AS EARLY AS 12 NOON.", "ref": "9831200004"}, "type": "Feature"}
{"geometry": {"coordinates": [-122.691139, 47.577829], "type": "Point"}, "id": "klnMnQB0UhGybagGKQpwlxRYXS0=", "properties": {"@spider": "usps_collection_boxes", "addr:city": "BREMERTON", "addr:country": "US", "addr:full": "5700 KITSAP WAY", "addr:postcode": "98312", "addr:state": "WA", "brand": "USPS", "collection_times": "Mo-Fr 15:00; Sa 14:00", "name": "USPS COLLECTION BOX - BLUE BOX", "note": "ON 12/24 AND 12/31, THIS BOX MAY BE COLLECTED AS EARLY AS 12 NOON.", "ref": "9831200005"}, "type": "Feature"}
{"geometry": {"coordinates": [-122.704268, 47.580151], "type": "Point"}, "id": "QUL1eRtxJLylxw7rGsWQuEVX5YY=", "properties": {"@spider": "usps_collection_boxes", "addr:city": "BREMERTON", "addr:country": "US", "addr:full": "6720 KITSAP WAY", "addr:postcode": "98312", "addr:state": "WA", "brand": "USPS", "collection_times": "Mo-Fr 15:00; Sa 14:00", "name": "USPS COLLECTION BOX - BLUE BOX", "note": "ON 12/24 AND 12/31, THIS BOX MAY BE COLLECTED AS EARLY AS 12 NOON.", "ref": "9831200006"}, "type": "Feature"}
{"geometry": {"coordinates": [-122.709505, 47.596396], "type": "Point"}, "id": "YVezQrdaj-falgLe42MVZTGwZBE=", "properties": {"@spider": "usps_collection_boxes", "addr:city": "BREMERTON", "addr:country": "US", "addr:full": "3629 CHICO WAY NW", "addr:postcode": "98312", "addr:state": "WA", "brand": "USPS", "collection_times": "Mo-Fr 15:00; Sa 14:00", "name": "USPS COLLECTION BOX - BLUE BOX", "note": "ON 12/24 AND 12/31, THIS BOX MAY BE COLLECTED AS EARLY AS 12 NOON.", "ref": "9831200007"}, "type": "Feature"}
{"geometry": {"coordinates": [-122.6772225, 47.558637], "type": "Point"}, "id": "mFmQ89v4shdesKn6HDcLbGTE8jU=", "properties": {"@spider": "usps_collection_boxes", "addr:city": "BREMERTON", "addr:country": "US", "addr:full": "4710 AUTO CENTER BLVD", "addr:postcode": "98312", "addr:state": "WA", "brand": "USPS", "collection_times": "Mo-Fr 15:00; Sa 14:00", "name": "USPS COLLECTION BOX - BLUE BOX", "note": "ON 12/24 AND 12/31, THIS BOX MAY BE COLLECTED AS EARLY AS 12 NOON.", "ref": "9831200012"}, "type": "Feature"}
{"geometry": {"coordinates": [-122.6532, 47.56904], "type": "Point"}, "id": "pY8QxzBc0uaV3li9VbyVY0r9j9E=", "properties": {"@spider": "usps_collection_boxes", "addr:city": "BREMERTON", "addr:country": "US", "addr:full": "900 N CALLOW AVE", "addr:postcode": "98312", "addr:state": "WA", "brand": "USPS", "collection_times": "Mo-Fr 15:00; Sa 14:00", "name": "USPS COLLECTION BOX - BLUE BOX", "note": "ON 12/24 AND 12/31, THIS BOX MAY BE COLLECTED AS EARLY AS 12 NOON.", "ref": "9831200017"}, "type": "Feature"}
{"geometry": {"coordinates": [-122.660923, 47.571738], "type": "Point"}, "id": "eJUUNcw3d8fmQnPhdVnLHMaClP0=", "properties": {"@spider": "usps_collection_boxes", "addr:city": "BREMERTON", "addr:country": "US", "addr:full": "3330 KITSAP WAY", "addr:postcode": "98312", "addr:state": "WA", "brand": "USPS", "collection_times": "Mo-Fr 15:00; Sa 14:00", "name": "USPS COLLECTION BOX - BLUE BOX", "note": "ON 12/24 AND 12/31, THIS BOX MAY BE COLLECTED AS EARLY AS 12 NOON.", "ref": "9831200018"}, "type": "Feature"}
{"geometry": {"coordinates": [-122.667201, 47.561352], "type": "Point"}, "id": "ANNiPDZS9UHesxhQPawxGiUQzPI=", "properties": {"@spider": "usps_collection_boxes", "addr:city": "BREMERTON", "addr:country": "US", "addr:full": "200 NATIONAL AVE S", "addr:postcode": "98312", "addr:state": "WA", "brand": "USPS", "collection_times": "Mo-Fr 17:30; Sa 17:00", "name": "USPS COLLECTION BOX - PO LOBBY", "note": "ON 12/24 AND 12/31, THIS BOX MAY BE COLLECTED AS EARLY AS 12 NOON.", "ref": "9831200019"}, "type": "Feature"}
{"geometry": {"coordinates": [-122.667844021, 47.561492033], "type": "Point"}, "id": "2_cnmGcnxr0X7Gf82hrTm9AtOg0=", "properties": {"@spider": "usps_collection_boxes", "addr:city": "BREMERTON", "addr:country": "US", "addr:full": "200 S NATIONAL AVE", "addr:postcode": "98312", "addr:state": "WA", "brand": "USPS", "collection_times": "Mo-Fr 17:00; Sa 15:00", "name": "USPS COLLECTION BOX - PO LOBBY", "note": "ON 12/24 AND 12/31, THIS BOX MAY BE COLLECTED AS EARLY AS 12 NOON.", "ref": "9831200024"}, "type": "Feature"}
{"geometry": {"coordinates": [-122.650115, 47.562604], "type": "Point"}, "id": "O1_ZLc2tOzuEsi2j_OOZV_MTgQA=", "properties": {"@spider": "usps_collection_boxes", "addr:city": "BREMERTON", "addr:country": "US", "addr:full": "886 AMBLE ST", "addr:postcode": "98314", "addr:state": "WA", "brand": "USPS", "collection_times": "Mo-Sa 14:30", "name": "USPS COLLECTION BOX - BLUE BOX", "note": "ON 12/24 AND 12/31, THIS BOX MAY BE COLLECTED AS EARLY AS 12 NOON.", "ref": "9831400001"}, "type": "Feature"}
{"geometry": {"coordinates": [-122.6462825618, 47.5627497718], "type": "Point"}, "id": "Y3AC3eOFYVjGtS4DFGXNOatP5kI=", "properties": {"@spider": "usps_collection_boxes", "addr:city": "BREMERTON", "addr:country": "US", "addr:full": "120 S DEWEY ST", "addr:postcode": "98314", "addr:state": "WA", "brand": "USPS", "collection_times": "Mo-Fr 14:30", "name": "USPS COLLECTION BOX - BLUE BOX", "note": "ON 12/24 AND 12/31, THIS BOX MAY BE COLLECTED AS EARLY AS 12 NOON.", "ref": "9831400002"}, "type": "Feature"}
{"geometry": {"coordinates": [-122.684581, 47.661967], "type": "Point"}, "id": "4dtgXcyfeUb_10uIni8JxE3b9_Q=", "properties": {"@spider": "usps_collection_boxes", "addr:city": "SILVERDALE", "addr:country": "US", "addr:full": "2650 OHIO ST", "addr:postcode": "98315", "addr:state": "WA", "brand": "USPS", "collection_times": "Mo-Fr 16:30", "name": "USPS COLLECTION BOX - BLUE BOX", "note": "ON 12/24 AND 12/31, THIS BOX MAY BE COLLECTED AS EARLY AS 12 NOON.", "ref": "9831500003"}, "type": "Feature"}
{"geometry": {"coordinates": [-122.7086133952, 47.6890559654], "type": "Point"}, "id": "UrFxJxYIDIYXwFmP5KKUHmRXrUE=", "properties": {"@spider": "usps_collection_boxes", "addr:city": "SILVERDALE", "addr:country": "US", "addr:full": "2650 OHIO ST", "addr:postcode": "98315", "addr:state": "WA", "brand": "USPS", "collection_times": "Mo-Fr 16:30", "name": "USPS COLLECTION BOX - PO LOBBY", "note": "ON 12/24 AND 12/31, THIS BOX MAY BE COLLECTED AS EARLY AS 12 NOON.", "ref": "9831500005"}, "type": "Feature"}
{"geometry": {"coordinates": [-122.7086133952, 47.6890559654], "type": "Point"}, "id": "qoaFQG04J9_MSXuFwum4qhXY8nQ=", "properties": {"@spider": "usps_collection_boxes", "addr:city": "SILVERDALE", "addr:country": "US", "addr:full": "2650 OHIO ST", "addr:postcode": "98315", "addr:state": "WA", "brand": "USPS", "collection_times": "Mo-Fr 16:30", "name": "USPS COLLECTION BOX - PO LOBBY", "note": "ON 12/24 AND 12/31, THIS BOX MAY BE COLLECTED AS EARLY AS 12 NOON.", "ref": "9831500006"}, "type": "Feature"}
{"geometry": {"coordinates": [-122.899316, 47.693559], "type": "Point"}, "id": "pHy91nXv85fa2mMsXhvwS9tfjUw=", "properties": {"@spider": "usps_collection_boxes", "addr:city": "BRINNON", "addr:country": "US", "addr:full": "144 BRINNON LN", "addr:postcode": "98320", "addr:state": "WA", "brand": "USPS", "collection_times": "Mo-Fr 15:45; Sa 11:00", "name": "USPS COLLECTION BOX - BLUE BOX", "note": "ON 12/24 AND 12/31, THIS BOX MAY BE COLLECTED AS EARLY AS 12 NOON.", "ref": "9832000000"}, "type": "Feature"}
{"geometry": {"coordinates": [-122.899216, 47.69353], "type": "Point"}, "id": "FHq71nZ0loWwdFEbHx1iVD-O_80=", "properties": {"@spider": "usps_collection_boxes", "addr:city": "BRINNON", "addr:country": "US", "addr:full": "144 BRINNON LN", "addr:postcode": "98320", "addr:state": "WA", "brand": "USPS", "collection_times": "Mo-Fr 15:45; Sa 11:00", "name": "USPS COLLECTION BOX - PO LOBBY", "note": "ON 12/24 AND 12/31, THIS BOX MAY BE COLLECTED AS EARLY AS 12 NOON.", "ref": "9832000001"}, "type": "Feature"}
{"geometry": {"coordinates": [-122.901011916, 47.693571504], "type": "Point"}, "id": "TZXtSJIphLDCBNTBlZ5WqgKR6FQ=", "properties": {"@spider": "usps_collection_boxes", "addr:city": "BRINNON", "addr:country": "US", "addr:full": "144 BRINNON LN", "addr:postcode": "98320", "addr:state": "WA", "brand": "USPS", "collection_times": "Mo-Fr 15:45; Sa 11:00", "name": "USPS COLLECTION BOX - PO LOBBY", "note": "ON 12/24 AND 12/31, THIS BOX MAY BE COLLECTED AS EARLY AS 12 NOON.", "ref": "9832000002"}, "type": "Feature"}
{"geometry": {"coordinates": [-122.771245, 48.01178], "type": "Point"}, "id": "JkT85RmOEM4ixR4Hq5uL_SFuLmQ=", "properties": {"@spider": "usps_collection_boxes", "addr:city": "CHIMACUM", "addr:country": "US", "addr:full": "9223 RHODY DR", "addr:postcode": "98325", "addr:state": "WA", "brand": "USPS", "collection_times": "Mo-Fr 16:30; Sa 10:30", "name": "USPS COLLECTION BOX - BLUE BOX", "note": "ON 12/24 AND 12/31, THIS BOX MAY BE COLLECTED AS EARLY AS 12 NOON.", "ref": "9832500000"}, "type": "Feature"}
{"geometry": {"coordinates": [-122.771238, 48.011807], "type": "Point"}, "id": "7eNRF9qgXYm7ET7IviSkWEZjj8Y=", "properties": {"@spider": "usps_collection_boxes", "addr:city": "CHIMACUM", "addr:country": "US", "addr:full": "9223 RHODY DR", "addr:postcode": "98325", "addr:state": "WA", "brand": "USPS", "collection_times": "Mo-Fr 16:30; Sa 10:30", "name": "USPS COLLECTION BOX - PO LOBBY", "note": "ON 12/24 AND 12/31, THIS BOX MAY BE COLLECTED AS EARLY AS 12 NOON.", "ref": "9832500001"}, "type": "Feature"}
{"geometry": {"coordinates": [-122.771280526, 48.011776536], "type": "Point"}, "id": "b1SOFVqFefH1ri1ZuB0Jm4YcMIA=", "properties": {"@spider": "usps_collection_boxes", "addr:city": "CHIMACUM", "addr:country": "US", "addr:full": "9223 RHODY DR", "addr:postcode": "98325", "addr:state": "WA", "brand": "USPS", "collection_times": "Mo-Fr 17:00", "name": "USPS COLLECTION BOX - PO LOBBY", "note": "ON 12/24 AND 12/31, THIS BOX MAY BE COLLECTED AS EARLY AS 12 NOON.", "ref": "9832500002"}, "type": "Feature"}
{"geometry": {"coordinates": [-124.258665, 48.248619], "type": "Point"}, "id": "4cRmEWfbpqQu26bTjnvFj-3-9jg=", "properties": {"@spider": "usps_collection_boxes", "addr:city": "CLALLAM BAY", "addr:country": "US", "addr:full": "17203 HIGHWAY 112", "addr:postcode": "98326", "addr:state": "WA", "brand": "USPS", "collection_times": "Mo-Fr 15:00; Sa 13:30", "name": "USPS COLLECTION BOX - BLUE BOX", "note": "ON 12/24 AND 12/31, THIS BOX MAY BE COLLECTED AS EARLY AS 12 NOON.", "ref": "9832600000"}, "type": "Feature"}
{"geometry": {"coordinates": [-124.259028, 48.248423], "type": "Point"}, "id": "8JSGKT0SReIg6w6QHQaDsfHFqz8=", "properties": {"@spider": "usps_collection_boxes", "addr:city": "CLALLAM BAY", "addr:country": "US", "addr:full": "17203 HIGHWAY 112", "addr:postcode": "98326", "addr:state": "WA", "brand": "USPS", "collection_times": "Mo-Fr 15:00; Sa 10:30", "name": "USPS COLLECTION BOX - PO LOBBY", "note": "ON 12/24 AND 12/31, THIS BOX MAY BE COLLECTED AS EARLY AS 12 NOON.", "ref": "9832600002"}, "type": "Feature"}
{"geometry": {"coordinates": [-124.259028, 48.248423], "type": "Point"}, "id": "Ay7B0Cr2ebfxwkokC-cu5H7_ILw=", "properties": {"@spider": "usps_collection_boxes", "addr:city": "CLALLAM BAY", "addr:country": "US", "addr:full": "17203 HIGHWAY 112", "addr:postcode": "98326", "addr:state": "WA", "brand": "USPS", "collection_times": "Mo-Fr 15:00; Sa 10:30", "name": "USPS COLLECTION BOX - PO LOBBY", "note": "ON 12/24 AND 12/31, THIS BOX MAY BE COLLECTED AS EARLY AS 12 NOON.", "ref": "9832600003"}, "type": "Feature"}
{"geometry": {"coordinates": [-124.259148638, 48.248539909], "type": "Point"}, "id": "zHb3_9ipeMF8uLMSzU_OtT-MmTM=", "properties": {"@spider": "usps_collection_boxes", "addr:city": "CLALLAM BAY", "addr:country": "US", "addr:full": "17203 HIGHWAY 112 STE 1", "addr:postcode": "98326", "addr:state": "WA", "brand": "USPS", "collection_times": "Mo-Fr 15:00", "name": "USPS COLLECTION BOX - PO LOBBY", "note": "ON 12/24 AND 12/31, THIS BOX MAY BE COLLECTED AS EARLY AS 12 NOON.", "ref": "9832600004"}, "type": "Feature"}
{"geometry": {"coordinates": [-124.38424, 47.94989], "type": "Point"}, "id": "RmBai4KcyEtHvu5rxUmZHMBLSZA=", "properties": {"@spider": "usps_collection_boxes", "addr:city": "FORKS", "addr:country": "US", "addr:full": "61 S SPARTAN AVE", "addr:postcode": "98331", "addr:state": "WA", "brand": "USPS", "collection_times": "Mo-Fr 14:45; Sa 14:30", "name": "USPS COLLECTION BOX - BLUE BOX", "note": "ON 12/24 AND 12/31, THIS BOX MAY BE COLLECTED AS EARLY AS 12 NOON.", "ref": "9833100000"}, "type": "Feature"}
{"geometry": {"coordinates": [-124.38424, 47.94989], "type": "Point"}, "id": "mbNcSBtT3cctgz3UG2kMADKlOps=", "properties": {"@spider": "usps_collection_boxes", "addr:city": "FORKS", "addr:country": "US", "addr:full": "61 S SPARTAN AVE", "addr:postcode": "98331", "addr:state": "WA", "brand": "USPS", "collection_times": "Mo-Fr 14:45; Sa 14:30", "name": "USPS COLLECTION BOX - PO LOBBY", "note": "ON 12/24 AND 12/31, THIS BOX MAY BE COLLECTED AS EARLY AS 12 NOON.", "ref": "9833100005"}, "type": "Feature"}
{"geometry": {"coordinates": [-124.38424, 47.94989], "type": "Point"}, "id": "cyqeRIGXad5tsnUmfJRddR5TBqk=", "properties": {"@spider": "usps_collection_boxes", "addr:city": "FORKS", "addr:country": "US", "addr:full": "61 S SPARTAN AVE", "addr:postcode": "98331", "addr:state": "WA", "brand": "USPS", "collection_times": "Mo-Fr 14:45; Sa 14:30", "name": "USPS COLLECTION BOX - PO LOBBY", "note": "ON 12/24 AND 12/31, THIS BOX MAY BE COLLECTED AS EARLY AS 12 NOON.", "ref": "9833100006"}, "type": "Feature"}
{"geometry": {"coordinates": [-124.3842424753, 47.949993], "type": "Point"}, "id": "mXyhdNK32c2dv7jhOINYj8dfQ1Q=", "properties": {"@spider": "usps_collection_boxes", "addr:city": "FORKS", "addr:country": "US", "addr:full": "61 S SPARTAN AVE", "addr:postcode": "98331", "addr:state": "WA", "brand": "USPS", "collection_times": "Mo-Fr 15:30; Sa 12:00", "name": "USPS COLLECTION BOX - PO LOBBY", "note": "ON 12/24 AND 12/31, THIS BOX MAY BE COLLECTED AS EARLY AS 12 NOON.", "ref": "9833100007"}, "type": "Feature"}
{"geometry": {"coordinates": [-122.6268767696, 47.5676236939], "type": "Point"}, "id": "AxwKC2T6SXtScgsuR0SlpXkHp84=", "properties": {"@spider": "usps_collection_boxes", "addr:city": "BREMERTON", "addr:country": "US", "addr:full": "602 PACIFIC AVE", "addr:postcode": "98337", "addr:state": "WA", "brand": "USPS", "collection_times": "Mo-Fr 17:00; Sa 15:15", "name": "USPS COLLECTION BOX - BLUE BOX", "note": "ON 12/24 AND 12/31, THIS BOX MAY BE COLLECTED AS EARLY AS 12 NOON.", "ref": "9833700001"}, "type": "Feature"}
{"geometry": {"coordinates": [-122.632602, 47.565837], "type": "Point"}, "id": "ogo0Yq-BpgNwv6zZpBjvmL9WqaY=", "properties": {"@spider": "usps_collection_boxes", "addr:city": "BREMERTON", "addr:country": "US", "addr:full": "400 WARREN AVE", "addr:postcode": "98337", "addr:state": "WA", "brand": "USPS", "collection_times": "Mo-Fr 15:00; Sa 14:30", "name": "USPS COLLECTION BOX - BLUE BOX", "note": "ON 12/24 AND 12/31, THIS BOX MAY BE COLLECTED AS EARLY AS 12 NOON.", "ref": "9833700003"}, "type": "Feature"}
{"geometry": {"coordinates": [-122.626809, 47.564267], "type": "Point"}, "id": "xyXYbuBsaCYdNgyYagZ_pd5pxiI=", "properties": {"@spider": "usps_collection_boxes", "addr:city": "BREMERTON", "addr:country": "US", "addr:full": "202 PACIFIC AVE", "addr:postcode": "98337", "addr:state": "WA", "brand": "USPS", "collection_times": "Mo-Fr 15:00; Sa 14:30", "name": "USPS COLLECTION BOX - BLUE BOX", "note": "ON 12/24 AND 12/31, THIS BOX MAY BE COLLECTED AS EARLY AS 12 NOON.", "ref": "9833700004"}, "type": "Feature"}
{"geometry": {"coordinates": [-122.626229, 47.565826], "type": "Point"}, "id": "9F75TDSqjGQ86031CyFaIPUgPxQ=", "properties": {"@spider": "usps_collection_boxes", "addr:city": "BREMERTON", "addr:country": "US", "addr:full": "270 4TH ST", "addr:postcode": "98337", "addr:state": "WA", "brand": "USPS", "collection_times": "Mo-Fr 15:00; Sa 14:30", "name": "USPS COLLECTION BOX - BLUE BOX", "note": "ON 12/24 AND 12/31, THIS BOX MAY BE COLLECTED AS EARLY AS 12 NOON.", "ref": "9833700007"}, "type": "Feature"}
{"geometry": {"coordinates": [-122.633141, 47.567861], "type": "Point"}, "id": "cf8s9VMWmTDrPV7T8szKkSqM1nk=", "properties": {"@spider": "usps_collection_boxes", "addr:city": "BREMERTON", "addr:country": "US", "addr:full": "1000 6TH ST", "addr:postcode": "98337", "addr:state": "WA", "brand": "USPS", "collection_times": "Mo-Fr 15:00; Sa 14:30", "name": "USPS COLLECTION BOX - BLUE BOX", "note": "ON 12/24 AND 12/31, THIS BOX MAY BE COLLECTED AS EARLY AS 12 NOON.", "ref": "9833700008"}, "type": "Feature"}
{"geometry": {"coordinates": [-122.640078, 47.567427], "type": "Point"}, "id": "M578x2DEyWog_7L8oUmCxV8yQt4=", "properties": {"@spider": "usps_collection_boxes", "addr:city": "BREMERTON", "addr:country": "US", "addr:full": "1534 6TH ST", "addr:postcode": "98337", "addr:state": "WA", "brand": "USPS", "collection_times": "Mo-Fr 15:00; Sa 14:30", "name": "USPS COLLECTION BOX - BLUE BOX", "note": "ON 12/24 AND 12/31, THIS BOX MAY BE COLLECTED AS EARLY AS 12 NOON.", "ref": "9833700009"}, "type": "Feature"}
{"geometry": {"coordinates": [-122.635773, 47.573281], "type": "Point"}, "id": "a6i7jEon_6Ib4w_iYhKm7VDrC1k=", "properties": {"@spider": "usps_collection_boxes", "addr:city": "BREMERTON", "addr:country": "US", "addr:full": "1303 CHESTER AVE", "addr:postcode": "98337", "addr:state": "WA", "brand": "USPS", "collection_times": "Mo-Fr 15:00; Sa 14:30", "name": "USPS COLLECTION BOX - BLUE BOX", "note": "ON 12/24 AND 12/31, THIS BOX MAY BE COLLECTED AS EARLY AS 12 NOON.", "ref": "9833700011"}, "type": "Feature"}
{"geometry": {"coordinates": [-122.626654, 47.567662], "type": "Point"}, "id": "rGW6EHKB17CoeR_9UbVdpFIGJQ4=", "properties": {"@spider": "usps_collection_boxes", "addr:city": "BREMERTON", "addr:country": "US", "addr:full": "602 PACIFIC AVE", "addr:postcode": "98337", "addr:state": "WA", "brand": "USPS", "collection_times": "Mo-Fr 17:00; Sa 15:15", "name": "USPS COLLECTION BOX - PO LOBBY", "note": "ON 12/24 AND 12/31, THIS BOX MAY BE COLLECTED AS EARLY AS 12 NOON.", "ref": "9833700012"}, "type": "Feature"}
{"geometry": {"coordinates": [-122.626634, 47.567671], "type": "Point"}, "id": "9qJpLQSQLFTHVdN2zaCJX9Dx1Gs=", "properties": {"@spider": "usps_collection_boxes", "addr:city": "BREMERTON", "addr:country": "US", "addr:full": "602 PACIFIC AVE", "addr:postcode": "98337", "addr:state": "WA", "brand": "USPS", "collection_times": "Mo-Fr 17:00; Sa 15:15", "name": "USPS COLLECTION BOX - PO LOBBY", "note": "ON 12/24 AND 12/31, THIS BOX MAY BE COLLECTED AS EARLY AS 12 NOON.", "ref": "9833700013"}, "type": "Feature"}
{"geometry": {"coordinates": [-122.624974835, 47.564038374], "type": "Point"}, "id": "o_qqKS7vIp2KlVUiESSoLouiJSE=", "properties": {"@spider": "usps_collection_boxes", "addr:city": "BREMERTON", "addr:country": "US", "addr:full": "150 WASHINGTON AVE", "addr:postcode": "98337", "addr:state": "WA", "brand": "USPS", "collection_times": "Mo-Fr 15:00; Sa 14:30", "name": "USPS COLLECTION BOX - BLUE BOX", "note": "ON 12/24 AND 12/31, THIS BOX MAY BE COLLECTED AS EARLY AS 12 NOON.", "ref": "9833700017"}, "type": "Feature"}
{"geometry": {"coordinates": [-122.630731, 47.565036], "type": "Point"}, "id": "MmS4jbS6rXO8H9TlAQPe9tAqtNA=", "properties": {"@spider": "usps_collection_boxes", "addr:city": "BREMERTON", "addr:country": "US", "addr:full": "808 BURWELL ST", "addr:postcode": "98337", "addr:state": "WA", "brand": "USPS", "collection_times": "Mo-Sa 12:00", "name": "USPS COLLECTION BOX - BLUE BOX", "ref": "9833700018"}, "type": "Feature"}
{"geometry": {"coordinates": [-122.62685831, 47.5678164133], "type": "Point"}, "id": "GPpZcYtvX1hdIp0-9yYkONJ2ZLU=", "properties": {"@spider": "usps_collection_boxes", "addr:city": "BREMERTON", "addr:country": "US", "addr:full": "602 PACIFIC AVE", "addr:postcode": "98337", "addr:state": "WA", "brand": "USPS", "collection_times": "Mo-Fr 17:00", "name": "USPS COLLECTION BOX - PO LOBBY", "note": "ON 12/24 AND 12/31, THIS BOX MAY BE COLLECTED AS EARLY AS 12 NOON.", "ref": "9833700019"}, "type": "Feature"}
{"geometry": {"coordinates": [-122.757015, 48.031548], "type": "Point"}, "id": "raycUse-YqnQjU_nbKNB54t5hsc=", "properties": {"@spider": "usps_collection_boxes", "addr:city": "PORT HADLOCK", "addr:country": "US", "addr:full": "67 OAK BAY RD", "addr:postcode": "98339", "addr:state": "WA", "brand": "USPS", "collection_times": "Mo-Fr 16:30", "name": "USPS COLLECTION BOX - BLUE BOX", "note": "ON 12/24 AND 12/31, THIS BOX MAY BE COLLECTED AS EARLY AS 12 NOON.", "ref": "9833900001"}, "type": "Feature"}
{"geometry": {"coordinates": [-122.757559, 48.032597], "type": "Point"}, "id": "yi0CaZQrnL0OrL-mVyTJ-Mni9Ws=", "properties": {"@spider": "usps_collection_boxes", "addr:city": "PORT HADLOCK", "addr:country": "US", "addr:full": "1890 IRONDALE RD", "addr:postcode": "98339", "addr:state": "WA", "brand": "USPS", "collection_times": "Mo-Fr 16:30", "name": "USPS COLLECTION BOX - BLUE BOX", "note": "ON 12/24 AND 12/31, THIS BOX MAY BE COLLECTED AS EARLY AS 12 NOON.", "ref": "9833900002"}, "type": "Feature"}
{"geometry": {"coordinates": [-122.758069, 48.033755], "type": "Point"}, "id": "RAcF57ZaveAW704a5nyKURyZPLc=", "properties": {"@spider": "usps_collection_boxes", "addr:city": "PORT HADLOCK", "addr:country": "US", "addr:full": "93 MATHESON ST", "addr:postcode": "98339", "addr:state": "WA", "brand": "USPS", "collection_times": "Mo-Fr 17:00; Sa 11:30", "name": "USPS COLLECTION BOX - BLUE BOX", "note": "ON 12/24 AND 12/31, THIS BOX MAY BE COLLECTED AS EARLY AS 12 NOON.", "ref": "9833900003"}, "type": "Feature"}
{"geometry": {"coordinates": [-122.78582, 48.04038], "type": "Point"}, "id": "LYzvdxSvu_2mVp_pOI_R30QwTLE=", "properties": {"@spider": "usps_collection_boxes", "addr:city": "PORT HADLOCK", "addr:country": "US", "addr:full": "281 W PATISON ST", "addr:postcode": "98339", "addr:state": "WA", "brand": "USPS", "collection_times": "Mo-Fr 16:30", "name": "USPS COLLECTION BOX - BLUE BOX", "note": "ON 12/24 AND 12/31, THIS BOX MAY BE COLLECTED AS EARLY AS 12 NOON.", "ref": "9833900004"}, "type": "Feature"}
{"geometry": {"coordinates": [-122.757944, 48.033755], "type": "Point"}, "id": "4vy_maVzsGdIcH5yJyNYKa7mpzU=", "properties": {"@spider": "usps_collection_boxes", "addr:city": "PORT HADLOCK", "addr:country": "US", "addr:full": "93 MATHESON ST", "addr:postcode": "98339", "addr:state": "WA", "brand": "USPS", "collection_times": "Mo-Fr 17:00; Sa 11:30", "name": "USPS COLLECTION BOX - PO LOBBY", "note": "ON 12/24 AND 12/31, THIS BOX MAY BE COLLECTED AS EARLY AS 12 NOON.", "ref": "9833900005"}, "type": "Feature"}
{"geometry": {"coordinates": [-122.757944, 48.033755], "type": "Point"}, "id": "_ClhUh2fG-5EKDpQg5Df5SB3-B4=", "properties": {"@spider": "usps_collection_boxes", "addr:city": "PORT HADLOCK", "addr:country": "US", "addr:full": "93 MATHESON ST", "addr:postcode": "98339", "addr:state": "WA", "brand": "USPS", "collection_times": "Mo-Fr 17:00; Sa 11:30", "name": "USPS COLLECTION BOX - PO LOBBY", "note": "ON 12/24 AND 12/31, THIS BOX MAY BE COLLECTED AS EARLY AS 12 NOON.", "ref": "9833900006"}, "type": "Feature"}
{"geometry": {"coordinates": [-122.7580391024, 48.0338133667], "type": "Point"}, "id": "MHaQRJk6k6LLXk-xN4T-lu33Dmk=", "properties": {"@spider": "usps_collection_boxes", "addr:city": "PORT HADLOCK", "addr:country": "US", "addr:full": "93 MATHESON ST", "addr:postcode": "98339", "addr:state": "WA", "brand": "USPS", "collection_times": "Mo-Fr 17:00", "name": "USPS COLLECTION BOX - PO LOBBY", "note": "ON 12/24 AND 12/31, THIS BOX MAY BE COLLECTED AS EARLY AS 12 NOON.", "ref": "9833900008"}, "type": "Feature"}
{"geometry": {"coordinates": [-122.525607, 47.747564], "type": "Point"}, "id": "PgvInkZ4fmvkCyKZhBy_X5DAl1g=", "properties": {"@spider": "usps_collection_boxes", "addr:city": "INDIANOLA", "addr:country": "US", "addr:full": "9200 NE SHORE DR", "addr:postcode": "98342", "addr:state": "WA", "brand": "USPS", "collection_times": "Mo-Fr 16:30; Sa 12:00", "name": "USPS COLLECTION BOX - BLUE BOX", "note": "ON 12/24 AND 12/31, THIS BOX MAY BE COLLECTED AS EARLY AS 12 NOON.", "ref": "9834200000"}, "type": "Feature"}
{"geometry": {"coordinates": [-122.52574, 47.747537], "type": "Point"}, "id": "4DUyTiQ6wl01ffhPniXByNVUYn0=", "properties": {"@spider": "usps_collection_boxes", "addr:city": "INDIANOLA", "addr:country": "US", "addr:full": "9200 NE SHORE DR", "addr:postcode": "98342", "addr:state": "WA", "brand": "USPS", "collection_times": "Mo-Fr 16:30; Sa 12:00", "name": "USPS COLLECTION BOX - PO LOBBY", "note": "ON 12/24 AND 12/31, THIS BOX MAY BE COLLECTED AS EARLY AS 12 NOON.", "ref": "9834200001"}, "type": "Feature"}
{"geometry": {"coordinates": [-122.5255005, 47.7475635004], "type": "Point"}, "id": "CyMcNmDn-WwM6YnbCUdSt3CASkQ=", "properties": {"@spider": "usps_collection_boxes", "addr:city": "INDIANOLA", "addr:country": "US", "addr:full": "9200 NE SHORE DR", "addr:postcode": "98342", "addr:state": "WA", "brand": "USPS", "collection_times": "Mo-Fr 16:45; Sa 12:00", "name": "USPS COLLECTION BOX - PO LOBBY", "note": "ON 12/24 AND 12/31, THIS BOX MAY BE COLLECTED AS EARLY AS 12 NOON.", "ref": "9834200002"}, "type": "Feature"}
{"geometry": {"coordinates": [-123.732095, 48.135489], "type": "Point"}, "id": "kHvn-15ttFGCJKkaF0HtVj5ZVhs=", "properties": {"@spider": "usps_collection_boxes", "addr:city": "JOYCE", "addr:country": "US", "addr:full": "50883 HIGHWAY 112", "addr:postcode": "98343", "addr:state": "WA", "brand": "USPS", "collection_times": "Mo-Fr 15:45; Sa 09:15", "name": "USPS COLLECTION BOX - BLUE BOX", "note": "ON 12/24 AND 12/31, THIS BOX MAY BE COLLECTED AS EARLY AS 12 NOON.", "ref": "9834300000"}, "type": "Feature"}
{"geometry": {"coordinates": [-123.732095, 48.135489], "type": "Point"}, "id": "3liAZzQ-k2dUgBlnXKgeipbICQA=", "properties": {"@spider": "usps_collection_boxes", "addr:city": "JOYCE", "addr:country": "US", "addr:full": "50883 HIGHWAY 112", "addr:postcode": "98343", "addr:state": "WA", "brand": "USPS", "collection_times": "Mo-Fr 15:45; Sa 09:15", "name": "USPS COLLECTION BOX - PO LOBBY", "note": "ON 12/24 AND 12/31, THIS BOX MAY BE COLLECTED AS EARLY AS 12 NOON.", "ref": "9834300001"}, "type": "Feature"}
{"geometry": {"coordinates": [-123.735527409, 48.136177399], "type": "Point"}, "id": "D_zzzERBNVSDlLp7nzV2IGJBMzA=", "properties": {"@spider": "usps_collection_boxes", "addr:city": "JOYCE", "addr:country": "US", "addr:full": "50883 HIGHWAY 112", "addr:postcode": "98343", "addr:state": "WA", "brand": "USPS", "collection_times": "Mo-Fr 15:45; Sa 09:15", "name": "USPS COLLECTION BOX - PO LOBBY", "note": "ON 12/24 AND 12/31, THIS BOX MAY BE COLLECTED AS EARLY AS 12 NOON.", "ref": "9834300002"}, "type": "Feature"}
{"geometry": {"coordinates": [-122.623503, 47.702541], "type": "Point"}, "id": "n9DfD7MTzHxlz2vRR8TWXbRsMvA=", "properties": {"@spider": "usps_collection_boxes", "addr:city": "KEYPORT", "addr:country": "US", "addr:full": "1998 STATE HIGHWAY 308 NE", "addr:postcode": "98345", "addr:state": "WA", "brand": "USPS", "collection_times": "Mo-Fr 16:30; Sa 10:00", "name": "USPS COLLECTION BOX - BLUE BOX", "note": "ON 12/24 AND 12/31, THIS BOX MAY BE COLLECTED AS EARLY AS 12 NOON.", "ref": "9834500000"}, "type": "Feature"}
{"geometry": {"coordinates": [-122.623502, 47.702514], "type": "Point"}, "id": "Maw8WiznySTpoPsMzziS-ZYTsZs=", "properties": {"@spider": "usps_collection_boxes", "addr:city": "KEYPORT", "addr:country": "US", "addr:full": "1998 STATE HIGHWAY 308 NE", "addr:postcode": "98345", "addr:state": "WA", "brand": "USPS", "collection_times": "Mo-Fr 16:30; Sa 10:00", "name": "USPS COLLECTION BOX - PO LOBBY", "note": "ON 12/24 AND 12/31, THIS BOX MAY BE COLLECTED AS EARLY AS 12 NOON.", "ref": "9834500001"}, "type": "Feature"}
{"geometry": {"coordinates": [-122.623093446, 47.702536479], "type": "Point"}, "id": "w39__aoSWWqC6QObFm2TNkQUUmE=", "properties": {"@spider": "usps_collection_boxes", "addr:city": "KEYPORT", "addr:country": "US", "addr:full": "1998 STATE HIGHWAY 308 NE", "addr:postcode": "98345", "addr:state": "WA", "brand": "USPS", "collection_times": "Mo-Fr 16:30", "name": "USPS COLLECTION BOX - PO LOBBY", "note": "ON 12/24 AND 12/31, THIS BOX MAY BE COLLECTED AS EARLY AS 12 NOON.", "ref": "9834500002"}, "type": "Feature"}
{"geometry": {"coordinates": [-122.499607, 47.80112], "type": "Point"}, "id": "EDr3zUM8nBNbJJrk8MlXxtV0xIc=", "properties": {"@spider": "usps_collection_boxes", "addr:city": "KINGSTON", "addr:country": "US", "addr:full": "10990 NE STATE HIGHWAY 104", "addr:postcode": "98346", "addr:state": "WA", "brand": "USPS", "collection_times": "Mo-Fr 17:00; Sa 13:00", "name": "USPS COLLECTION BOX - BLUE BOX", "note": "ON 12/24 AND 12/31, THIS BOX MAY BE COLLECTED AS EARLY AS 12 NOON.", "ref": "9834600002"}, "type": "Feature"}
{"geometry": {"coordinates": [-122.499697, 47.80113], "type": "Point"}, "id": "gKQ6RUM6YELcfLBi2_0H9f-Gt74=", "properties": {"@spider": "usps_collection_boxes", "addr:city": "KINGSTON", "addr:country": "US", "addr:full": "10990 NE STATE HIGHWAY 104", "addr:postcode": "98346", "addr:state": "WA", "brand": "USPS", "collection_times": "Mo-Fr 17:00; Sa 13:00", "name": "USPS COLLECTION BOX - PO LOBBY", "note": "ON 12/24 AND 12/31, THIS BOX MAY BE COLLECTED AS EARLY AS 12 NOON.", "ref": "9834600006"}, "type": "Feature"}
{"geometry": {"coordinates": [-122.540196, 47.811194], "type": "Point"}, "id": "JsrGvebomoEa_ZdahgbD8O_DnJI=", "properties": {"@spider": "usps_collection_boxes", "addr:city": "KINGSTON", "addr:country": "US", "addr:full": "8196 NE STATE HIGHWAY 104", "addr:postcode": "98346", "addr:state": "WA", "brand": "USPS", "collection_times": "Mo-Sa 13:00", "name": "USPS COLLECTION BOX - BLUE BOX", "note": "ON 12/24 AND 12/31, THIS BOX MAY BE COLLECTED AS EARLY AS 12 NOON.", "ref": "9834600007"}, "type": "Feature"}
{"geometry": {"coordinates": [-122.49962123, 47.801178047], "type": "Point"}, "id": "EXUTbcW6kfncSZD_STDlB7XLKrA=", "properties": {"@spider": "usps_collection_boxes", "addr:city": "KINGSTON", "addr:country": "US", "addr:full": "10990 NE STATE HIGHWAY 104", "addr:postcode": "98346", "addr:state": "WA", "brand": "USPS", "collection_times": "Mo-Fr 17:00", "name": "USPS COLLECTION BOX - PO LOBBY", "note": "ON 12/24 AND 12/31, THIS BOX MAY BE COLLECTED AS EARLY AS 12 NOON.", "ref": "9834600008"}, "type": "Feature"}
{"geometry": {"coordinates": [-124.629024, 47.903617], "type": "Point"}, "id": "d1ipuYVepQwitiq9cSyPIqQBzOE=", "properties": {"@spider": "usps_collection_boxes", "addr:city": "LA PUSH", "addr:country": "US", "addr:full": "500 OCEAN DR", "addr:postcode": "98350", "addr:state": "WA", "brand": "USPS", "collection_times": "Mo-Fr 13:00; Sa 11:15", "name": "USPS COLLECTION BOX - BLUE BOX", "note": "ON 12/24 AND 12/31, THIS BOX MAY BE COLLECTED AS EARLY AS 12 NOON.", "ref": "9835000000"}, "type": "Feature"}
{"geometry": {"coordinates": [-124.629032, 47.903673], "type": "Point"}, "id": "KzSJZn6kR2H5zCqN7ErdpNn0fls=", "properties": {"@spider": "usps_collection_boxes", "addr:city": "LA PUSH", "addr:country": "US", "addr:full": "500 OCEAN DR", "addr:postcode": "98350", "addr:state": "WA", "brand": "USPS", "collection_times": "Mo-Fr 13:00; Sa 11:15", "name": "USPS COLLECTION BOX - PO LOBBY", "note": "ON 12/24 AND 12/31, THIS BOX MAY BE COLLECTED AS EARLY AS 12 NOON.", "ref": "9835000001"}, "type": "Feature"}
{"geometry": {"coordinates": [-124.629032, 47.903673], "type": "Point"}, "id": "2sR8CbCLPM1yt9swSysXfsddHBA=", "properties": {"@spider": "usps_collection_boxes", "addr:city": "LA PUSH", "addr:country": "US", "addr:full": "500 OCEAN DR", "addr:postcode": "98350", "addr:state": "WA", "brand": "USPS", "collection_times": "Mo-Fr 13:00; Sa 11:15", "name": "USPS COLLECTION BOX - PO LOBBY", "note": "ON 12/24 AND 12/31, THIS BOX MAY BE COLLECTED AS EARLY AS 12 NOON.", "ref": "9835000002"}, "type": "Feature"}
{"geometry": {"coordinates": [-124.629056011, 47.903594979], "type": "Point"}, "id": "OuzX_RuzMOOdui_Xm0kyJL8DCZ8=", "properties": {"@spider": "usps_collection_boxes", "addr:city": "LA PUSH", "addr:country": "US", "addr:full": "500 OCEAN DR", "addr:postcode": "98350", "addr:state": "WA", "brand": "USPS", "collection_times": "Mo-Fr 13:30; Sa 11:15", "name": "USPS COLLECTION BOX - PO LOBBY", "note": "ON 12/24 AND 12/31, THIS BOX MAY BE COLLECTED AS EARLY AS 12 NOON.", "ref": "9835000003"}, "type": "Feature"}
{"geometry": {"coordinates": [-122.54363, 47.55632], "type": "Point"}, "id": "aj9fdhyJNjwQlr0HjZad48tTIAI=", "properties": {"@spider": "usps_collection_boxes", "addr:city": "MANCHESTER", "addr:country": "US", "addr:full": "2325 COLCHESTER DR SE", "addr:postcode": "98353", "addr:state": "WA", "brand": "USPS", "collection_times": "Mo-Fr 15:45; Sa 10:00", "name": "USPS COLLECTION BOX - BLUE BOX", "note": "ON 12/24 AND 12/31, THIS BOX MAY BE COLLECTED AS EARLY AS 12 NOON.", "ref": "9835300000"}, "type": "Feature"}
{"geometry": {"coordinates": [-122.54363, 47.55632], "type": "Point"}, "id": "aQEKbC6CIU3hCQrXGIoNn44Nzzg=", "properties": {"@spider": "usps_collection_boxes", "addr:city": "MANCHESTER", "addr:country": "US", "addr:full": "2325 COLCHESTER DR SE", "addr:postcode": "98353", "addr:state": "WA", "brand": "USPS", "collection_times": "Mo-Fr 15:45; Sa 10:00", "name": "USPS COLLECTION BOX - PO LOBBY", "note": "ON 12/24 AND 12/31, THIS BOX MAY BE COLLECTED AS EARLY AS 12 NOON.", "ref": "9835300001"}, "type": "Feature"}
{"geometry": {"coordinates": [-122.54363, 47.55632], "type": "Point"}, "id": "dU9RYP-AFn62arzRuhjWltP5BDs=", "properties": {"@spider": "usps_collection_boxes", "addr:city": "MANCHESTER", "addr:country": "US", "addr:full": "2325 COLCHESTER DR SE", "addr:postcode": "98353", "addr:state": "WA", "brand": "USPS", "collection_times": "Mo-Fr 15:45; Sa 10:00", "name": "USPS COLLECTION BOX - PO LOBBY", "note": "ON 12/24 AND 12/31, THIS BOX MAY BE COLLECTED AS EARLY AS 12 NOON.", "ref": "9835300002"}, "type": "Feature"}
{"geometry": {"coordinates": [-122.54363, 47.55632], "type": "Point"}, "id": "4xyoz43M69KHQ-8WbpNFmsUXQl4=", "properties": {"@spider": "usps_collection_boxes", "addr:city": "MANCHESTER", "addr:country": "US", "addr:full": "2325 COLCHESTER DR SE", "addr:postcode": "98353", "addr:state": "WA", "brand": "USPS", "collection_times": "Mo-Fr 17:00; Sa 10:00", "name": "USPS COLLECTION BOX - PO LOBBY", "note": "ON 12/24 AND 12/31, THIS BOX MAY BE COLLECTED AS EARLY AS 12 NOON.", "ref": "9835300005"}, "type": "Feature"}
{"geometry": {"coordinates": [-124.606899, 48.365283], "type": "Point"}, "id": "BfhlRekNtTvobfnKAcynbi20R6c=", "properties": {"@spider": "usps_collection_boxes", "addr:city": "NEAH BAY", "addr:country": "US", "addr:full": "130 BUCHANAN ST", "addr:postcode": "98357", "addr:state": "WA", "brand": "USPS", "collection_times": "Mo-Fr 13:45; Sa 11:45", "name": "USPS COLLECTION BOX - BLUE BOX", "note": "ON 12/24 AND 12/31, THIS BOX MAY BE COLLECTED AS EARLY AS 12 NOON.", "ref": "9835700001"}, "type": "Feature"}
{"geometry": {"coordinates": [-124.606899, 48.366133], "type": "Point"}, "id": "mSpNczIGNnFVtZNmpO1aOw3HoqE=", "properties": {"@spider": "usps_collection_boxes", "addr:city": "NEAH BAY", "addr:country": "US", "addr:full": "130 BUCHANAN ST", "addr:postcode": "98357", "addr:state": "WA", "brand": "USPS", "collection_times": "Mo-Fr 13:45; Sa 11:45", "name": "USPS COLLECTION BOX - PO LOBBY", "note": "ON 12/24 AND 12/31, THIS BOX MAY BE COLLECTED AS EARLY AS 12 NOON.", "ref": "9835700002"}, "type": "Feature"}
{"geometry": {"coordinates": [-124.606899, 48.366133], "type": "Point"}, "id": "a4iHwpoAjr1iB7eejFed4uHGlvw=", "properties": {"@spider": "usps_collection_boxes", "addr:city": "NEAH BAY", "addr:country": "US", "addr:full": "130 BUCHANAN ST", "addr:postcode": "98357", "addr:state": "WA", "brand": "USPS", "collection_times": "Mo-Fr 13:45; Sa 11:45", "name": "USPS COLLECTION BOX - PO LOBBY", "note": "ON 12/24 AND 12/31, THIS BOX MAY BE COLLECTED AS EARLY AS 12 NOON.", "ref": "9835700003"}, "type": "Feature"}
{"geometry": {"coordinates": [-124.606899, 48.366133], "type": "Point"}, "id": "Yw8Xxn_cA--YzfCbZYOXFP0Koyg=", "properties": {"@spider": "usps_collection_boxes", "addr:city": "NEAH BAY", "addr:country": "US", "addr:full": "130 BUCHANAN ST", "addr:postcode": "98357", "addr:state": "WA", "brand": "USPS", "collection_times": "Mo-Fr 13:45; Sa 11:45", "name": "USPS COLLECTION BOX - PO LOBBY", "note": "ON 12/24 AND 12/31, THIS BOX MAY BE COLLECTED AS EARLY AS 12 NOON.", "ref": "9835700004"}, "type": "Feature"}
{"geometry": {"coordinates": [-124.606899, 48.366133], "type": "Point"}, "id": "akObd9nmdCf_utzgKGJQL7mq--Q=", "properties": {"@spider": "usps_collection_boxes", "addr:city": "NEAH BAY", "addr:country": "US", "addr:full": "130 BUCHANAN ST", "addr:postcode": "98357", "addr:state": "WA", "brand": "USPS", "collection_times": "Mo-Fr 13:45; Sa 11:45", "name": "USPS COLLECTION BOX - PO LOBBY", "note": "ON 12/24 AND 12/31, THIS BOX MAY BE COLLECTED AS EARLY AS 12 NOON.", "ref": "9835700005"}, "type": "Feature"}
{"geometry": {"coordinates": [-124.6069202945, 48.3661386316], "type": "Point"}, "id": "To2D9W-JIqHGUytWJvgNHFkFZOE=", "properties": {"@spider": "usps_collection_boxes", "addr:city": "NEAH BAY", "addr:country": "US", "addr:full": "130 BUCHANAN ST", "addr:postcode": "98357", "addr:state": "WA", "brand": "USPS", "collection_times": "Mo-Fr 13:45", "name": "USPS COLLECTION BOX - PO LOBBY", "note": "ON 12/24 AND 12/31, THIS BOX MAY BE COLLECTED AS EARLY AS 12 NOON.", "ref": "9835700006"}, "type": "Feature"}
{"geometry": {"coordinates": [-121.671489, 46.607397], "type": "Point"}, "id": "l-F68AxaDz4hmCQrx4V2WMLg3kg=", "properties": {"@spider": "usps_collection_boxes", "addr:city": "PACKWOOD", "addr:country": "US", "addr:full": "111 SMITH RD", "addr:postcode": "98361", "addr:state": "WA", "brand": "USPS", "collection_times": "Mo-Fr 15:15; Sa 10:00", "name": "USPS COLLECTION BOX - BLUE BOX", "note": "ON 12/24 AND 12/31, THIS BOX MAY BE COLLECTED AS EARLY AS 12 NOON.", "ref": "9836100000"}, "type": "Feature"}
{"geometry": {"coordinates": [-121.67145, 46.607307], "type": "Point"}, "id": "wKSl4PiU1D6ojEKwL62R4DQ7UFU=", "properties": {"@spider": "usps_collection_boxes", "addr:city": "PACKWOOD", "addr:country": "US", "addr:full": "111 SMITH RD", "addr:postcode": "98361", "addr:state": "WA", "brand": "USPS", "collection_times": "Mo-Fr 15:15; Sa 10:00", "name": "USPS COLLECTION BOX - PO LOBBY", "note": "ON 12/24 AND 12/31, THIS BOX MAY BE COLLECTED AS EARLY AS 12 NOON.", "ref": "9836100001"}, "type": "Feature"}
{"geometry": {"coordinates": [-121.67145, 46.607307], "type": "Point"}, "id": "bwFMudg6ces7NxR5TzAX5zMCEJ0=", "properties": {"@spider": "usps_collection_boxes", "addr:city": "PACKWOOD", "addr:country": "US", "addr:full": "111 SMITH RD", "addr:postcode": "98361", "addr:state": "WA", "brand": "USPS", "collection_times": "Mo-Fr 15:15; Sa 10:00", "name": "USPS COLLECTION BOX - PO LOBBY", "note": "ON 12/24 AND 12/31, THIS BOX MAY BE COLLECTED AS EARLY AS 12 NOON.", "ref": "9836100002"}, "type": "Feature"}
{"geometry": {"coordinates": [-121.671493504, 46.607715996], "type": "Point"}, "id": "-KcvS0ckuvreWz_NtllNEwreiOo=", "properties": {"@spider": "usps_collection_boxes", "addr:city": "PACKWOOD", "addr:country": "US", "addr:full": "111 SMITH RD", "addr:postcode": "98361", "addr:state": "WA", "brand": "USPS", "collection_times": "Mo-Fr 15:15", "name": "USPS COLLECTION BOX - PO LOBBY", "note": "ON 12/24 AND 12/31, THIS BOX MAY BE COLLECTED AS EARLY AS 12 NOON.", "ref": "9836100004"}, "type": "Feature"}
{"geometry": {"coordinates": [-122.584172, 47.856006], "type": "Point"}, "id": "28Oyy0gcfkTIu3K5Ux9PXwg-zmI=", "properties": {"@spider": "usps_collection_boxes", "addr:city": "PORT GAMBLE", "addr:country": "US", "addr:full": "4839 NE VIEW DR STE A", "addr:postcode": "98364", "addr:state": "WA", "brand": "USPS", "collection_times": "Mo-Fr 15:30; Sa 09:30", "name": "USPS COLLECTION BOX - PO LOBBY", "note": "ON 12/24 AND 12/31, THIS BOX MAY BE COLLECTED AS EARLY AS 12 NOON.", "ref": "9836400001"}, "type": "Feature"}
{"geometry": {"coordinates": [-122.584400885, 47.856000554], "type": "Point"}, "id": "xdYjbSfHFuJ7G_KBTxwWCE8zOgU=", "properties": {"@spider": "usps_collection_boxes", "addr:city": "PORT GAMBLE", "addr:country": "US", "addr:full": "4839 NE VIEW DR STE A", "addr:postcode": "98364", "addr:state": "WA", "brand": "USPS", "collection_times": "Mo-Fr 15:30; Sa 09:30", "name": "USPS COLLECTION BOX - PO LOBBY", "note": "ON 12/24 AND 12/31, THIS BOX MAY BE COLLECTED AS EARLY AS 12 NOON.", "ref": "9836400002"}, "type": "Feature"}
{"geometry": {"coordinates": [-122.7031, 47.920128], "type": "Point"}, "id": "i9l6g-Li8OIXHVhp_FeA7AsFWf8=", "properties": {"@spider": "usps_collection_boxes", "addr:city": "PORT HADLOCK", "addr:country": "US", "addr:full": "46 VILLAGE WAY", "addr:postcode": "98365", "addr:state": "WA", "brand": "USPS", "collection_times": "Mo-Fr 16:00", "name": "USPS COLLECTION BOX - BLUE BOX", "note": "ON 12/24 AND 12/31, THIS BOX MAY BE COLLECTED AS EARLY AS 12 NOON.", "ref": "9836500000"}, "type": "Feature"}
{"geometry": {"coordinates": [-122.610309, 47.532884], "type": "Point"}, "id": "MSVTXCOOnPGVY9evl6hLbOXRUys=", "properties": {"@spider": "usps_collection_boxes", "addr:city": "PORT ORCHARD", "addr:country": "US", "addr:full": "1725 KIDD AVE SE", "addr:postcode": "98366", "addr:state": "WA", "brand": "USPS", "collection_times": "Mo-Sa 14:15", "name": "USPS COLLECTION BOX - BLUE BOX", "note": "ON 12/24 AND 12/31, THIS BOX MAY BE COLLECTED AS EARLY AS 12 NOON.", "ref": "9836600000"}, "type": "Feature"}
{"geometry": {"coordinates": [-122.594225, 47.521881], "type": "Point"}, "id": "-t0aDIxcf3C0w9oythMTbM_wZFU=", "properties": {"@spider": "usps_collection_boxes", "addr:city": "PORT ORCHARD", "addr:country": "US", "addr:full": "2930 MERI LN SE", "addr:postcode": "98366", "addr:state": "WA", "brand": "USPS", "collection_times": "Mo-Sa 13:00", "name": "USPS COLLECTION BOX - BLUE BOX", "note": "ON 12/24 AND 12/31, THIS BOX MAY BE COLLECTED AS EARLY AS 12 NOON.", "ref": "9836600001"}, "type": "Feature"}
{"geometry": {"coordinates": [-122.594626, 47.5324], "type": "Point"}, "id": "h2nk8E0ujEMjxXZ9LY0m4FFDSx0=", "properties": {"@spider": "usps_collection_boxes", "addr:city": "PORT ORCHARD", "addr:country": "US", "addr:full": "1743 VILLAGE LN SE", "addr:postcode": "98366", "addr:state": "WA", "brand": "USPS", "collection_times": "Mo-Sa 14:15", "name": "USPS COLLECTION BOX - BLUE BOX", "note": "ON 12/24 AND 12/31, THIS BOX MAY BE COLLECTED AS EARLY AS 12 NOON.", "ref": "9836600003"}, "type": "Feature"}
{"geometry": {"coordinates": [-122.653156, 47.51831], "type": "Point"}, "id": "SY_7pHVpqHgNdQYC-UhaU1BgkjU=", "properties": {"@spider": "usps_collection_boxes", "addr:city": "PORT ORCHARD", "addr:country": "US", "addr:full": "1950 POTTERY AVE", "addr:postcode": "98366", "addr:state": "WA", "brand": "USPS", "collection_times": "Mo-Sa 14:15", "name": "USPS COLLECTION BOX - BLUE BOX", "note": "ON 12/24 AND 12/31, THIS BOX MAY BE COLLECTED AS EARLY AS 12 NOON.", "ref": "9836600005"}, "type": "Feature"}
{"geometry": {"coordinates": [-122.61836, 47.530374], "type": "Point"}, "id": "b7jPQhJp4FvQJyGsAB3dQtQBDGk=", "properties": {"@spider": "usps_collection_boxes", "addr:city": "PORT ORCHARD", "addr:country": "US", "addr:full": "1904 PIONEER LN SE", "addr:postcode": "98366", "addr:state": "WA", "brand": "USPS", "collection_times": "Mo-Sa 09:00", "name": "USPS COLLECTION BOX - BLUE BOX", "ref": "9836600006"}, "type": "Feature"}
{"geometry": {"coordinates": [-122.603483, 47.532789], "type": "Point"}, "id": "4pMfasMGlmLf0thTJaslI-y7BH8=", "properties": {"@spider": "usps_collection_boxes", "addr:city": "PORT ORCHARD", "addr:country": "US", "addr:full": "1748 HARRISON AVE SE", "addr:postcode": "98366", "addr:state": "WA", "brand": "USPS", "collection_times": "Mo-Sa 13:00", "name": "USPS COLLECTION BOX - BLUE BOX", "note": "ON 12/24 AND 12/31, THIS BOX MAY BE COLLECTED AS EARLY AS 12 NOON.", "ref": "9836600007"}, "type": "Feature"}
{"geometry": {"coordinates": [-122.636472, 47.541846], "type": "Point"}, "id": "6hp4RiopNqGLu4EOU6FKRMZr4nc=", "properties": {"@spider": "usps_collection_boxes", "addr:city": "PORT ORCHARD", "addr:country": "US", "addr:full": "739 BAY ST", "addr:postcode": "98366", "addr:state": "WA", "brand": "USPS", "collection_times": "Mo-Sa 14:15", "name": "USPS COLLECTION BOX - BLUE BOX", "note": "ON 12/24 AND 12/31, THIS BOX MAY BE COLLECTED AS EARLY AS 12 NOON.", "ref": "9836600008"}, "type": "Feature"}
{"geometry": {"coordinates": [-122.639361, 47.541937], "type": "Point"}, "id": "em4s9KDjhHjBNFqY75DFSepm5s4=", "properties": {"@spider": "usps_collection_boxes", "addr:city": "PORT ORCHARD", "addr:country": "US", "addr:full": "567 BAY ST", "addr:postcode": "98366", "addr:state": "WA", "brand": "USPS", "collection_times": "Mo-Sa 14:15", "name": "USPS COLLECTION BOX - BLUE BOX", "note": "ON 12/24 AND 12/31, THIS BOX MAY BE COLLECTED AS EARLY AS 12 NOON.", "ref": "9836600009"}, "type": "Feature"}
{"geometry": {"coordinates": [-122.629777, 47.51846], "type": "Point"}, "id": "99Qm91KpPU729pmdi4GJXboSSfA=", "properties": {"@spider": "usps_collection_boxes", "addr:city": "PORT ORCHARD", "addr:country": "US", "addr:full": "3377 BETHEL RD SE", "addr:postcode": "98366", "addr:state": "WA", "brand": "USPS", "collection_times": "Mo-Sa 14:15", "name": "USPS COLLECTION BOX - BLUE BOX", "note": "ON 12/24 AND 12/31, THIS BOX MAY BE COLLECTED AS EARLY AS 12 NOON.", "ref": "9836600010"}, "type": "Feature"}
{"geometry": {"coordinates": [-122.628798, 47.533599], "type": "Point"}, "id": "JzZQv_R5gxAVk44CY9pOkLOwnpA=", "properties": {"@spider": "usps_collection_boxes", "addr:city": "PORT ORCHARD", "addr:country": "US", "addr:full": "1125 BETHEL AVE", "addr:postcode": "98366", "addr:state": "WA", "brand": "USPS", "collection_times": "Mo-Sa 17:00", "name": "USPS COLLECTION BOX - BLUE BOX", "note": "ON 12/24 AND 12/31, THIS BOX MAY BE COLLECTED AS EARLY AS 12 NOON.", "ref": "9836600012"}, "type": "Feature"}
{"geometry": {"coordinates": [-122.656294, 47.52405], "type": "Point"}, "id": "XY6E3Qh8Qxzh05Ab0SSdS4fSLHQ=", "properties": {"@spider": "usps_collection_boxes", "addr:city": "PORT ORCHARD", "addr:country": "US", "addr:full": "451 S KITSAP BLVD", "addr:postcode": "98366", "addr:state": "WA", "brand": "USPS", "collection_times": "Mo-Sa 14:15", "name": "USPS COLLECTION BOX - BLUE BOX", "note": "ON 12/24 AND 12/31, THIS BOX MAY BE COLLECTED AS EARLY AS 12 NOON.", "ref": "9836600016"}, "type": "Feature"}
{"geometry": {"coordinates": [-122.636874, 47.532725], "type": "Point"}, "id": "bI6mWBSZ_oI17IHfAiVgdw5p3Xg=", "properties": {"@spider": "usps_collection_boxes", "addr:city": "PORT ORCHARD", "addr:country": "US", "addr:full": "1026 SIDNEY AVE", "addr:postcode": "98366", "addr:state": "WA", "brand": "USPS", "collection_times": "Mo-Sa 14:15", "name": "USPS COLLECTION BOX - BLUE BOX", "note": "ON 12/24 AND 12/31, THIS BOX MAY BE COLLECTED AS EARLY AS 12 NOON.", "ref": "9836600017"}, "type": "Feature"}
{"geometry": {"coordinates": [-122.611423, 47.535385], "type": "Point"}, "id": "I0WMXdKU3Wk-14_eyIMFAe3Sq0Y=", "properties": {"@spider": "usps_collection_boxes", "addr:city": "PORT ORCHARD", "addr:country": "US", "addr:full": "1456 OLNEY ST SE", "addr:postcode": "98366", "addr:state": "WA", "brand": "USPS", "collection_times": "Mo-Sa 14:15", "name": "USPS COLLECTION BOX - BLUE BOX", "note": "ON 12/24 AND 12/31, THIS BOX MAY BE COLLECTED AS EARLY AS 12 NOON.", "ref": "9836600018"}, "type": "Feature"}
{"geometry": {"coordinates": [-122.607953, 47.535924], "type": "Point"}, "id": "zCT6BjFXNnPTj1X1tkRTtqa1L4w=", "properties": {"@spider": "usps_collection_boxes", "addr:city": "PORT ORCHARD", "addr:country": "US", "addr:full": "1397 OLNEY ST SE", "addr:postcode": "98366", "addr:state": "WA", "brand": "USPS", "collection_times": "Mo-Sa 14:15", "name": "USPS COLLECTION BOX - BLUE BOX", "note": "ON 12/24 AND 12/31, THIS BOX MAY BE COLLECTED AS EARLY AS 12 NOON.", "ref": "9836600019"}, "type": "Feature"}
{"geometry": {"coordinates": [-122.622899, 47.532823], "type": "Point"}, "id": "iEavmiCUNkzVsJ2R0l_3237_r3Q=", "properties": {"@spider": "usps_collection_boxes", "addr:city": "PORT ORCHARD", "addr:country": "US", "addr:full": "1700 SE MILE HILL DR", "addr:postcode": "98366", "addr:state": "WA", "brand": "USPS", "collection_times": "Mo-Sa 14:15", "name": "USPS COLLECTION BOX - BLUE BOX", "note": "ON 12/24 AND 12/31, THIS BOX MAY BE COLLECTED AS EARLY AS 12 NOON.", "ref": "9836600020"}, "type": "Feature"}
{"geometry": {"coordinates": [-122.628775, 47.53367], "type": "Point"}, "id": "JFTHa2Wzl75piLa7Nu63AqDJ5EY=", "properties": {"@spider": "usps_collection_boxes", "addr:city": "PORT ORCHARD", "addr:country": "US", "addr:full": "1125 BETHEL AVE", "addr:postcode": "98366", "addr:state": "WA", "brand": "USPS", "collection_times": "Mo-Sa 17:00", "name": "USPS COLLECTION BOX - BLUE BOX", "note": "ON 12/24 AND 12/31, THIS BOX MAY BE COLLECTED AS EARLY AS 12 NOON.", "ref": "9836600024"}, "type": "Feature"}
{"geometry": {"coordinates": [-122.615349, 47.545606], "type": "Point"}, "id": "sdaUWkyBxS6wxwenASdjzvqCEaQ=", "properties": {"@spider": "usps_collection_boxes", "addr:city": "PORT ORCHARD", "addr:country": "US", "addr:full": "1141 BEACH DR E", "addr:postcode": "98366", "addr:state": "WA", "brand": "USPS", "collection_times": "Mo-Sa 09:45", "name": "USPS COLLECTION BOX - BLUE BOX", "ref": "9836600028"}, "type": "Feature"}
{"geometry": {"coordinates": [-122.629547, 47.503745], "type": "Point"}, "id": "BaNfS9ps9o0hALO1GCEsbMmW7I0=", "properties": {"@spider": "usps_collection_boxes", "addr:city": "PORT ORCHARD", "addr:country": "US", "addr:full": "1900 SE SEDGWICK RD", "addr:postcode": "98366", "addr:state": "WA", "brand": "USPS", "collection_times": "Mo-Sa 14:15", "name": "USPS COLLECTION BOX - BLUE BOX", "note": "ON 12/24 AND 12/31, THIS BOX MAY BE COLLECTED AS EARLY AS 12 NOON.", "ref": "9836600029"}, "type": "Feature"}
{"geometry": {"coordinates": [-122.628775, 47.53367], "type": "Point"}, "id": "Aniyelgt01APPM6TWz3hD5FznaA=", "properties": {"@spider": "usps_collection_boxes", "addr:city": "PORT ORCHARD", "addr:country": "US", "addr:full": "1125 BETHEL AVE", "addr:postcode": "98366", "addr:state": "WA", "brand": "USPS", "collection_times": "Mo-Sa 17:00", "name": "USPS COLLECTION BOX - APC", "note": "ON 12/24 AND 12/31, THIS BOX MAY BE COLLECTED AS EARLY AS 12 NOON.", "ref": "9836600030"}, "type": "Feature"}
{"geometry": {"coordinates": [-122.628775, 47.53367], "type": "Point"}, "id": "q8qcG1FRhULSxLRxrqq5yNB55_4=", "properties": {"@spider": "usps_collection_boxes", "addr:city": "PORT ORCHARD", "addr:country": "US", "addr:full": "1125 BETHEL AVE", "addr:postcode": "98366", "addr:state": "WA", "brand": "USPS", "collection_times": "Mo-Sa 17:00", "name": "USPS COLLECTION BOX - APC", "note": "ON 12/24 AND 12/31, THIS BOX MAY BE COLLECTED AS EARLY AS 12 NOON.", "ref": "9836600032"}, "type": "Feature"}
{"geometry": {"coordinates": [-122.637666, 47.53804], "type": "Point"}, "id": "Y5AQamiSFVd8smjlsowZb6Ay5p0=", "properties": {"@spider": "usps_collection_boxes", "addr:city": "PORT ORCHARD", "addr:country": "US", "addr:full": "614 DIVISION ST", "addr:postcode": "98366", "addr:state": "WA", "brand": "USPS", "collection_times": "Mo-Sa 14:15", "name": "USPS COLLECTION BOX - BLUE BOX", "note": "ON 12/24 AND 12/31, THIS BOX MAY BE COLLECTED AS EARLY AS 12 NOON.", "ref": "9836600033"}, "type": "Feature"}
{"geometry": {"coordinates": [-122.630489732, 47.531490214], "type": "Point"}, "id": "UUHLtVBjQStVNHjAShtE4LEZvdc=", "properties": {"@spider": "usps_collection_boxes", "addr:city": "PORT ORCHARD", "addr:country": "US", "addr:full": "1125 BETHEL AVE", "addr:postcode": "98366", "addr:state": "WA", "brand": "USPS", "collection_times": "Mo-Fr 17:00; Sa 13:00", "name": "USPS COLLECTION BOX - PO LOBBY", "note": "ON 12/24 AND 12/31, THIS BOX MAY BE COLLECTED AS EARLY AS 12 NOON.", "ref": "9836600036"}, "type": "Feature"}
{"geometry": {"coordinates": [-122.651936, 47.496495], "type": "Point"}, "id": "lM5ACxwpLcT5fTZl8-EDc6nHL1M=", "properties": {"@spider": "usps_collection_boxes", "addr:city": "PORT ORCHARD", "addr:country": "US", "addr:full": "390 SW SEDGWICK RD", "addr:postcode": "98367", "addr:state": "WA", "brand": "USPS", "collection_times": "Mo-Sa 14:15", "name": "USPS COLLECTION BOX - BLUE BOX", "note": "ON 12/24 AND 12/31, THIS BOX MAY BE COLLECTED AS EARLY AS 12 NOON.", "ref": "9836700000"}, "type": "Feature"}
{"geometry": {"coordinates": [-122.634395, 47.733935], "type": "Point"}, "id": "GbsFUtvgfIBe-2O97Z4UyXXoCGo=", "properties": {"@spider": "usps_collection_boxes", "addr:city": "POULSBO", "addr:country": "US", "addr:full": "1040 NE HOSTMARK ST", "addr:postcode": "98370", "addr:state": "WA", "brand": "USPS", "collection_times": "Mo-Sa 10:30", "name": "USPS COLLECTION BOX - BLUE BOX", "ref": "9837000000"}, "type": "Feature"}
{"geometry": {"coordinates": [-122.640544, 47.73263], "type": "Point"}, "id": "aqUMl-g-0MGPt2vjKoVgesCgBcs=", "properties": {"@spider": "usps_collection_boxes", "addr:city": "POULSBO", "addr:country": "US", "addr:full": "703 NE HOSTMARK ST", "addr:postcode": "98370", "addr:state": "WA", "brand": "USPS", "collection_times": "Mo-Sa 10:30", "name": "USPS COLLECTION BOX - BLUE BOX", "ref": "9837000002"}, "type": "Feature"}
{"geometry": {"coordinates": [-122.646416, 47.733992], "type": "Point"}, "id": "t7g86I78xxt3Adh5oqwpi4uJaAw=", "properties": {"@spider": "usps_collection_boxes", "addr:city": "POULSBO", "addr:country": "US", "addr:full": "18833 FRONT ST NE", "addr:postcode": "98370", "addr:state": "WA", "brand": "USPS", "collection_times": "Mo-Sa 13:00", "name": "USPS COLLECTION BOX - BLUE BOX", "note": "ON 12/24 AND 12/31, THIS BOX MAY BE COLLECTED AS EARLY AS 12 NOON.", "ref": "9837000003"}, "type": "Feature"}
{"geometry": {"coordinates": [-122.655274, 47.747145], "type": "Point"}, "id": "wxLoo31BbYdXq3BSn4i4FRljTpY=", "properties": {"@spider": "usps_collection_boxes", "addr:city": "POULSBO", "addr:country": "US", "addr:full": "20245 VIKING AVE NW", "addr:postcode": "98370", "addr:state": "WA", "brand": "USPS", "collection_times": "Mo-Sa 12:00", "name": "USPS COLLECTION BOX - BLUE BOX", "ref": "9837000004"}, "type": "Feature"}
{"geometry": {"coordinates": [-122.637114, 47.746116], "type": "Point"}, "id": "fqn8TQU5EsiSYcSsRTntXR9cqLc=", "properties": {"@spider": "usps_collection_boxes", "addr:city": "POULSBO", "addr:country": "US", "addr:full": "20148 10TH AVE NE", "addr:postcode": "98370", "addr:state": "WA", "brand": "USPS", "collection_times": "Mo-Sa 10:30", "name": "USPS COLLECTION BOX - BLUE BOX", "ref": "9837000005"}, "type": "Feature"}
{"geometry": {"coordinates": [-122.638054, 47.735776], "type": "Point"}, "id": "KRBCuGq6hLkr7hWavnQ8Hqk3Z4k=", "properties": {"@spider": "usps_collection_boxes", "addr:city": "POULSBO", "addr:country": "US", "addr:full": "19045 STATE HIGHWAY 305 NE", "addr:postcode": "98370", "addr:state": "WA", "brand": "USPS", "collection_times": "Mo-Sa 10:30", "name": "USPS COLLECTION BOX - BLUE BOX", "ref": "9837000007"}, "type": "Feature"}
{"geometry": {"coordinates": [-122.640821, 47.738918], "type": "Point"}, "id": "osvS1JU2N2KwxnlObrwgwxQqBRQ=", "properties": {"@spider": "usps_collection_boxes", "addr:city": "POULSBO", "addr:country": "US", "addr:full": "19425 7TH AVE NE STE 101", "addr:postcode": "98370", "addr:state": "WA", "brand": "USPS", "collection_times": "Mo-Sa 10:30", "name": "USPS COLLECTION BOX - BLUE BOX", "ref": "9837000009"}, "type": "Feature"}
{"geometry": {"coordinates": [-122.639942, 47.742198], "type": "Point"}, "id": "iv4AhbRlgcN_6aEXNfgqvdMo2ps=", "properties": {"@spider": "usps_collection_boxes", "addr:city": "POULSBO", "addr:country": "US", "addr:full": "19740 7TH AVE NE", "addr:postcode": "98370", "addr:state": "WA", "brand": "USPS", "collection_times": "Mo-Sa 10:30", "name": "USPS COLLECTION BOX - BLUE BOX", "ref": "9837000010"}, "type": "Feature"}
{"geometry": {"coordinates": [-122.64675, 47.737602], "type": "Point"}, "id": "x0KmQ1KtFn6487JyCrklcjFieWM=", "properties": {"@spider": "usps_collection_boxes", "addr:city": "POULSBO", "addr:country": "US", "addr:full": "19240 JENSEN WAY NE", "addr:postcode": "98370", "addr:state": "WA", "brand": "USPS", "collection_times": "Mo-Fr 17:00; Sa 15:00", "name": "USPS COLLECTION BOX - BLUE BOX", "note": "ON 12/24 AND 12/31, THIS BOX MAY BE COLLECTED AS EARLY AS 12 NOON.", "ref": "9837000018"}, "type": "Feature"}
{"geometry": {"coordinates": [-122.646791, 47.737548], "type": "Point"}, "id": "np9dVX0cUbZTCjfF8LTuq1Ff0cA=", "properties": {"@spider": "usps_collection_boxes", "addr:city": "POULSBO", "addr:country": "US", "addr:full": "19240 JENSEN WAY NE", "addr:postcode": "98370", "addr:state": "WA", "brand": "USPS", "collection_times": "Mo-Fr 17:00; Sa 15:00", "name": "USPS COLLECTION BOX - BLUE BOX", "note": "ON 12/24 AND 12/31, THIS BOX MAY BE COLLECTED AS EARLY AS 12 NOON.", "ref": "9837000022"}, "type": "Feature"}
{"geometry": {"coordinates": [-122.646791, 47.737548], "type": "Point"}, "id": "CznsTBqtUWfQP67mQQ-FAwkHeHw=", "properties": {"@spider": "usps_collection_boxes", "addr:city": "POULSBO", "addr:country": "US", "addr:full": "19240 JENSEN WAY NE", "addr:postcode": "98370", "addr:state": "WA", "brand": "USPS", "collection_times": "Mo-Fr 17:00; Sa 15:00", "name": "USPS COLLECTION BOX - PO LOBBY", "note": "ON 12/24 AND 12/31, THIS BOX MAY BE COLLECTED AS EARLY AS 12 NOON.", "ref": "9837000023"}, "type": "Feature"}
{"geometry": {"coordinates": [-122.639091, 47.724785], "type": "Point"}, "id": "s1DwLGdZ64XB0-AQR3zKjMM99wU=", "properties": {"@spider": "usps_collection_boxes", "addr:city": "POULSBO", "addr:country": "US", "addr:full": "17791 FJORD DR NE", "addr:postcode": "98370", "addr:state": "WA", "brand": "USPS", "collection_times": "Mo-Sa 10:30", "name": "USPS COLLECTION BOX - BLUE BOX", "ref": "9837000025"}, "type": "Feature"}
{"geometry": {"coordinates": [-122.63822, 47.742167], "type": "Point"}, "id": "Xnbmk0bSc3eCmm0pdTYG2JhobvM=", "properties": {"@spider": "usps_collection_boxes", "addr:city": "POULSBO", "addr:country": "US", "addr:full": "19735 10TH AVE NE", "addr:postcode": "98370", "addr:state": "WA", "brand": "USPS", "collection_times": "Mo-Sa 10:30", "name": "USPS COLLECTION BOX - BLUE BOX", "ref": "9837000026"}, "type": "Feature"}
{"geometry": {"coordinates": [-122.646753161, 47.73759322], "type": "Point"}, "id": "eNLtRCScQATIe783r9cTpqpJS7c=", "properties": {"@spider": "usps_collection_boxes", "addr:city": "POULSBO", "addr:country": "US", "addr:full": "19240 JENSEN WAY NE", "addr:postcode": "98370", "addr:state": "WA", "brand": "USPS", "collection_times": "Mo-Fr 17:00; Sa 14:00", "name": "USPS COLLECTION BOX - PO LOBBY", "note": "ON 12/24 AND 12/31, THIS BOX MAY BE COLLECTED AS EARLY AS 12 NOON.", "ref": "9837000029"}, "type": "Feature"}
{"geometry": {"coordinates": [-122.876096, 47.822], "type": "Point"}, "id": "byKK2O98CcwGgTNOOjvSnL4GFZ0=", "properties": {"@spider": "usps_collection_boxes", "addr:city": "QUILCENE", "addr:country": "US", "addr:full": "294843 US HIGHWAY 101 UNIT 3", "addr:postcode": "98376", "addr:state": "WA", "brand": "USPS", "collection_times": "Mo-Fr 16:00; Sa 10:00", "name": "USPS COLLECTION BOX - BLUE BOX", "note": "ON 12/24 AND 12/31, THIS BOX MAY BE COLLECTED AS EARLY AS 12 NOON.", "ref": "9837600000"}, "type": "Feature"}
{"geometry": {"coordinates": [-122.876051, 47.822089], "type": "Point"}, "id": "WwGqjc6FRN1kWi8YtzoIiKC8Zxc=", "properties": {"@spider": "usps_collection_boxes", "addr:city": "QUILCENE", "addr:country": "US", "addr:full": "294843 US HIGHWAY 101 STE 3", "addr:postcode": "98376", "addr:state": "WA", "brand": "USPS", "collection_times": "Mo-Fr 16:00; Sa 10:00", "name": "USPS COLLECTION BOX - PO LOBBY", "note": "ON 12/24 AND 12/31, THIS BOX MAY BE COLLECTED AS EARLY AS 12 NOON.", "ref": "9837600001"}, "type": "Feature"}
{"geometry": {"coordinates": [-122.8761004, 47.821992643], "type": "Point"}, "id": "bXARc9vlwrOCyuTPFVHbezoqiHc=", "properties": {"@spider": "usps_collection_boxes", "addr:city": "QUILCENE", "addr:country": "US", "addr:full": "294843 US HIGHWAY 101 UNIT 3", "addr:postcode": "98376", "addr:state": "WA", "brand": "USPS", "collection_times": "Mo-Fr 16:30", "name": "USPS COLLECTION BOX - PO LOBBY", "note": "ON 12/24 AND 12/31, THIS BOX MAY BE COLLECTED AS EARLY AS 12 NOON.", "ref": "9837600002"}, "type": "Feature"}
{"geometry": {"coordinates": [-122.828984, 47.640841], "type": "Point"}, "id": "pdydjyVTydbjCCIOAOdYYFiRkmg=", "properties": {"@spider": "usps_collection_boxes", "addr:city": "SEABECK", "addr:country": "US", "addr:full": "15398 SEABECK HWY NW", "addr:postcode": "98380", "addr:state": "WA", "brand": "USPS", "collection_times": "Mo-Fr 10:00", "name": "USPS COLLECTION BOX - BLUE BOX", "ref": "9838000000"}, "type": "Feature"}
{"geometry": {"coordinates": [-122.843812, 47.605749], "type": "Point"}, "id": "WuZDiIzg3RKo79_QZCXhxeaPWxA=", "properties": {"@spider": "usps_collection_boxes", "addr:city": "SEABECK", "addr:country": "US", "addr:full": "4691 SEABECK HOLLY RD NW", "addr:postcode": "98380", "addr:state": "WA", "brand": "USPS", "collection_times": "Mo-Fr 16:00; Sa 10:00", "name": "USPS COLLECTION BOX - BLUE BOX", "note": "ON 12/24 AND 12/31, THIS BOX MAY BE COLLECTED AS EARLY AS 12 NOON.", "ref": "9838000002"}, "type": "Feature"}
{"geometry": {"coordinates": [-122.843763, 47.605696], "type": "Point"}, "id": "8fEgqNo3XspTTMTUI0VSI0ofk9A=", "properties": {"@spider": "usps_collection_boxes", "addr:city": "SEABECK", "addr:country": "US", "addr:full": "4691 SEABECK HOLLY RD NW", "addr:postcode": "98380", "addr:state": "WA", "brand": "USPS", "collection_times": "Mo-Fr 16:00; Sa 10:00", "name": "USPS COLLECTION BOX - PO LOBBY", "note": "ON 12/24 AND 12/31, THIS BOX MAY BE COLLECTED AS EARLY AS 12 NOON.", "ref": "9838000003"}, "type": "Feature"}
{"geometry": {"coordinates": [-122.843763, 47.605696], "type": "Point"}, "id": "Xxv1fNa3JkVTLV1a4SZ4wCyT3Xo=", "properties": {"@spider": "usps_collection_boxes", "addr:city": "SEABECK", "addr:country": "US", "addr:full": "4691 SEABECK HOLLY RD NW", "addr:postcode": "98380", "addr:state": "WA", "brand": "USPS", "collection_times": "Mo-Fr 16:00; Sa 10:00", "name": "USPS COLLECTION BOX - PO LOBBY", "note": "ON 12/24 AND 12/31, THIS BOX MAY BE COLLECTED AS EARLY AS 12 NOON.", "ref": "9838000004"}, "type": "Feature"}
{"geometry": {"coordinates": [-122.840246, 47.593647], "type": "Point"}, "id": "UuJZT3sFQCEG-hOPzHd8HpZmqg0=", "properties": {"@spider": "usps_collection_boxes", "addr:city": "SEABECK", "addr:country": "US", "addr:full": "14174 NW HOLLY RD", "addr:postcode": "98380", "addr:state": "WA", "brand": "USPS", "collection_times": "Mo-Fr 10:00", "name": "USPS COLLECTION BOX - BLUE BOX", "ref": "9838000006"}, "type": "Feature"}
{"geometry": {"coordinates": [-122.843932222, 47.606355503], "type": "Point"}, "id": "y_ucAZ6nFWHLNKEyFjj45zjTh1w=", "properties": {"@spider": "usps_collection_boxes", "addr:city": "SEABECK", "addr:country": "US", "addr:full": "4691 SEABECK HOLLY RD NW", "addr:postcode": "98380", "addr:state": "WA", "brand": "USPS", "collection_times": "Mo-Fr 16:00", "name": "USPS COLLECTION BOX - PO LOBBY", "note": "ON 12/24 AND 12/31, THIS BOX MAY BE COLLECTED AS EARLY AS 12 NOON.", "ref": "9838000007"}, "type": "Feature"}
{"geometry": {"coordinates": [-124.302253, 48.26527], "type": "Point"}, "id": "l3Gp8IYbXhz8yA0zHyYZMEU9lp4=", "properties": {"@spider": "usps_collection_boxes", "addr:city": "SEKIU", "addr:country": "US", "addr:full": "72 WASHINGTON ST", "addr:postcode": "98381", "addr:state": "WA", "brand": "USPS", "collection_times": "Mo-Fr 14:15; Sa 13:00", "name": "USPS COLLECTION BOX - BLUE BOX", "note": "ON 12/24 AND 12/31, THIS BOX MAY BE COLLECTED AS EARLY AS 12 NOON.", "ref": "9838100000"}, "type": "Feature"}
{"geometry": {"coordinates": [-124.301833, 48.26507], "type": "Point"}, "id": "J74cl6BwBaOwbMWbl8Wb8yoXTyA=", "properties": {"@spider": "usps_collection_boxes", "addr:city": "SEKIU", "addr:country": "US", "addr:full": "72 WASHINGTON ST", "addr:postcode": "98381", "addr:state": "WA", "brand": "USPS", "collection_times": "Mo-Fr 14:15; Sa 09:15", "name": "USPS COLLECTION BOX - PO LOBBY", "note": "ON 12/24 AND 12/31, THIS BOX MAY BE COLLECTED AS EARLY AS 12 NOON.", "ref": "9838100002"}, "type": "Feature"}
{"geometry": {"coordinates": [-124.302320445, 48.265083512], "type": "Point"}, "id": "cIL8HZObA_VhsmTU_Jz2raD9S98=", "properties": {"@spider": "usps_collection_boxes", "addr:city": "SEKIU", "addr:country": "US", "addr:full": "72 WASHINGTON ST", "addr:postcode": "98381", "addr:state": "WA", "brand": "USPS", "collection_times": "Mo-Fr 14:30", "name": "USPS COLLECTION BOX - PO LOBBY", "note": "ON 12/24 AND 12/31, THIS BOX MAY BE COLLECTED AS EARLY AS 12 NOON.", "ref": "9838100003"}, "type": "Feature"}
{"geometry": {"coordinates": [-122.684586, 47.661954], "type": "Point"}, "id": "dDXIxXzwUD0w4to4cn_DeanpGpg=", "properties": {"@spider": "usps_collection_boxes", "addr:city": "SILVERDALE", "addr:country": "US", "addr:full": "10855 SILVERDALE WAY NW", "addr:postcode": "98383", "addr:state": "WA", "brand": "USPS", "collection_times": "Mo-Fr 17:00; Sa 16:00", "name": "USPS COLLECTION BOX - BLUE BOX", "note": "ON 12/24 AND 12/31, THIS BOX MAY BE COLLECTED AS EARLY AS 12 NOON.", "ref": "9838300000"}, "type": "Feature"}
{"geometry": {"coordinates": [-122.696217, 47.645356], "type": "Point"}, "id": "UIlbUWnxuM4AyhnEQXs6D0rqzbI=", "properties": {"@spider": "usps_collection_boxes", "addr:city": "SILVERDALE", "addr:country": "US", "addr:full": "3428 NW LOWELL ST", "addr:postcode": "98383", "addr:state": "WA", "brand": "USPS", "collection_times": "Mo-Fr 12:00; Sa 11:00", "name": "USPS COLLECTION BOX - BLUE BOX", "ref": "9838300005"}, "type": "Feature"}
{"geometry": {"coordinates": [-122.691998, 47.653483], "type": "Point"}, "id": "SbVVxR-5eWFITAssvnxOKTw9BSc=", "properties": {"@spider": "usps_collection_boxes", "addr:city": "SILVERDALE", "addr:country": "US", "addr:full": "9985 SILVERDALE WAY NW", "addr:postcode": "98383", "addr:state": "WA", "brand": "USPS", "collection_times": "Mo-Sa 13:00", "name": "USPS COLLECTION BOX - BLUE BOX", "note": "ON 12/24 AND 12/31, THIS BOX MAY BE COLLECTED AS EARLY AS 12 NOON.", "ref": "9838300007"}, "type": "Feature"}
{"geometry": {"coordinates": [-122.694081, 47.654291], "type": "Point"}, "id": "TkS8hE4Vv35zFXx9XXCRnlKr68Y=", "properties": {"@spider": "usps_collection_boxes", "addr:city": "SILVERDALE", "addr:country": "US", "addr:full": "10049 KITSAP MALL BLVD NW", "addr:postcode": "98383", "addr:state": "WA", "brand": "USPS", "collection_times": "Mo-Sa 13:00", "name": "USPS COLLECTION BOX - BLUE BOX", "note": "ON 12/24 AND 12/31, THIS BOX MAY BE COLLECTED AS EARLY AS 12 NOON.", "ref": "9838300008"}, "type": "Feature"}
{"geometry": {"coordinates": [-122.668959, 47.687127], "type": "Point"}, "id": "ufrgN1fRe2mRyHtGIlug5HwJ6Fg=", "properties": {"@spider": "usps_collection_boxes", "addr:city": "SILVERDALE", "addr:country": "US", "addr:full": "13631 BENNINGTON DR NW", "addr:postcode": "98383", "addr:state": "WA", "brand": "USPS", "collection_times": "Mo-Sa 11:00", "name": "USPS COLLECTION BOX - BLUE BOX", "ref": "9838300009"}, "type": "Feature"}
{"geometry": {"coordinates": [-122.684766554, 47.652593889], "type": "Point"}, "id": "2VAtGqED20ilVNH2GpleQdbf9c8=", "properties": {"@spider": "usps_collection_boxes", "addr:city": "SILVERDALE", "addr:country": "US", "addr:full": "9657 LEVIN RD NW", "addr:postcode": "98383", "addr:state": "WA", "brand": "USPS", "collection_times": "Mo-Sa 13:00", "name": "USPS COLLECTION BOX - BLUE BOX", "note": "ON 12/24 AND 12/31, THIS BOX MAY BE COLLECTED AS EARLY AS 12 NOON.", "ref": "9838300010"}, "type": "Feature"}
{"geometry": {"coordinates": [-122.68868, 47.652356], "type": "Point"}, "id": "GT_2QCjWkUqnZLa3WFqerQz9cTw=", "properties": {"@spider": "usps_collection_boxes", "addr:city": "SILVERDALE", "addr:country": "US", "addr:full": "2890 NW BUCKLIN HILL RD", "addr:postcode": "98383", "addr:state": "WA", "brand": "USPS", "collection_times": "Mo-Fr 12:00; Sa 11:00", "name": "USPS COLLECTION BOX - BLUE BOX", "ref": "9838300012"}, "type": "Feature"}
{"geometry": {"coordinates": [-122.696659, 47.649375], "type": "Point"}, "id": "d4IwJNpphyR_z3dUZEjc3RKUN98=", "properties": {"@spider": "usps_collection_boxes", "addr:city": "SILVERDALE", "addr:country": "US", "addr:full": "9451 SILVERDALE WAY NW", "addr:postcode": "98383", "addr:state": "WA", "brand": "USPS", "collection_times": "Mo-Sa 13:00", "name": "USPS COLLECTION BOX - BLUE BOX", "note": "ON 12/24 AND 12/31, THIS BOX MAY BE COLLECTED AS EARLY AS 12 NOON.", "ref": "9838300013"}, "type": "Feature"}
{"geometry": {"coordinates": [-122.680148, 47.650874], "type": "Point"}, "id": "e-uB_Ns-VJXmi-YzAc6t01GOTec=", "properties": {"@spider": "usps_collection_boxes", "addr:city": "SILVERDALE", "addr:country": "US", "addr:full": "2222 NW BUCKLIN HILL RD", "addr:postcode": "98383", "addr:state": "WA", "brand": "USPS", "collection_times": "Mo-Fr 12:00; Sa 11:00", "name": "USPS COLLECTION BOX - BLUE BOX", "ref": "9838300014"}, "type": "Feature"}
{"geometry": {"coordinates": [-122.68457, 47.661906], "type": "Point"}, "id": "je1q4Gv14oB9s_NPDXivkAbtG-A=", "properties": {"@spider": "usps_collection_boxes", "addr:city": "SILVERDALE", "addr:country": "US", "addr:full": "10855 SILVERDALE WAY NW", "addr:postcode": "98383", "addr:state": "WA", "brand": "USPS", "collection_times": "Mo-Fr 17:00; Sa 16:00", "name": "USPS COLLECTION BOX - PO LOBBY", "note": "ON 12/24 AND 12/31, THIS BOX MAY BE COLLECTED AS EARLY AS 12 NOON.", "ref": "9838300015"}, "type": "Feature"}
{"geometry": {"coordinates": [-122.690979, 47.651043], "type": "Point"}, "id": "yWIRLyeP6yiMN3KYUrdFwOGKBK0=", "properties": {"@spider": "usps_collection_boxes", "addr:city": "SILVERDALE", "addr:country": "US", "addr:full": "3100 NW BUCKLIN HILL RD", "addr:postcode": "98383", "addr:state": "WA", "brand": "USPS", "collection_times": "Mo-Fr 12:00; Sa 11:00", "name": "USPS COLLECTION BOX - BLUE BOX", "ref": "9838300017"}, "type": "Feature"}
{"geometry": {"coordinates": [-122.769457, 47.635671], "type": "Point"}, "id": "YioaJMDOfECZy59oBwuyTPaCdKY=", "properties": {"@spider": "usps_collection_boxes", "addr:city": "SILVERDALE", "addr:country": "US", "addr:full": "7978 SEABECK HWY NW", "addr:postcode": "98383", "addr:state": "WA", "brand": "USPS", "collection_times": "Mo-Fr 12:00; Sa 11:00", "name": "USPS COLLECTION BOX - BLUE BOX", "ref": "9838300018"}, "type": "Feature"}
{"geometry": {"coordinates": [-122.675456, 47.655844], "type": "Point"}, "id": "3vx-NKrWs0FITun1AR7ykhg2iYM=", "properties": {"@spider": "usps_collection_boxes", "addr:city": "SILVERDALE", "addr:country": "US", "addr:full": "1800 NW MYHRE RD", "addr:postcode": "98383", "addr:state": "WA", "brand": "USPS", "collection_times": "Mo-Fr 12:00; Sa 11:00", "name": "USPS COLLECTION BOX - BLUE BOX", "ref": "9838300020"}, "type": "Feature"}
{"geometry": {"coordinates": [-122.68457, 47.661906], "type": "Point"}, "id": "xPGmiAWUGzjlokX9S1w2GiqfNWE=", "properties": {"@spider": "usps_collection_boxes", "addr:city": "SILVERDALE", "addr:country": "US", "addr:full": "10855 SILVERDALE WAY NW", "addr:postcode": "98383", "addr:state": "WA", "brand": "USPS", "collection_times": "Mo-Fr 17:00; Sa 16:00", "name": "USPS COLLECTION BOX - APC", "note": "ON 12/24 AND 12/31, THIS BOX MAY BE COLLECTED AS EARLY AS 12 NOON.", "ref": "9838300021"}, "type": "Feature"}
{"geometry": {"coordinates": [-122.68457, 47.661906], "type": "Point"}, "id": "Jt_Uf9LSGvCJ2WvFOsuOM0c11ss=", "properties": {"@spider": "usps_collection_boxes", "addr:city": "SILVERDALE", "addr:country": "US", "addr:full": "10855 SILVERDALE WAY NW", "addr:postcode": "98383", "addr:state": "WA", "brand": "USPS", "collection_times": "Mo-Fr 17:00; Sa 16:00", "name": "USPS COLLECTION BOX - PO LOBBY", "note": "ON 12/24 AND 12/31, THIS BOX MAY BE COLLECTED AS EARLY AS 12 NOON.", "ref": "9838300022"}, "type": "Feature"}
{"geometry": {"coordinates": [-122.68457, 47.661906], "type": "Point"}, "id": "TF2louE4ymkIRGPv9-ZDQBR-v-k=", "properties": {"@spider": "usps_collection_boxes", "addr:city": "SILVERDALE", "addr:country": "US", "addr:full": "10855 SILVERDALE WAY NW", "addr:postcode": "98383", "addr:state": "WA", "brand": "USPS", "collection_times": "Mo-Fr 17:00; Sa 16:00", "name": "USPS COLLECTION BOX - APC", "note": "ON 12/24 AND 12/31, THIS BOX MAY BE COLLECTED AS EARLY AS 12 NOON.", "ref": "9838300023"}, "type": "Feature"}
{"geometry": {"coordinates": [-122.68458353, 47.661960854], "type": "Point"}, "id": "7abR-NXlkZFAVdVStQpTPG-bEio=", "properties": {"@spider": "usps_collection_boxes", "addr:city": "SILVERDALE", "addr:country": "US", "addr:full": "10855 SILVERDALE WAY NW", "addr:postcode": "98383", "addr:state": "WA", "brand": "USPS", "collection_times": "Mo-Fr 17:00; Sa 14:00", "name": "USPS COLLECTION BOX - PO LOBBY", "note": "ON 12/24 AND 12/31, THIS BOX MAY BE COLLECTED AS EARLY AS 12 NOON.", "ref": "9838300029"}, "type": "Feature"}
{"geometry": {"coordinates": [-122.552465, 47.73067], "type": "Point"}, "id": "i2ITBhLMPGWBhLQ2bAo6VmP3wjE=", "properties": {"@spider": "usps_collection_boxes", "addr:city": "SUQUAMISH", "addr:country": "US", "addr:full": "18485 AUGUSTA AVE NE", "addr:postcode": "98392", "addr:state": "WA", "brand": "USPS", "collection_times": "Mo-Fr 16:30; Sa 12:00", "name": "USPS COLLECTION BOX - PO LOBBY", "note": "ON 12/24 AND 12/31, THIS BOX MAY BE COLLECTED AS EARLY AS 12 NOON.", "ref": "9839200000"}, "type": "Feature"}
{"geometry": {"coordinates": [-122.552422, 47.730598], "type": "Point"}, "id": "yUQpi_QtdHSWMnLHl2QmQOyZcdk=", "properties": {"@spider": "usps_collection_boxes", "addr:city": "SUQUAMISH", "addr:country": "US", "addr:full": "18485 AUGUSTA AVE NE", "addr:postcode": "98392", "addr:state": "WA", "brand": "USPS", "collection_times": "Mo-Fr 16:30; Sa 12:00", "name": "USPS COLLECTION BOX - BLUE BOX", "note": "ON 12/24 AND 12/31, THIS BOX MAY BE COLLECTED AS EARLY AS 12 NOON.", "ref": "9839200001"}, "type": "Feature"}
{"geometry": {"coordinates": [-122.55248588, 47.730637393], "type": "Point"}, "id": "WxtBdk9ctTvjhJ6hNLoJMqzH0kM=", "properties": {"@spider": "usps_collection_boxes", "addr:city": "SUQUAMISH", "addr:country": "US", "addr:full": "18485 AUGUSTA AVE NE", "addr:postcode": "98392", "addr:state": "WA", "brand": "USPS", "collection_times": "Mo-Fr 17:00; Sa 12:00", "name": "USPS COLLECTION BOX - PO LOBBY", "note": "ON 12/24 AND 12/31, THIS BOX MAY BE COLLECTED AS EARLY AS 12 NOON.", "ref": "9839200003"}, "type": "Feature"}
{"geometry": {"coordinates": [-122.655989, 47.610824], "type": "Point"}, "id": "9Zp970UHFVLvvN4RAKbJdF_PdmA=", "properties": {"@spider": "usps_collection_boxes", "addr:city": "TRACYTON", "addr:country": "US", "addr:full": "5201 TRACYTON BLVD NW", "addr:postcode": "98393", "addr:state": "WA", "brand": "USPS", "collection_times": "Mo-Fr 17:00; Sa 16:00", "name": "USPS COLLECTION BOX - BLUE BOX", "note": "ON 12/24 AND 12/31, THIS BOX MAY BE COLLECTED AS EARLY AS 12 NOON.", "ref": "9839300001"}, "type": "Feature"}
{"geometry": {"coordinates": [-122.655467, 47.610553], "type": "Point"}, "id": "OuoCOZaLY7eLbzfz3mt0WtXFLd8=", "properties": {"@spider": "usps_collection_boxes", "addr:city": "TRACYTON", "addr:country": "US", "addr:full": "5201 TRACYTON BLVD NW", "addr:postcode": "98393", "addr:state": "WA", "brand": "USPS", "collection_times": "Mo-Fr 16:45; Sa 09:00", "name": "USPS COLLECTION BOX - PO LOBBY", "note": "ON 12/24 AND 12/31, THIS BOX MAY BE COLLECTED AS EARLY AS 12 NOON.", "ref": "9839300002"}, "type": "Feature"}
{"geometry": {"coordinates": [-122.655467, 47.610553], "type": "Point"}, "id": "jCINhJBz1Mp07QfnBYGUzva8hoU=", "properties": {"@spider": "usps_collection_boxes", "addr:city": "TRACYTON", "addr:country": "US", "addr:full": "5201 TRACYTON BLVD NW", "addr:postcode": "98393", "addr:state": "WA", "brand": "USPS", "collection_times": "Mo-Fr 16:45; Sa 09:00", "name": "USPS COLLECTION BOX - PO LOBBY", "note": "ON 12/24 AND 12/31, THIS BOX MAY BE COLLECTED AS EARLY AS 12 NOON.", "ref": "9839300003"}, "type": "Feature"}
{"geometry": {"coordinates": [-122.655443748, 47.610837], "type": "Point"}, "id": "1H3j2KotaTa1U4TrbSXwymJ69gU=", "properties": {"@spider": "usps_collection_boxes", "addr:city": "TRACYTON", "addr:country": "US", "addr:full": "5201 TRACYTON BLVD NW", "addr:postcode": "98393", "addr:state": "WA", "brand": "USPS", "collection_times": "Mo-Fr 16:45", "name": "USPS COLLECTION BOX - PO LOBBY", "note": "ON 12/24 AND 12/31, THIS BOX MAY BE COLLECTED AS EARLY AS 12 NOON.", "ref": "9839300004"}, "type": "Feature"}
