{"dataset_attributes": {"@spider": "usps_collection_boxes", "spider:collection_time": "2023-09-07T08:24:46.282741"}, "geometry": {"coordinates": [-122.438393, 47.255696], "type": "Point"}, "id": "0noEQv4bhvoGUD4GNPwe30F1sYM=", "properties": {"@spider": "usps_collection_boxes", "addr:city": "TACOMA", "addr:country": "US", "addr:full": "821 COURT A", "addr:postcode": "98402", "addr:state": "WA", "amenity": "post_box", "brand": "United States Postal Service", "brand:wikidata": "Q668687", "collection_times": "Mo-Fr 17:00; Sa 15:30", "name": "USPS COLLECTION BOX - BLUE BOX", "note": "ON 12/24 AND 12/31, THIS BOX MAY BE COLLECTED AS EARLY AS 12 NOON.", "nsi_id": "unitedstatespostalservice-a77078", "operator": "United States Postal Service", "operator:short": "USPS", "operator:type": "public", "operator:wikidata": "Q668687", "ref": "9840200000"}, "type": "Feature"}
{"dataset_attributes": {"@spider": "usps_collection_boxes", "spider:collection_time": "2023-09-07T08:24:46.282741"}, "geometry": {"coordinates": [-122.4379226168, 47.253404557], "type": "Point"}, "id": "qBHIb8QQ17aLad7XLgTTavlqmPc=", "properties": {"@spider": "usps_collection_boxes", "addr:city": "TACOMA", "addr:country": "US", "addr:full": "1102 COURT A", "addr:postcode": "98402", "addr:state": "WA", "amenity": "post_box", "brand": "United States Postal Service", "brand:wikidata": "Q668687", "collection_times": "Mo-Fr 17:00; Sa 14:30", "name": "USPS COLLECTION BOX - BLUE BOX", "note": "ON 12/24 AND 12/31, THIS BOX MAY BE COLLECTED AS EARLY AS 12 NOON.", "nsi_id": "unitedstatespostalservice-a77078", "operator": "United States Postal Service", "operator:short": "USPS", "operator:type": "public", "operator:wikidata": "Q668687", "ref": "9840200001"}, "type": "Feature"}
{"dataset_attributes": {"@spider": "usps_collection_boxes", "spider:collection_time": "2023-09-07T08:24:46.282741"}, "geometry": {"coordinates": [-122.433957, 47.236273], "type": "Point"}, "id": "0S6CDbNe0zllb5Yt8BYtZnTAk28=", "properties": {"@spider": "usps_collection_boxes", "addr:city": "TACOMA", "addr:country": "US", "addr:full": "106 S 28TH ST", "addr:postcode": "98402", "addr:state": "WA", "amenity": "post_box", "brand": "United States Postal Service", "brand:wikidata": "Q668687", "collection_times": "Mo-Fr 14:00; Sa 11:15", "name": "USPS COLLECTION BOX - BLUE BOX", "note": "ON 12/24 AND 12/31, THIS BOX MAY BE COLLECTED AS EARLY AS 12 NOON.", "nsi_id": "unitedstatespostalservice-a77078", "operator": "United States Postal Service", "operator:short": "USPS", "operator:type": "public", "operator:wikidata": "Q668687", "ref": "9840200004"}, "type": "Feature"}
{"dataset_attributes": {"@spider": "usps_collection_boxes", "spider:collection_time": "2023-09-07T08:24:46.282741"}, "geometry": {"coordinates": [-122.439526, 47.250991], "type": "Point"}, "id": "xXxYHgyrgLh5zBFY5YAFDPPJC1A=", "properties": {"@spider": "usps_collection_boxes", "addr:city": "TACOMA", "addr:country": "US", "addr:full": "1300 BROADWAY", "addr:postcode": "98402", "addr:state": "WA", "amenity": "post_box", "brand": "United States Postal Service", "brand:wikidata": "Q668687", "collection_times": "Mo-Sa 16:00", "name": "USPS COLLECTION BOX - BLUE BOX", "note": "ON 12/24 AND 12/31, THIS BOX MAY BE COLLECTED AS EARLY AS 12 NOON.", "nsi_id": "unitedstatespostalservice-a77078", "operator": "United States Postal Service", "operator:short": "USPS", "operator:type": "public", "operator:wikidata": "Q668687", "ref": "9840200009"}, "type": "Feature"}
{"dataset_attributes": {"@spider": "usps_collection_boxes", "spider:collection_time": "2023-09-07T08:24:46.282741"}, "geometry": {"coordinates": [-122.4392219482, 47.2563827973], "type": "Point"}, "id": "ANssR-jIyR9GYwYHgFKYKlnmNtw=", "properties": {"@spider": "usps_collection_boxes", "addr:city": "TACOMA", "addr:country": "US", "addr:full": "731 PACIFIC AVE", "addr:postcode": "98402", "addr:state": "WA", "amenity": "post_box", "brand": "United States Postal Service", "brand:wikidata": "Q668687", "collection_times": "Mo-Sa 09:30", "name": "USPS COLLECTION BOX - BLUE BOX", "nsi_id": "unitedstatespostalservice-a77078", "operator": "United States Postal Service", "operator:short": "USPS", "operator:type": "public", "operator:wikidata": "Q668687", "ref": "9840200011"}, "type": "Feature"}
{"dataset_attributes": {"@spider": "usps_collection_boxes", "spider:collection_time": "2023-09-07T08:24:46.282741"}, "geometry": {"coordinates": [-122.443193, 47.253978], "type": "Point"}, "id": "90xIJ6EWRDEmjsM8SyMof-43wwc=", "properties": {"@spider": "usps_collection_boxes", "addr:city": "TACOMA", "addr:country": "US", "addr:full": "919 FAWCETT AVE", "addr:postcode": "98402", "addr:state": "WA", "amenity": "post_box", "brand": "United States Postal Service", "brand:wikidata": "Q668687", "collection_times": "Mo-Sa 11:30", "name": "USPS COLLECTION BOX - BLUE BOX", "nsi_id": "unitedstatespostalservice-a77078", "operator": "United States Postal Service", "operator:short": "USPS", "operator:type": "public", "operator:wikidata": "Q668687", "ref": "9840200013"}, "type": "Feature"}
{"dataset_attributes": {"@spider": "usps_collection_boxes", "spider:collection_time": "2023-09-07T08:24:46.282741"}, "geometry": {"coordinates": [-122.442193, 47.255667], "type": "Point"}, "id": "zKHXpkYRYb3JOfJq8YuTYN_cEIg=", "properties": {"@spider": "usps_collection_boxes", "addr:city": "TACOMA", "addr:country": "US", "addr:full": "744 MARKET ST", "addr:postcode": "98402", "addr:state": "WA", "amenity": "post_box", "brand": "United States Postal Service", "brand:wikidata": "Q668687", "collection_times": "Mo-Fr 15:45; Sa 14:00", "name": "USPS COLLECTION BOX - BLUE BOX", "note": "ON 12/24 AND 12/31, THIS BOX MAY BE COLLECTED AS EARLY AS 12 NOON.", "nsi_id": "unitedstatespostalservice-a77078", "operator": "United States Postal Service", "operator:short": "USPS", "operator:type": "public", "operator:wikidata": "Q668687", "ref": "9840200016"}, "type": "Feature"}
{"dataset_attributes": {"@spider": "usps_collection_boxes", "spider:collection_time": "2023-09-07T08:24:46.282741"}, "geometry": {"coordinates": [-122.435798, 47.236892], "type": "Point"}, "id": "w1DaLsd8HxrF8ywtveZbC4iQOUc=", "properties": {"@spider": "usps_collection_boxes", "addr:city": "TACOMA", "addr:country": "US", "addr:full": "220 S 27TH ST", "addr:postcode": "98402", "addr:state": "WA", "amenity": "post_box", "brand": "United States Postal Service", "brand:wikidata": "Q668687", "collection_times": "Mo-Sa 09:30", "name": "USPS COLLECTION BOX - BLUE BOX", "nsi_id": "unitedstatespostalservice-a77078", "operator": "United States Postal Service", "operator:short": "USPS", "operator:type": "public", "operator:wikidata": "Q668687", "ref": "9840200018"}, "type": "Feature"}
{"dataset_attributes": {"@spider": "usps_collection_boxes", "spider:collection_time": "2023-09-07T08:24:46.282741"}, "geometry": {"coordinates": [-122.4439226173, 47.2507031048], "type": "Point"}, "id": "s455iklfIMKyrdAejYTTfSceG9A=", "properties": {"@spider": "usps_collection_boxes", "addr:city": "TACOMA", "addr:country": "US", "addr:full": "1301 TACOMA AVE S", "addr:postcode": "98402", "addr:state": "WA", "amenity": "post_box", "brand": "United States Postal Service", "brand:wikidata": "Q668687", "collection_times": "Mo-Fr 12:00; Sa 11:30", "name": "USPS COLLECTION BOX - BLUE BOX", "nsi_id": "unitedstatespostalservice-a77078", "operator": "United States Postal Service", "operator:short": "USPS", "operator:type": "public", "operator:wikidata": "Q668687", "ref": "9840200033"}, "type": "Feature"}
{"dataset_attributes": {"@spider": "usps_collection_boxes", "spider:collection_time": "2023-09-07T08:24:46.282741"}, "geometry": {"coordinates": [-122.43852, 47.252642], "type": "Point"}, "id": "HohfRkNVOOg3G-hd7MURU04AZBw=", "properties": {"@spider": "usps_collection_boxes", "addr:city": "TACOMA", "addr:country": "US", "addr:full": "1119 PACIFIC AVE", "addr:postcode": "98402", "addr:state": "WA", "amenity": "post_box", "brand": "United States Postal Service", "brand:wikidata": "Q668687", "collection_times": "Mo-Sa 10:00", "name": "USPS COLLECTION BOX - BLUE BOX", "nsi_id": "unitedstatespostalservice-a77078", "operator": "United States Postal Service", "operator:short": "USPS", "operator:type": "public", "operator:wikidata": "Q668687", "ref": "9840200076"}, "type": "Feature"}
{"dataset_attributes": {"@spider": "usps_collection_boxes", "spider:collection_time": "2023-09-07T08:24:46.282741"}, "geometry": {"coordinates": [-122.4388, 47.253746], "type": "Point"}, "id": "F5ccgtmqdWIdyLNVDXaGbTuBye8=", "properties": {"@spider": "usps_collection_boxes", "addr:city": "TACOMA", "addr:country": "US", "addr:full": "1013 PACIFIC AVE", "addr:postcode": "98402", "addr:state": "WA", "amenity": "post_box", "brand": "United States Postal Service", "brand:wikidata": "Q668687", "collection_times": "Mo-Fr 15:45; Sa 15:15", "name": "USPS COLLECTION BOX - BLUE BOX", "note": "ON 12/24 AND 12/31, THIS BOX MAY BE COLLECTED AS EARLY AS 12 NOON.", "nsi_id": "unitedstatespostalservice-a77078", "operator": "United States Postal Service", "operator:short": "USPS", "operator:type": "public", "operator:wikidata": "Q668687", "ref": "9840200078"}, "type": "Feature"}
{"dataset_attributes": {"@spider": "usps_collection_boxes", "spider:collection_time": "2023-09-07T08:24:46.282741"}, "geometry": {"coordinates": [-122.439004, 47.254754], "type": "Point"}, "id": "m_ab9zgUEqaDKCn7MsZVnVB49mA=", "properties": {"@spider": "usps_collection_boxes", "addr:city": "TACOMA", "addr:country": "US", "addr:full": "917 PACIFIC AVE", "addr:postcode": "98402", "addr:state": "WA", "amenity": "post_box", "brand": "United States Postal Service", "brand:wikidata": "Q668687", "collection_times": "Mo-Fr 14:15; Sa 15:15", "name": "USPS COLLECTION BOX - BLUE BOX", "note": "ON 12/24 AND 12/31, THIS BOX MAY BE COLLECTED AS EARLY AS 12 NOON.", "nsi_id": "unitedstatespostalservice-a77078", "operator": "United States Postal Service", "operator:short": "USPS", "operator:type": "public", "operator:wikidata": "Q668687", "ref": "9840200080"}, "type": "Feature"}
{"dataset_attributes": {"@spider": "usps_collection_boxes", "spider:collection_time": "2023-09-07T08:24:46.282741"}, "geometry": {"coordinates": [-122.439222032, 47.2563827553], "type": "Point"}, "id": "QNTX67XKad7nnF9Eb-UzPzG-wPs=", "properties": {"@spider": "usps_collection_boxes", "addr:city": "TACOMA", "addr:country": "US", "addr:full": "731 PACIFIC AVE", "addr:postcode": "98402", "addr:state": "WA", "amenity": "post_box", "brand": "United States Postal Service", "brand:wikidata": "Q668687", "collection_times": "Mo-Sa 09:30", "name": "USPS COLLECTION BOX - BLUE BOX", "nsi_id": "unitedstatespostalservice-a77078", "operator": "United States Postal Service", "operator:short": "USPS", "operator:type": "public", "operator:wikidata": "Q668687", "ref": "9840200081"}, "type": "Feature"}
{"dataset_attributes": {"@spider": "usps_collection_boxes", "spider:collection_time": "2023-09-07T08:24:46.282741"}, "geometry": {"coordinates": [-122.4398070026, 47.2535279986], "type": "Point"}, "id": "8xzOUkWCORk-0cvkiVP2HdUhemc=", "properties": {"@spider": "usps_collection_boxes", "addr:city": "TACOMA", "addr:country": "US", "addr:full": "955 BROADWAY", "addr:postcode": "98402", "addr:state": "WA", "amenity": "post_box", "brand": "United States Postal Service", "brand:wikidata": "Q668687", "collection_times": "Mo-Fr 15:30; Sa 16:00", "name": "USPS COLLECTION BOX - BLUE BOX", "note": "ON 12/24 AND 12/31, THIS BOX MAY BE COLLECTED AS EARLY AS 12 NOON.", "nsi_id": "unitedstatespostalservice-a77078", "operator": "United States Postal Service", "operator:short": "USPS", "operator:type": "public", "operator:wikidata": "Q668687", "ref": "9840200087"}, "type": "Feature"}
{"dataset_attributes": {"@spider": "usps_collection_boxes", "spider:collection_time": "2023-09-07T08:24:46.282741"}, "geometry": {"coordinates": [-122.440199, 47.253472], "type": "Point"}, "id": "PwKNy69HtAe6r7uY3E3tsZ9ErCk=", "properties": {"@spider": "usps_collection_boxes", "addr:city": "TACOMA", "addr:country": "US", "addr:full": "955 BROADWAY", "addr:postcode": "98402", "addr:state": "WA", "amenity": "post_box", "brand": "United States Postal Service", "brand:wikidata": "Q668687", "collection_times": "Mo-Fr 15:30; Sa 16:00", "name": "USPS COLLECTION BOX - BLUE BOX", "note": "ON 12/24 AND 12/31, THIS BOX MAY BE COLLECTED AS EARLY AS 12 NOON.", "nsi_id": "unitedstatespostalservice-a77078", "operator": "United States Postal Service", "operator:short": "USPS", "operator:type": "public", "operator:wikidata": "Q668687", "ref": "9840200088"}, "type": "Feature"}
{"dataset_attributes": {"@spider": "usps_collection_boxes", "spider:collection_time": "2023-09-07T08:24:46.282741"}, "geometry": {"coordinates": [-122.439729, 47.248497], "type": "Point"}, "id": "A6k8xDB03reLTVl2EnHDGmxXNRk=", "properties": {"@spider": "usps_collection_boxes", "addr:city": "TACOMA", "addr:country": "US", "addr:full": "1501 MARKET ST", "addr:postcode": "98402", "addr:state": "WA", "amenity": "post_box", "brand": "United States Postal Service", "brand:wikidata": "Q668687", "collection_times": "Mo-Sa 16:00", "name": "USPS COLLECTION BOX - BLUE BOX", "note": "ON 12/24 AND 12/31, THIS BOX MAY BE COLLECTED AS EARLY AS 12 NOON.", "nsi_id": "unitedstatespostalservice-a77078", "operator": "United States Postal Service", "operator:short": "USPS", "operator:type": "public", "operator:wikidata": "Q668687", "ref": "9840200090"}, "type": "Feature"}
{"dataset_attributes": {"@spider": "usps_collection_boxes", "spider:collection_time": "2023-09-07T08:24:46.282741"}, "geometry": {"coordinates": [-122.438382, 47.25572], "type": "Point"}, "id": "Hs_9ed0RXePp1f1bCUV6NQiuzhs=", "properties": {"@spider": "usps_collection_boxes", "addr:city": "TACOMA", "addr:country": "US", "addr:full": "821 COURT A", "addr:postcode": "98402", "addr:state": "WA", "amenity": "post_box", "brand": "United States Postal Service", "brand:wikidata": "Q668687", "collection_times": "Mo-Fr 17:00; Sa 15:30", "name": "USPS COLLECTION BOX - BLUE BOX", "note": "ON 12/24 AND 12/31, THIS BOX MAY BE COLLECTED AS EARLY AS 12 NOON.", "nsi_id": "unitedstatespostalservice-a77078", "operator": "United States Postal Service", "operator:short": "USPS", "operator:type": "public", "operator:wikidata": "Q668687", "ref": "9840200091"}, "type": "Feature"}
{"dataset_attributes": {"@spider": "usps_collection_boxes", "spider:collection_time": "2023-09-07T08:24:46.282741"}, "geometry": {"coordinates": [-122.438448, 47.252908], "type": "Point"}, "id": "cBM_sPOxe7pQvsR9wfRu73R7jkU=", "properties": {"@spider": "usps_collection_boxes", "addr:city": "TACOMA", "addr:country": "US", "addr:full": "1114 PACIFIC AVE", "addr:postcode": "98402", "addr:state": "WA", "amenity": "post_box", "brand": "United States Postal Service", "brand:wikidata": "Q668687", "collection_times": "Mo-Fr 16:30; Sa 14:15", "name": "USPS COLLECTION BOX - BLUE BOX", "note": "ON 12/24 AND 12/31, THIS BOX MAY BE COLLECTED AS EARLY AS 12 NOON.", "nsi_id": "unitedstatespostalservice-a77078", "operator": "United States Postal Service", "operator:short": "USPS", "operator:type": "public", "operator:wikidata": "Q668687", "ref": "9840200097"}, "type": "Feature"}
{"dataset_attributes": {"@spider": "usps_collection_boxes", "spider:collection_time": "2023-09-07T08:24:46.282741"}, "geometry": {"coordinates": [-122.444428, 47.253165], "type": "Point"}, "id": "5eabuXZOgwfpKbxPsxTxvAkbH2o=", "properties": {"@spider": "usps_collection_boxes", "addr:city": "TACOMA", "addr:country": "US", "addr:full": "955 TACOMA AVE S", "addr:postcode": "98402", "addr:state": "WA", "amenity": "post_box", "brand": "United States Postal Service", "brand:wikidata": "Q668687", "collection_times": "Mo-Fr 15:45; Sa 15:00", "name": "USPS COLLECTION BOX - BLUE BOX", "note": "ON 12/24 AND 12/31, THIS BOX MAY BE COLLECTED AS EARLY AS 12 NOON.", "nsi_id": "unitedstatespostalservice-a77078", "operator": "United States Postal Service", "operator:short": "USPS", "operator:type": "public", "operator:wikidata": "Q668687", "ref": "9840200100"}, "type": "Feature"}
{"dataset_attributes": {"@spider": "usps_collection_boxes", "spider:collection_time": "2023-09-07T08:24:46.282741"}, "geometry": {"coordinates": [-122.439298, 47.249473], "type": "Point"}, "id": "CXcnrFEVr8DG8pJQYgNWKL9d5kc=", "properties": {"@spider": "usps_collection_boxes", "addr:city": "TACOMA", "addr:country": "US", "addr:full": "1331 BROADWAY", "addr:postcode": "98402", "addr:state": "WA", "amenity": "post_box", "brand": "United States Postal Service", "brand:wikidata": "Q668687", "collection_times": "Mo-Sa 10:00", "name": "USPS COLLECTION BOX - BLUE BOX", "nsi_id": "unitedstatespostalservice-a77078", "operator": "United States Postal Service", "operator:short": "USPS", "operator:type": "public", "operator:wikidata": "Q668687", "ref": "9840200102"}, "type": "Feature"}
{"dataset_attributes": {"@spider": "usps_collection_boxes", "spider:collection_time": "2023-09-07T08:24:46.282741"}, "geometry": {"coordinates": [-122.4375049967, 47.2530040039], "type": "Point"}, "id": "k_VGR2bgFQxibmmKarsk58rBKgo=", "properties": {"@spider": "usps_collection_boxes", "addr:city": "TACOMA", "addr:country": "US", "addr:full": "1102 A ST", "addr:postcode": "98402", "addr:state": "WA", "amenity": "post_box", "brand": "United States Postal Service", "brand:wikidata": "Q668687", "collection_times": "Mo-Fr 17:00; Sa 14:30", "name": "USPS COLLECTION BOX - BLUE BOX", "note": "ON 12/24 AND 12/31, THIS BOX MAY BE COLLECTED AS EARLY AS 12 NOON.", "nsi_id": "unitedstatespostalservice-a77078", "operator": "United States Postal Service", "operator:short": "USPS", "operator:type": "public", "operator:wikidata": "Q668687", "ref": "9840200103"}, "type": "Feature"}
{"dataset_attributes": {"@spider": "usps_collection_boxes", "spider:collection_time": "2023-09-07T08:24:46.282741"}, "geometry": {"coordinates": [-122.4375049967, 47.2530040039], "type": "Point"}, "id": "foyfcpWzirDzkmxb-o5eBl8OZtE=", "properties": {"@spider": "usps_collection_boxes", "addr:city": "TACOMA", "addr:country": "US", "addr:full": "1102 A ST", "addr:postcode": "98402", "addr:state": "WA", "amenity": "post_box", "brand": "United States Postal Service", "brand:wikidata": "Q668687", "collection_times": "Mo-Fr 17:00; Sa 14:30", "name": "USPS COLLECTION BOX - BLUE BOX", "note": "ON 12/24 AND 12/31, THIS BOX MAY BE COLLECTED AS EARLY AS 12 NOON.", "nsi_id": "unitedstatespostalservice-a77078", "operator": "United States Postal Service", "operator:short": "USPS", "operator:type": "public", "operator:wikidata": "Q668687", "ref": "9840200104"}, "type": "Feature"}
{"dataset_attributes": {"@spider": "usps_collection_boxes", "spider:collection_time": "2023-09-07T08:24:46.282741"}, "geometry": {"coordinates": [-122.437659, 47.249067], "type": "Point"}, "id": "bpnZQJtxwiJZx6eRpu5jkgOo670=", "properties": {"@spider": "usps_collection_boxes", "addr:city": "TACOMA", "addr:country": "US", "addr:full": "1501 PACIFIC AVE", "addr:postcode": "98402", "addr:state": "WA", "amenity": "post_box", "brand": "United States Postal Service", "brand:wikidata": "Q668687", "collection_times": "Mo-Fr 14:15; Sa 15:15", "name": "USPS COLLECTION BOX - BLUE BOX", "note": "ON 12/24 AND 12/31, THIS BOX MAY BE COLLECTED AS EARLY AS 12 NOON.", "nsi_id": "unitedstatespostalservice-a77078", "operator": "United States Postal Service", "operator:short": "USPS", "operator:type": "public", "operator:wikidata": "Q668687", "ref": "9840200105"}, "type": "Feature"}
{"dataset_attributes": {"@spider": "usps_collection_boxes", "spider:collection_time": "2023-09-07T08:24:46.282741"}, "geometry": {"coordinates": [-122.446071, 47.26292], "type": "Point"}, "id": "DMigpvSH20omOQQeQ_GO1gbKs9Q=", "properties": {"@spider": "usps_collection_boxes", "addr:city": "TACOMA", "addr:country": "US", "addr:full": "45 ST HELENS AVE", "addr:postcode": "98402", "addr:state": "WA", "amenity": "post_box", "brand": "United States Postal Service", "brand:wikidata": "Q668687", "collection_times": "Mo-Sa 09:30", "name": "USPS COLLECTION BOX - BLUE BOX", "nsi_id": "unitedstatespostalservice-a77078", "operator": "United States Postal Service", "operator:short": "USPS", "operator:type": "public", "operator:wikidata": "Q668687", "ref": "9840200106"}, "type": "Feature"}
{"dataset_attributes": {"@spider": "usps_collection_boxes", "spider:collection_time": "2023-09-07T08:24:46.282741"}, "geometry": {"coordinates": [-122.502458041, 47.296881004], "type": "Point"}, "id": "gpwOr0vwTsPTAmReBHq0sQIF2Ws=", "properties": {"@spider": "usps_collection_boxes", "addr:city": "TACOMA", "addr:country": "US", "addr:full": "4970 MAIN ST", "addr:postcode": "98402", "addr:state": "WA", "amenity": "post_box", "brand": "United States Postal Service", "brand:wikidata": "Q668687", "collection_times": "Mo-Sa 12:00", "name": "USPS COLLECTION BOX - BLUE BOX", "nsi_id": "unitedstatespostalservice-a77078", "operator": "United States Postal Service", "operator:short": "USPS", "operator:type": "public", "operator:wikidata": "Q668687", "ref": "9840200107"}, "type": "Feature"}
{"dataset_attributes": {"@spider": "usps_collection_boxes", "spider:collection_time": "2023-09-07T08:24:46.282741"}, "geometry": {"coordinates": [-122.4384819914, 47.2599609835], "type": "Point"}, "id": "ft1KR4cOxElRaUp-hIcMhKJ38Go=", "properties": {"@spider": "usps_collection_boxes", "addr:city": "TACOMA", "addr:country": "US", "addr:full": "535 DOCK ST", "addr:postcode": "98402", "addr:state": "WA", "amenity": "post_box", "brand": "United States Postal Service", "brand:wikidata": "Q668687", "collection_times": "Mo-Sa 11:00", "name": "USPS COLLECTION BOX - BLUE BOX", "nsi_id": "unitedstatespostalservice-a77078", "operator": "United States Postal Service", "operator:short": "USPS", "operator:type": "public", "operator:wikidata": "Q668687", "ref": "9840200119"}, "type": "Feature"}
{"dataset_attributes": {"@spider": "usps_collection_boxes", "spider:collection_time": "2023-09-07T08:24:46.282741"}, "geometry": {"coordinates": [-122.443089095, 47.2532976778], "type": "Point"}, "id": "A_W1abEBwf6pM7AqCYkgSQnkJfs=", "properties": {"@spider": "usps_collection_boxes", "addr:city": "TACOMA", "addr:country": "US", "addr:full": "950 FAWCETT AVE", "addr:postcode": "98402", "addr:state": "WA", "amenity": "post_box", "brand": "United States Postal Service", "brand:wikidata": "Q668687", "collection_times": "Mo-Sa 11:30", "name": "USPS COLLECTION BOX - BLUE BOX", "nsi_id": "unitedstatespostalservice-a77078", "operator": "United States Postal Service", "operator:short": "USPS", "operator:type": "public", "operator:wikidata": "Q668687", "ref": "9840200120"}, "type": "Feature"}
{"dataset_attributes": {"@spider": "usps_collection_boxes", "spider:collection_time": "2023-09-07T08:24:46.282741"}, "geometry": {"coordinates": [-122.479997, 47.221832], "type": "Point"}, "id": "s9tjsfe4qf-ojsKWq4F6E-2h3i4=", "properties": {"@spider": "usps_collection_boxes", "addr:city": "TACOMA", "addr:country": "US", "addr:full": "1102 A ST", "addr:postcode": "98402", "addr:state": "WA", "amenity": "post_box", "brand": "United States Postal Service", "brand:wikidata": "Q668687", "collection_times": "Mo-Fr 17:00; Sa 15:30", "name": "USPS COLLECTION BOX - PO LOBBY", "note": "ON 12/24 AND 12/31, THIS BOX MAY BE COLLECTED AS EARLY AS 12 NOON.", "nsi_id": "unitedstatespostalservice-a77078", "operator": "United States Postal Service", "operator:short": "USPS", "operator:type": "public", "operator:wikidata": "Q668687", "ref": "9840200122"}, "type": "Feature"}
{"dataset_attributes": {"@spider": "usps_collection_boxes", "spider:collection_time": "2023-09-07T08:24:46.282741"}, "geometry": {"coordinates": [-122.437118386, 47.25300029], "type": "Point"}, "id": "v8IzkrlJ4HZZcrH7oLu-TdJzy8A=", "properties": {"@spider": "usps_collection_boxes", "addr:city": "TACOMA", "addr:country": "US", "addr:full": "1102 A ST", "addr:postcode": "98402", "addr:state": "WA", "amenity": "post_box", "brand": "United States Postal Service", "brand:wikidata": "Q668687", "collection_times": "Mo-Fr 17:00", "name": "USPS COLLECTION BOX - PO LOBBY", "note": "ON 12/24 AND 12/31, THIS BOX MAY BE COLLECTED AS EARLY AS 12 NOON.", "nsi_id": "unitedstatespostalservice-a77078", "operator": "United States Postal Service", "operator:short": "USPS", "operator:type": "public", "operator:wikidata": "Q668687", "ref": "9840200125"}, "type": "Feature"}
{"dataset_attributes": {"@spider": "usps_collection_boxes", "spider:collection_time": "2023-09-07T08:24:46.282741"}, "geometry": {"coordinates": [-122.448730443, 47.2647074546], "type": "Point"}, "id": "z55bwGjvuWU-6tTZoCnAqr0_mdY=", "properties": {"@spider": "usps_collection_boxes", "addr:city": "TACOMA", "addr:country": "US", "addr:full": "101 N TACOMA AVE", "addr:postcode": "98403", "addr:state": "WA", "amenity": "post_box", "brand": "United States Postal Service", "brand:wikidata": "Q668687", "collection_times": "Mo-Fr 17:15; Sa 13:45", "name": "USPS COLLECTION BOX - BLUE BOX", "note": "ON 12/24 AND 12/31, THIS BOX MAY BE COLLECTED AS EARLY AS 12 NOON.", "nsi_id": "unitedstatespostalservice-a77078", "operator": "United States Postal Service", "operator:short": "USPS", "operator:type": "public", "operator:wikidata": "Q668687", "ref": "9840300003"}, "type": "Feature"}
{"dataset_attributes": {"@spider": "usps_collection_boxes", "spider:collection_time": "2023-09-07T08:24:46.282741"}, "geometry": {"coordinates": [-122.463241, 47.263947], "type": "Point"}, "id": "VMFkg5rGTox0zJtQYOGZA6_DSOY=", "properties": {"@spider": "usps_collection_boxes", "addr:city": "TACOMA", "addr:country": "US", "addr:full": "911 N K ST", "addr:postcode": "98403", "addr:state": "WA", "amenity": "post_box", "brand": "United States Postal Service", "brand:wikidata": "Q668687", "collection_times": "Mo-Fr 12:30; Sa 11:30", "name": "USPS COLLECTION BOX - BLUE BOX", "note": "ON 12/24 AND 12/31, THIS BOX MAY BE COLLECTED AS EARLY AS 12 NOON.", "nsi_id": "unitedstatespostalservice-a77078", "operator": "United States Postal Service", "operator:short": "USPS", "operator:type": "public", "operator:wikidata": "Q668687", "ref": "9840300006"}, "type": "Feature"}
{"dataset_attributes": {"@spider": "usps_collection_boxes", "spider:collection_time": "2023-09-07T08:24:46.282741"}, "geometry": {"coordinates": [-122.458914976, 47.262211986], "type": "Point"}, "id": "N4u1tTIAg4KtA-p0vwsiibQMgRo=", "properties": {"@spider": "usps_collection_boxes", "addr:city": "TACOMA", "addr:country": "US", "addr:full": "602 N K ST", "addr:postcode": "98403", "addr:state": "WA", "amenity": "post_box", "brand": "United States Postal Service", "brand:wikidata": "Q668687", "collection_times": "Mo-Fr 12:30; Sa 11:30", "name": "USPS COLLECTION BOX - BLUE BOX", "note": "ON 12/24 AND 12/31, THIS BOX MAY BE COLLECTED AS EARLY AS 12 NOON.", "nsi_id": "unitedstatespostalservice-a77078", "operator": "United States Postal Service", "operator:short": "USPS", "operator:type": "public", "operator:wikidata": "Q668687", "ref": "9840300007"}, "type": "Feature"}
{"dataset_attributes": {"@spider": "usps_collection_boxes", "spider:collection_time": "2023-09-07T08:24:46.282741"}, "geometry": {"coordinates": [-122.452747, 47.266103], "type": "Point"}, "id": "M7USd1knrI2u5J-MgyLyg_SK7VU=", "properties": {"@spider": "usps_collection_boxes", "addr:city": "TACOMA", "addr:country": "US", "addr:full": "401 N TACOMA AVE", "addr:postcode": "98403", "addr:state": "WA", "amenity": "post_box", "brand": "United States Postal Service", "brand:wikidata": "Q668687", "collection_times": "Mo-Sa 09:30", "name": "USPS COLLECTION BOX - BLUE BOX", "nsi_id": "unitedstatespostalservice-a77078", "operator": "United States Postal Service", "operator:short": "USPS", "operator:type": "public", "operator:wikidata": "Q668687", "ref": "9840300010"}, "type": "Feature"}
{"dataset_attributes": {"@spider": "usps_collection_boxes", "spider:collection_time": "2023-09-07T08:24:46.282741"}, "geometry": {"coordinates": [-122.462139, 47.269141], "type": "Point"}, "id": "h6Zd5wXHPzLyHlxxTs7KhKZdUfs=", "properties": {"@spider": "usps_collection_boxes", "addr:city": "TACOMA", "addr:country": "US", "addr:full": "1033 N TACOMA AVE", "addr:postcode": "98403", "addr:state": "WA", "amenity": "post_box", "brand": "United States Postal Service", "brand:wikidata": "Q668687", "collection_times": "Mo-Sa 10:00", "name": "USPS COLLECTION BOX - BLUE BOX", "nsi_id": "unitedstatespostalservice-a77078", "operator": "United States Postal Service", "operator:short": "USPS", "operator:type": "public", "operator:wikidata": "Q668687", "ref": "9840300011"}, "type": "Feature"}
{"dataset_attributes": {"@spider": "usps_collection_boxes", "spider:collection_time": "2023-09-07T08:24:46.282741"}, "geometry": {"coordinates": [-122.467194295, 47.255355621], "type": "Point"}, "id": "z6BDvwgvCwZ9IAGSJiRLfVcCvz8=", "properties": {"@spider": "usps_collection_boxes", "addr:city": "TACOMA", "addr:country": "US", "addr:full": "2300 6TH AVE", "addr:postcode": "98403", "addr:state": "WA", "amenity": "post_box", "brand": "United States Postal Service", "brand:wikidata": "Q668687", "collection_times": "Mo-Sa 12:00", "name": "USPS COLLECTION BOX - BLUE BOX", "nsi_id": "unitedstatespostalservice-a77078", "operator": "United States Postal Service", "operator:short": "USPS", "operator:type": "public", "operator:wikidata": "Q668687", "ref": "9840300016"}, "type": "Feature"}
{"dataset_attributes": {"@spider": "usps_collection_boxes", "spider:collection_time": "2023-09-07T08:24:46.282741"}, "geometry": {"coordinates": [-122.410528, 47.190371], "type": "Point"}, "id": "FrfLsHhKnL1wg2o4iRk91r8zkWs=", "properties": {"@spider": "usps_collection_boxes", "addr:city": "TACOMA", "addr:country": "US", "addr:full": "1314 E 72ND ST", "addr:postcode": "98404", "addr:state": "WA", "amenity": "post_box", "brand": "United States Postal Service", "brand:wikidata": "Q668687", "collection_times": "Mo-Sa 11:00", "name": "USPS COLLECTION BOX - BLUE BOX", "nsi_id": "unitedstatespostalservice-a77078", "operator": "United States Postal Service", "operator:short": "USPS", "operator:type": "public", "operator:wikidata": "Q668687", "ref": "9840400006"}, "type": "Feature"}
{"dataset_attributes": {"@spider": "usps_collection_boxes", "spider:collection_time": "2023-09-07T08:24:46.282741"}, "geometry": {"coordinates": [-122.420872, 47.230631], "type": "Point"}, "id": "eHLECbjzkVyMAyxSBGR67glqMuc=", "properties": {"@spider": "usps_collection_boxes", "addr:city": "TACOMA", "addr:country": "US", "addr:full": "3419 MCKINLEY AVE", "addr:postcode": "98404", "addr:state": "WA", "amenity": "post_box", "brand": "United States Postal Service", "brand:wikidata": "Q668687", "collection_times": "Mo-Sa 09:00", "name": "USPS COLLECTION BOX - BLUE BOX", "nsi_id": "unitedstatespostalservice-a77078", "operator": "United States Postal Service", "operator:short": "USPS", "operator:type": "public", "operator:wikidata": "Q668687", "ref": "9840400012"}, "type": "Feature"}
{"dataset_attributes": {"@spider": "usps_collection_boxes", "spider:collection_time": "2023-09-07T08:24:46.282741"}, "geometry": {"coordinates": [-122.420756, 47.20716], "type": "Point"}, "id": "D-1d7XTsLTtWY6GbNl2Dda0-C0w=", "properties": {"@spider": "usps_collection_boxes", "addr:city": "TACOMA", "addr:country": "US", "addr:full": "5500 MCKINLEY AVE", "addr:postcode": "98404", "addr:state": "WA", "amenity": "post_box", "brand": "United States Postal Service", "brand:wikidata": "Q668687", "collection_times": "Mo-Sa 12:00", "name": "USPS COLLECTION BOX - BLUE BOX", "nsi_id": "unitedstatespostalservice-a77078", "operator": "United States Postal Service", "operator:short": "USPS", "operator:type": "public", "operator:wikidata": "Q668687", "ref": "9840400015"}, "type": "Feature"}
{"dataset_attributes": {"@spider": "usps_collection_boxes", "spider:collection_time": "2023-09-07T08:24:46.282741"}, "geometry": {"coordinates": [-122.410865, 47.193042], "type": "Point"}, "id": "wuiXy5lWp8QGUT02pemndD63OJY=", "properties": {"@spider": "usps_collection_boxes", "addr:city": "TACOMA", "addr:country": "US", "addr:full": "1301 E 72ND ST", "addr:postcode": "98404", "addr:state": "WA", "amenity": "post_box", "brand": "United States Postal Service", "brand:wikidata": "Q668687", "collection_times": "Mo-Sa 12:00", "name": "USPS COLLECTION BOX - BLUE BOX", "nsi_id": "unitedstatespostalservice-a77078", "operator": "United States Postal Service", "operator:short": "USPS", "operator:type": "public", "operator:wikidata": "Q668687", "ref": "9840400022"}, "type": "Feature"}
{"dataset_attributes": {"@spider": "usps_collection_boxes", "spider:collection_time": "2023-09-07T08:24:46.282741"}, "geometry": {"coordinates": [-122.3890921047, 47.1922568068], "type": "Point"}, "id": "2xrwWSRd7dT5yJINAf3eIeSXzdY=", "properties": {"@spider": "usps_collection_boxes", "addr:city": "TACOMA", "addr:country": "US", "addr:full": "7121 WALLER RD E", "addr:postcode": "98404", "addr:state": "WA", "amenity": "post_box", "brand": "United States Postal Service", "brand:wikidata": "Q668687", "collection_times": "Mo-Fr 14:00; Sa 12:30", "name": "USPS COLLECTION BOX - BLUE BOX", "note": "ON 12/24 AND 12/31, THIS BOX MAY BE COLLECTED AS EARLY AS 12 NOON.", "nsi_id": "unitedstatespostalservice-a77078", "operator": "United States Postal Service", "operator:short": "USPS", "operator:type": "public", "operator:wikidata": "Q668687", "ref": "9840400027"}, "type": "Feature"}
{"dataset_attributes": {"@spider": "usps_collection_boxes", "spider:collection_time": "2023-09-07T08:24:46.282741"}, "geometry": {"coordinates": [-122.461656, 47.256162], "type": "Point"}, "id": "5MQ2sZUg_XOp_8ZAuzdhkKc2MBM=", "properties": {"@spider": "usps_collection_boxes", "addr:city": "TACOMA", "addr:country": "US", "addr:full": "1702 6TH AVE", "addr:postcode": "98405", "addr:state": "WA", "amenity": "post_box", "brand": "United States Postal Service", "brand:wikidata": "Q668687", "collection_times": "Mo-Sa 09:00", "name": "USPS COLLECTION BOX - BLUE BOX", "nsi_id": "unitedstatespostalservice-a77078", "operator": "United States Postal Service", "operator:short": "USPS", "operator:type": "public", "operator:wikidata": "Q668687", "ref": "9840500003"}, "type": "Feature"}
{"dataset_attributes": {"@spider": "usps_collection_boxes", "spider:collection_time": "2023-09-07T08:24:46.282741"}, "geometry": {"coordinates": [-122.446309, 47.256504], "type": "Point"}, "id": "bOQ3d2_g-cRKv8B8GQlqE3aGR3k=", "properties": {"@spider": "usps_collection_boxes", "addr:city": "TACOMA", "addr:country": "US", "addr:full": "715 S G ST", "addr:postcode": "98405", "addr:state": "WA", "amenity": "post_box", "brand": "United States Postal Service", "brand:wikidata": "Q668687", "collection_times": "Mo-Fr 15:45; Sa 13:45", "name": "USPS COLLECTION BOX - BLUE BOX", "note": "ON 12/24 AND 12/31, THIS BOX MAY BE COLLECTED AS EARLY AS 12 NOON.", "nsi_id": "unitedstatespostalservice-a77078", "operator": "United States Postal Service", "operator:short": "USPS", "operator:type": "public", "operator:wikidata": "Q668687", "ref": "9840500004"}, "type": "Feature"}
{"dataset_attributes": {"@spider": "usps_collection_boxes", "spider:collection_time": "2023-09-07T08:24:46.282741"}, "geometry": {"coordinates": [-122.44878, 47.245746], "type": "Point"}, "id": "qAZr4o-hc73Q8lg_b5m0RMS4gbU=", "properties": {"@spider": "usps_collection_boxes", "addr:city": "TACOMA", "addr:country": "US", "addr:full": "1717 S J ST", "addr:postcode": "98405", "addr:state": "WA", "amenity": "post_box", "brand": "United States Postal Service", "brand:wikidata": "Q668687", "collection_times": "Mo-Fr 16:15; Sa 14:15", "name": "USPS COLLECTION BOX - BLUE BOX", "note": "ON 12/24 AND 12/31, THIS BOX MAY BE COLLECTED AS EARLY AS 12 NOON.", "nsi_id": "unitedstatespostalservice-a77078", "operator": "United States Postal Service", "operator:short": "USPS", "operator:type": "public", "operator:wikidata": "Q668687", "ref": "9840500011"}, "type": "Feature"}
{"dataset_attributes": {"@spider": "usps_collection_boxes", "spider:collection_time": "2023-09-07T08:24:46.282741"}, "geometry": {"coordinates": [-122.4545960326, 47.2565039933], "type": "Point"}, "id": "BmxhJZtH2PieOTKGLK_E2C8tqtw=", "properties": {"@spider": "usps_collection_boxes", "addr:city": "TACOMA", "addr:country": "US", "addr:full": "1210 6TH AVE", "addr:postcode": "98405", "addr:state": "WA", "amenity": "post_box", "brand": "United States Postal Service", "brand:wikidata": "Q668687", "collection_times": "Mo-Fr 16:30; Sa 15:45", "name": "USPS COLLECTION BOX - BLUE BOX", "note": "ON 12/24 AND 12/31, THIS BOX MAY BE COLLECTED AS EARLY AS 12 NOON.", "nsi_id": "unitedstatespostalservice-a77078", "operator": "United States Postal Service", "operator:short": "USPS", "operator:type": "public", "operator:wikidata": "Q668687", "ref": "9840500013"}, "type": "Feature"}
{"dataset_attributes": {"@spider": "usps_collection_boxes", "spider:collection_time": "2023-09-07T08:24:46.282741"}, "geometry": {"coordinates": [-122.4523415514, 47.2547936261], "type": "Point"}, "id": "SahZgqqbXhP0srgVBsKZ5dooVSA=", "properties": {"@spider": "usps_collection_boxes", "addr:city": "TACOMA", "addr:country": "US", "addr:full": "805 MARTIN LUTHER KING JR WAY", "addr:postcode": "98405", "addr:state": "WA", "amenity": "post_box", "brand": "United States Postal Service", "brand:wikidata": "Q668687", "collection_times": "Mo-Sa 10:00", "name": "USPS COLLECTION BOX - BLUE BOX", "nsi_id": "unitedstatespostalservice-a77078", "operator": "United States Postal Service", "operator:short": "USPS", "operator:type": "public", "operator:wikidata": "Q668687", "ref": "9840500014"}, "type": "Feature"}
{"dataset_attributes": {"@spider": "usps_collection_boxes", "spider:collection_time": "2023-09-07T08:24:46.282741"}, "geometry": {"coordinates": [-122.453694, 47.251716], "type": "Point"}, "id": "OEe-eVGYmQLP__f1t9JYcbE5P7Q=", "properties": {"@spider": "usps_collection_boxes", "addr:city": "TACOMA", "addr:country": "US", "addr:full": "1210 S 11TH ST", "addr:postcode": "98405", "addr:state": "WA", "amenity": "post_box", "brand": "United States Postal Service", "brand:wikidata": "Q668687", "collection_times": "Mo-Sa 10:00", "name": "USPS COLLECTION BOX - BLUE BOX", "nsi_id": "unitedstatespostalservice-a77078", "operator": "United States Postal Service", "operator:short": "USPS", "operator:type": "public", "operator:wikidata": "Q668687", "ref": "9840500018"}, "type": "Feature"}
{"dataset_attributes": {"@spider": "usps_collection_boxes", "spider:collection_time": "2023-09-07T08:24:46.282741"}, "geometry": {"coordinates": [-122.4796870083, 47.2386870008], "type": "Point"}, "id": "fwN2oAEUhlMPugQIuoqz4VR_kRo=", "properties": {"@spider": "usps_collection_boxes", "addr:city": "TACOMA", "addr:country": "US", "addr:full": "3315 S 23RD ST", "addr:postcode": "98405", "addr:state": "WA", "amenity": "post_box", "brand": "United States Postal Service", "brand:wikidata": "Q668687", "collection_times": "Mo-Sa 13:00", "name": "USPS COLLECTION BOX - BLUE BOX", "note": "ON 12/24 AND 12/31, THIS BOX MAY BE COLLECTED AS EARLY AS 12 NOON.", "nsi_id": "unitedstatespostalservice-a77078", "operator": "United States Postal Service", "operator:short": "USPS", "operator:type": "public", "operator:wikidata": "Q668687", "ref": "9840500030"}, "type": "Feature"}
{"dataset_attributes": {"@spider": "usps_collection_boxes", "spider:collection_time": "2023-09-07T08:24:46.282741"}, "geometry": {"coordinates": [-122.4819141372, 47.2378143775], "type": "Point"}, "id": "zkUWJj_WYtTbZoeBlDbGu5mfWI8=", "properties": {"@spider": "usps_collection_boxes", "addr:city": "TACOMA", "addr:country": "US", "addr:full": "2420 S UNION AVE", "addr:postcode": "98405", "addr:state": "WA", "amenity": "post_box", "brand": "United States Postal Service", "brand:wikidata": "Q668687", "collection_times": "Mo-Sa 12:00", "name": "USPS COLLECTION BOX - BLUE BOX", "nsi_id": "unitedstatespostalservice-a77078", "operator": "United States Postal Service", "operator:short": "USPS", "operator:type": "public", "operator:wikidata": "Q668687", "ref": "9840500031"}, "type": "Feature"}
{"dataset_attributes": {"@spider": "usps_collection_boxes", "spider:collection_time": "2023-09-07T08:24:46.282741"}, "geometry": {"coordinates": [-122.4494496948, 47.2488473511], "type": "Point"}, "id": "CtBgp7paqyCRqMHRJts1hLasMqU=", "properties": {"@spider": "usps_collection_boxes", "addr:city": "TACOMA", "addr:country": "US", "addr:full": "1421 S J ST", "addr:postcode": "98405", "addr:state": "WA", "amenity": "post_box", "brand": "United States Postal Service", "brand:wikidata": "Q668687", "collection_times": "Mo-Sa 12:00", "name": "USPS COLLECTION BOX - BLUE BOX", "nsi_id": "unitedstatespostalservice-a77078", "operator": "United States Postal Service", "operator:short": "USPS", "operator:type": "public", "operator:wikidata": "Q668687", "ref": "9840500037"}, "type": "Feature"}
{"dataset_attributes": {"@spider": "usps_collection_boxes", "spider:collection_time": "2023-09-07T08:24:46.282741"}, "geometry": {"coordinates": [-122.447017, 47.250189], "type": "Point"}, "id": "Rs6YTH5rlBNz6IR8m3fFwjEeAYg=", "properties": {"@spider": "usps_collection_boxes", "addr:city": "TACOMA", "addr:country": "US", "addr:full": "1302 YAKIMA AVE", "addr:postcode": "98405", "addr:state": "WA", "amenity": "post_box", "brand": "United States Postal Service", "brand:wikidata": "Q668687", "collection_times": "Mo-Fr 15:15; Sa 14:45", "name": "USPS COLLECTION BOX - BLUE BOX", "note": "ON 12/24 AND 12/31, THIS BOX MAY BE COLLECTED AS EARLY AS 12 NOON.", "nsi_id": "unitedstatespostalservice-a77078", "operator": "United States Postal Service", "operator:short": "USPS", "operator:type": "public", "operator:wikidata": "Q668687", "ref": "9840500041"}, "type": "Feature"}
{"dataset_attributes": {"@spider": "usps_collection_boxes", "spider:collection_time": "2023-09-07T08:24:46.282741"}, "geometry": {"coordinates": [-122.454695, 47.259136], "type": "Point"}, "id": "z_4VXZLYH8HQJZZJSoi1FAfs4x8=", "properties": {"@spider": "usps_collection_boxes", "addr:city": "TACOMA", "addr:country": "US", "addr:full": "311 S L ST", "addr:postcode": "98405", "addr:state": "WA", "amenity": "post_box", "brand": "United States Postal Service", "brand:wikidata": "Q668687", "collection_times": "Mo-Sa 10:00", "name": "USPS COLLECTION BOX - BLUE BOX", "nsi_id": "unitedstatespostalservice-a77078", "operator": "United States Postal Service", "operator:short": "USPS", "operator:type": "public", "operator:wikidata": "Q668687", "ref": "9840500043"}, "type": "Feature"}
{"dataset_attributes": {"@spider": "usps_collection_boxes", "spider:collection_time": "2023-09-07T08:24:46.282741"}, "geometry": {"coordinates": [-122.446444, 47.244969], "type": "Point"}, "id": "qVfW3-enGHcC-fHJ6MsmrMAlfn4=", "properties": {"@spider": "usps_collection_boxes", "addr:city": "TACOMA", "addr:country": "US", "addr:full": "1802 YAKIMA AVE", "addr:postcode": "98405", "addr:state": "WA", "amenity": "post_box", "brand": "United States Postal Service", "brand:wikidata": "Q668687", "collection_times": "Mo-Fr 16:15; Sa 14:15", "name": "USPS COLLECTION BOX - BLUE BOX", "note": "ON 12/24 AND 12/31, THIS BOX MAY BE COLLECTED AS EARLY AS 12 NOON.", "nsi_id": "unitedstatespostalservice-a77078", "operator": "United States Postal Service", "operator:short": "USPS", "operator:type": "public", "operator:wikidata": "Q668687", "ref": "9840500050"}, "type": "Feature"}
{"dataset_attributes": {"@spider": "usps_collection_boxes", "spider:collection_time": "2023-09-07T08:24:46.282741"}, "geometry": {"coordinates": [-122.475584, 47.242358], "type": "Point"}, "id": "-vSmytb92LEYXNA6VI8U_vNr-cU=", "properties": {"@spider": "usps_collection_boxes", "addr:city": "TACOMA", "addr:country": "US", "addr:full": "1901 S CEDAR ST", "addr:postcode": "98405", "addr:state": "WA", "amenity": "post_box", "brand": "United States Postal Service", "brand:wikidata": "Q668687", "collection_times": "Mo-Sa 11:00", "name": "USPS COLLECTION BOX - BLUE BOX", "nsi_id": "unitedstatespostalservice-a77078", "operator": "United States Postal Service", "operator:short": "USPS", "operator:type": "public", "operator:wikidata": "Q668687", "ref": "9840500052"}, "type": "Feature"}
{"dataset_attributes": {"@spider": "usps_collection_boxes", "spider:collection_time": "2023-09-07T08:24:46.282741"}, "geometry": {"coordinates": [-122.4513512626, 47.2502230203], "type": "Point"}, "id": "TMgdbLoouy2upEkI23a8cIE74bc=", "properties": {"@spider": "usps_collection_boxes", "addr:city": "TACOMA", "addr:country": "US", "addr:full": "1220 MARTIN LUTHER KING JR WAY", "addr:postcode": "98405", "addr:state": "WA", "amenity": "post_box", "brand": "United States Postal Service", "brand:wikidata": "Q668687", "collection_times": "Mo-Fr 16:30; Sa 14:30", "name": "USPS COLLECTION BOX - BLUE BOX", "note": "ON 12/24 AND 12/31, THIS BOX MAY BE COLLECTED AS EARLY AS 12 NOON.", "nsi_id": "unitedstatespostalservice-a77078", "operator": "United States Postal Service", "operator:short": "USPS", "operator:type": "public", "operator:wikidata": "Q668687", "ref": "9840500053"}, "type": "Feature"}
{"dataset_attributes": {"@spider": "usps_collection_boxes", "spider:collection_time": "2023-09-07T08:24:46.282741"}, "geometry": {"coordinates": [-122.451348, 47.25023], "type": "Point"}, "id": "2N7pL-pxh94J86Smo0fI_r5eehE=", "properties": {"@spider": "usps_collection_boxes", "addr:city": "TACOMA", "addr:country": "US", "addr:full": "1220 MARTIN LUTHER KING JR WAY", "addr:postcode": "98405", "addr:state": "WA", "amenity": "post_box", "brand": "United States Postal Service", "brand:wikidata": "Q668687", "collection_times": "Mo-Fr 16:00; Sa 09:30", "name": "USPS COLLECTION BOX - PO LOBBY", "note": "ON 12/24 AND 12/31, THIS BOX MAY BE COLLECTED AS EARLY AS 12 NOON.", "nsi_id": "unitedstatespostalservice-a77078", "operator": "United States Postal Service", "operator:short": "USPS", "operator:type": "public", "operator:wikidata": "Q668687", "ref": "9840500055"}, "type": "Feature"}
{"dataset_attributes": {"@spider": "usps_collection_boxes", "spider:collection_time": "2023-09-07T08:24:46.282741"}, "geometry": {"coordinates": [-122.480648999, 47.24162402], "type": "Point"}, "id": "1ib9xCK6Kep-YCHG5Uja6EnDlHM=", "properties": {"@spider": "usps_collection_boxes", "addr:city": "TACOMA", "addr:country": "US", "addr:full": "1901 S UNION AVE", "addr:postcode": "98405", "addr:state": "WA", "amenity": "post_box", "brand": "United States Postal Service", "brand:wikidata": "Q668687", "collection_times": "Mo-Sa 11:00", "name": "USPS COLLECTION BOX - BLUE BOX", "nsi_id": "unitedstatespostalservice-a77078", "operator": "United States Postal Service", "operator:short": "USPS", "operator:type": "public", "operator:wikidata": "Q668687", "ref": "9840500069"}, "type": "Feature"}
{"dataset_attributes": {"@spider": "usps_collection_boxes", "spider:collection_time": "2023-09-07T08:24:46.282741"}, "geometry": {"coordinates": [-122.451351263, 47.25022302], "type": "Point"}, "id": "vuWQnzCsF_O7e-lGeGv4dqeBACc=", "properties": {"@spider": "usps_collection_boxes", "addr:city": "TACOMA", "addr:country": "US", "addr:full": "1220 MARTIN LUTHER KING JR WAY", "addr:postcode": "98405", "addr:state": "WA", "amenity": "post_box", "brand": "United States Postal Service", "brand:wikidata": "Q668687", "collection_times": "Mo-Fr 16:00", "name": "USPS COLLECTION BOX - PO LOBBY", "note": "ON 12/24 AND 12/31, THIS BOX MAY BE COLLECTED AS EARLY AS 12 NOON.", "nsi_id": "unitedstatespostalservice-a77078", "operator": "United States Postal Service", "operator:short": "USPS", "operator:type": "public", "operator:wikidata": "Q668687", "ref": "9840500070"}, "type": "Feature"}
{"dataset_attributes": {"@spider": "usps_collection_boxes", "spider:collection_time": "2023-09-07T08:24:46.282741"}, "geometry": {"coordinates": [-122.478924, 47.263602], "type": "Point"}, "id": "udbp1_lVCAlqjUlbh-RSJRFeON4=", "properties": {"@spider": "usps_collection_boxes", "addr:city": "TACOMA", "addr:country": "US", "addr:full": "1500 N LAWRENCE ST", "addr:postcode": "98406", "addr:state": "WA", "amenity": "post_box", "brand": "United States Postal Service", "brand:wikidata": "Q668687", "collection_times": "Mo-Fr 14:30; Sa 13:00", "name": "USPS COLLECTION BOX - BLUE BOX", "note": "ON 12/24 AND 12/31, THIS BOX MAY BE COLLECTED AS EARLY AS 12 NOON.", "nsi_id": "unitedstatespostalservice-a77078", "operator": "United States Postal Service", "operator:short": "USPS", "operator:type": "public", "operator:wikidata": "Q668687", "ref": "9840600005"}, "type": "Feature"}
{"dataset_attributes": {"@spider": "usps_collection_boxes", "spider:collection_time": "2023-09-07T08:24:46.282741"}, "geometry": {"coordinates": [-122.5200389989, 47.2565329947], "type": "Point"}, "id": "dQdZyrrBj44mOquLzurMdRAZUcA=", "properties": {"@spider": "usps_collection_boxes", "addr:city": "TACOMA", "addr:country": "US", "addr:full": "6201 6TH AVE", "addr:postcode": "98406", "addr:state": "WA", "amenity": "post_box", "brand": "United States Postal Service", "brand:wikidata": "Q668687", "collection_times": "Mo-Fr 12:30; Sa 11:30", "name": "USPS COLLECTION BOX - BLUE BOX", "note": "ON 12/24 AND 12/31, THIS BOX MAY BE COLLECTED AS EARLY AS 12 NOON.", "nsi_id": "unitedstatespostalservice-a77078", "operator": "United States Postal Service", "operator:short": "USPS", "operator:type": "public", "operator:wikidata": "Q668687", "ref": "9840600009"}, "type": "Feature"}
{"dataset_attributes": {"@spider": "usps_collection_boxes", "spider:collection_time": "2023-09-07T08:24:46.282741"}, "geometry": {"coordinates": [-122.519159, 47.259212], "type": "Point"}, "id": "T0CA9vRGdSxMEc_gx8zEw1kfN_I=", "properties": {"@spider": "usps_collection_boxes", "addr:city": "TACOMA", "addr:country": "US", "addr:full": "922 N PEARL ST", "addr:postcode": "98406", "addr:state": "WA", "amenity": "post_box", "brand": "United States Postal Service", "brand:wikidata": "Q668687", "collection_times": "Mo-Fr 13:15; Sa 12:00", "name": "USPS COLLECTION BOX - BLUE BOX", "note": "ON 12/24 AND 12/31, THIS BOX MAY BE COLLECTED AS EARLY AS 12 NOON.", "nsi_id": "unitedstatespostalservice-a77078", "operator": "United States Postal Service", "operator:short": "USPS", "operator:type": "public", "operator:wikidata": "Q668687", "ref": "9840600013"}, "type": "Feature"}
{"dataset_attributes": {"@spider": "usps_collection_boxes", "spider:collection_time": "2023-09-07T08:24:46.282741"}, "geometry": {"coordinates": [-122.489024, 47.26093], "type": "Point"}, "id": "pZuUQ1IQulXkoWi7l_vlLKtsvyY=", "properties": {"@spider": "usps_collection_boxes", "addr:city": "TACOMA", "addr:country": "US", "addr:full": "1202 N PROCTOR ST", "addr:postcode": "98406", "addr:state": "WA", "amenity": "post_box", "brand": "United States Postal Service", "brand:wikidata": "Q668687", "collection_times": "Mo-Fr 13:00; Sa 11:45", "name": "USPS COLLECTION BOX - BLUE BOX", "note": "ON 12/24 AND 12/31, THIS BOX MAY BE COLLECTED AS EARLY AS 12 NOON.", "nsi_id": "unitedstatespostalservice-a77078", "operator": "United States Postal Service", "operator:short": "USPS", "operator:type": "public", "operator:wikidata": "Q668687", "ref": "9840600017"}, "type": "Feature"}
{"dataset_attributes": {"@spider": "usps_collection_boxes", "spider:collection_time": "2023-09-07T08:24:46.282741"}, "geometry": {"coordinates": [-122.488773, 47.270962], "type": "Point"}, "id": "ovJH3sun6gz3sVEYZDcszTOD6pw=", "properties": {"@spider": "usps_collection_boxes", "addr:city": "TACOMA", "addr:country": "US", "addr:full": "2525 N PROCTOR ST", "addr:postcode": "98406", "addr:state": "WA", "amenity": "post_box", "brand": "United States Postal Service", "brand:wikidata": "Q668687", "collection_times": "Mo-Sa 10:30", "name": "USPS COLLECTION BOX - BLUE BOX", "nsi_id": "unitedstatespostalservice-a77078", "operator": "United States Postal Service", "operator:short": "USPS", "operator:type": "public", "operator:wikidata": "Q668687", "ref": "9840600020"}, "type": "Feature"}
{"dataset_attributes": {"@spider": "usps_collection_boxes", "spider:collection_time": "2023-09-07T08:24:46.282741"}, "geometry": {"coordinates": [-122.496326, 47.261854], "type": "Point"}, "id": "v7qo8FCdoICAd1mYXFVr3wqdYyU=", "properties": {"@spider": "usps_collection_boxes", "addr:city": "TACOMA", "addr:country": "US", "addr:full": "1302 N STEVENS ST", "addr:postcode": "98406", "addr:state": "WA", "amenity": "post_box", "brand": "United States Postal Service", "brand:wikidata": "Q668687", "collection_times": "Mo-Sa 10:00", "name": "USPS COLLECTION BOX - BLUE BOX", "nsi_id": "unitedstatespostalservice-a77078", "operator": "United States Postal Service", "operator:short": "USPS", "operator:type": "public", "operator:wikidata": "Q668687", "ref": "9840600022"}, "type": "Feature"}
{"dataset_attributes": {"@spider": "usps_collection_boxes", "spider:collection_time": "2023-09-07T08:24:46.282741"}, "geometry": {"coordinates": [-122.514484, 47.269304], "type": "Point"}, "id": "PbcPZYoqPPm5tl3xVafWKUrZOsA=", "properties": {"@spider": "usps_collection_boxes", "addr:city": "TACOMA", "addr:country": "US", "addr:full": "2315 N PEARL ST", "addr:postcode": "98406", "addr:state": "WA", "amenity": "post_box", "brand": "United States Postal Service", "brand:wikidata": "Q668687", "collection_times": "Mo-Sa 11:00", "name": "USPS COLLECTION BOX - BLUE BOX", "nsi_id": "unitedstatespostalservice-a77078", "operator": "United States Postal Service", "operator:short": "USPS", "operator:type": "public", "operator:wikidata": "Q668687", "ref": "9840600025"}, "type": "Feature"}
{"dataset_attributes": {"@spider": "usps_collection_boxes", "spider:collection_time": "2023-09-07T08:24:46.282741"}, "geometry": {"coordinates": [-122.485019, 47.25538], "type": "Point"}, "id": "4z-mjb2PJUNHyO2eoegNp5ypAu4=", "properties": {"@spider": "usps_collection_boxes", "addr:city": "TACOMA", "addr:country": "US", "addr:full": "3607 6TH AVE", "addr:postcode": "98406", "addr:state": "WA", "amenity": "post_box", "brand": "United States Postal Service", "brand:wikidata": "Q668687", "collection_times": "Mo-Fr 12:15; Sa 11:15", "name": "USPS COLLECTION BOX - BLUE BOX", "note": "ON 12/24 AND 12/31, THIS BOX MAY BE COLLECTED AS EARLY AS 12 NOON.", "nsi_id": "unitedstatespostalservice-a77078", "operator": "United States Postal Service", "operator:short": "USPS", "operator:type": "public", "operator:wikidata": "Q668687", "ref": "9840600030"}, "type": "Feature"}
{"dataset_attributes": {"@spider": "usps_collection_boxes", "spider:collection_time": "2023-09-07T08:24:46.282741"}, "geometry": {"coordinates": [-122.532414041, 47.255362001], "type": "Point"}, "id": "2GzD1LJZXuhuCOSZJUbdeIcIOto=", "properties": {"@spider": "usps_collection_boxes", "addr:city": "TACOMA", "addr:country": "US", "addr:full": "7124 6TH AVE", "addr:postcode": "98406", "addr:state": "WA", "amenity": "post_box", "brand": "United States Postal Service", "brand:wikidata": "Q668687", "collection_times": "Mo-Sa 10:30", "name": "USPS COLLECTION BOX - BLUE BOX", "nsi_id": "unitedstatespostalservice-a77078", "operator": "United States Postal Service", "operator:short": "USPS", "operator:type": "public", "operator:wikidata": "Q668687", "ref": "9840600032"}, "type": "Feature"}
{"dataset_attributes": {"@spider": "usps_collection_boxes", "spider:collection_time": "2023-09-07T08:24:46.282741"}, "geometry": {"coordinates": [-122.517132, 47.267733], "type": "Point"}, "id": "BJf7yKLSiRdzbDCagwedYljQ_1k=", "properties": {"@spider": "usps_collection_boxes", "addr:city": "TACOMA", "addr:country": "US", "addr:full": "2102 N PEARL ST", "addr:postcode": "98406", "addr:state": "WA", "amenity": "post_box", "brand": "United States Postal Service", "brand:wikidata": "Q668687", "collection_times": "Mo-Fr 16:30; Sa 15:15", "name": "USPS COLLECTION BOX - BLUE BOX", "note": "ON 12/24 AND 12/31, THIS BOX MAY BE COLLECTED AS EARLY AS 12 NOON.", "nsi_id": "unitedstatespostalservice-a77078", "operator": "United States Postal Service", "operator:short": "USPS", "operator:type": "public", "operator:wikidata": "Q668687", "ref": "9840600034"}, "type": "Feature"}
{"dataset_attributes": {"@spider": "usps_collection_boxes", "spider:collection_time": "2023-09-07T08:24:46.282741"}, "geometry": {"coordinates": [-122.515682, 47.266688], "type": "Point"}, "id": "LSHHz6d7hS0Xk0mwPXMn-l3glI8=", "properties": {"@spider": "usps_collection_boxes", "addr:city": "TACOMA", "addr:country": "US", "addr:full": "1919 N PEARL ST", "addr:postcode": "98406", "addr:state": "WA", "amenity": "post_box", "brand": "United States Postal Service", "brand:wikidata": "Q668687", "collection_times": "Mo-Fr 16:30; Sa 15:15", "name": "USPS COLLECTION BOX - BLUE BOX", "note": "ON 12/24 AND 12/31, THIS BOX MAY BE COLLECTED AS EARLY AS 12 NOON.", "nsi_id": "unitedstatespostalservice-a77078", "operator": "United States Postal Service", "operator:short": "USPS", "operator:type": "public", "operator:wikidata": "Q668687", "ref": "9840600036"}, "type": "Feature"}
{"dataset_attributes": {"@spider": "usps_collection_boxes", "spider:collection_time": "2023-09-07T08:24:46.282741"}, "geometry": {"coordinates": [-122.475113, 47.255213], "type": "Point"}, "id": "dB4wMiT2hL_k3Qst8sUFwW1yW5I=", "properties": {"@spider": "usps_collection_boxes", "addr:city": "TACOMA", "addr:country": "US", "addr:full": "3002 6TH AVE", "addr:postcode": "98406", "addr:state": "WA", "amenity": "post_box", "brand": "United States Postal Service", "brand:wikidata": "Q668687", "collection_times": "Mo-Fr 12:15; Sa 15:15", "name": "USPS COLLECTION BOX - BLUE BOX", "note": "ON 12/24 AND 12/31, THIS BOX MAY BE COLLECTED AS EARLY AS 12 NOON.", "nsi_id": "unitedstatespostalservice-a77078", "operator": "United States Postal Service", "operator:short": "USPS", "operator:type": "public", "operator:wikidata": "Q668687", "ref": "9840600037"}, "type": "Feature"}
{"dataset_attributes": {"@spider": "usps_collection_boxes", "spider:collection_time": "2023-09-07T08:24:46.282741"}, "geometry": {"coordinates": [-122.511654168, 47.26545954], "type": "Point"}, "id": "w_lxrYj3IHhWY6U9TGNWzVdATAw=", "properties": {"@spider": "usps_collection_boxes", "addr:city": "TACOMA", "addr:country": "US", "addr:full": "5518 N 18TH ST", "addr:postcode": "98406", "addr:state": "WA", "amenity": "post_box", "brand": "United States Postal Service", "brand:wikidata": "Q668687", "collection_times": "Mo-Sa 10:00", "name": "USPS COLLECTION BOX - BLUE BOX", "nsi_id": "unitedstatespostalservice-a77078", "operator": "United States Postal Service", "operator:short": "USPS", "operator:type": "public", "operator:wikidata": "Q668687", "ref": "9840600044"}, "type": "Feature"}
{"dataset_attributes": {"@spider": "usps_collection_boxes", "spider:collection_time": "2023-09-07T08:24:46.282741"}, "geometry": {"coordinates": [-122.477594, 47.271163], "type": "Point"}, "id": "sGLaltAC_6DMHwHslV4vlIRchkM=", "properties": {"@spider": "usps_collection_boxes", "addr:city": "RUSTON", "addr:country": "US", "addr:full": "2601 N ALDER ST", "addr:postcode": "98407", "addr:state": "WA", "amenity": "post_box", "brand": "United States Postal Service", "brand:wikidata": "Q668687", "collection_times": "Mo-Sa 12:30", "name": "USPS COLLECTION BOX - BLUE BOX", "note": "ON 12/24 AND 12/31, THIS BOX MAY BE COLLECTED AS EARLY AS 12 NOON.", "nsi_id": "unitedstatespostalservice-a77078", "operator": "United States Postal Service", "operator:short": "USPS", "operator:type": "public", "operator:wikidata": "Q668687", "ref": "9840700002"}, "type": "Feature"}
{"dataset_attributes": {"@spider": "usps_collection_boxes", "spider:collection_time": "2023-09-07T08:24:46.282741"}, "geometry": {"coordinates": [-122.509131, 47.289738], "type": "Point"}, "id": "EFKCuNO8rmnqdWBSw_lhC2-g-io=", "properties": {"@spider": "usps_collection_boxes", "addr:city": "RUSTON", "addr:country": "US", "addr:full": "5324 N 45TH ST", "addr:postcode": "98407", "addr:state": "WA", "amenity": "post_box", "brand": "United States Postal Service", "brand:wikidata": "Q668687", "collection_times": "Mo-Sa 11:15", "name": "USPS COLLECTION BOX - BLUE BOX", "nsi_id": "unitedstatespostalservice-a77078", "operator": "United States Postal Service", "operator:short": "USPS", "operator:type": "public", "operator:wikidata": "Q668687", "ref": "9840700004"}, "type": "Feature"}
{"dataset_attributes": {"@spider": "usps_collection_boxes", "spider:collection_time": "2023-09-07T08:24:46.282741"}, "geometry": {"coordinates": [-122.498892, 47.2894475251], "type": "Point"}, "id": "r6XzUw-gWR7PWYpaXmlSab2Wx9g=", "properties": {"@spider": "usps_collection_boxes", "addr:city": "RUSTON", "addr:country": "US", "addr:full": "4602 N 45TH ST", "addr:postcode": "98407", "addr:state": "WA", "amenity": "post_box", "brand": "United States Postal Service", "brand:wikidata": "Q668687", "collection_times": "Mo-Sa 10:15", "name": "USPS COLLECTION BOX - BLUE BOX", "nsi_id": "unitedstatespostalservice-a77078", "operator": "United States Postal Service", "operator:short": "USPS", "operator:type": "public", "operator:wikidata": "Q668687", "ref": "9840700006"}, "type": "Feature"}
{"dataset_attributes": {"@spider": "usps_collection_boxes", "spider:collection_time": "2023-09-07T08:24:46.282741"}, "geometry": {"coordinates": [-122.5138115146, 47.275809586], "type": "Point"}, "id": "5axPiGiG6lFE_b6Qa83Bx1w-IwY=", "properties": {"@spider": "usps_collection_boxes", "addr:city": "RUSTON", "addr:country": "US", "addr:full": "3018 N HIGHLAND ST", "addr:postcode": "98407", "addr:state": "WA", "amenity": "post_box", "brand": "United States Postal Service", "brand:wikidata": "Q668687", "collection_times": "Mo-Sa 11:15", "name": "USPS COLLECTION BOX - BLUE BOX", "nsi_id": "unitedstatespostalservice-a77078", "operator": "United States Postal Service", "operator:short": "USPS", "operator:type": "public", "operator:wikidata": "Q668687", "ref": "9840700007"}, "type": "Feature"}
{"dataset_attributes": {"@spider": "usps_collection_boxes", "spider:collection_time": "2023-09-07T08:24:46.282741"}, "geometry": {"coordinates": [-122.5128375181, 47.2987875751], "type": "Point"}, "id": "1gUOI1t_iI-FqVzCgu_6h-oC4jY=", "properties": {"@spider": "usps_collection_boxes", "addr:city": "RUSTON", "addr:country": "US", "addr:full": "5117 N WINNIFRED ST", "addr:postcode": "98407", "addr:state": "WA", "amenity": "post_box", "brand": "United States Postal Service", "brand:wikidata": "Q668687", "collection_times": "Mo-Sa 10:45", "name": "USPS COLLECTION BOX - BLUE BOX", "nsi_id": "unitedstatespostalservice-a77078", "operator": "United States Postal Service", "operator:short": "USPS", "operator:type": "public", "operator:wikidata": "Q668687", "ref": "9840700012"}, "type": "Feature"}
{"dataset_attributes": {"@spider": "usps_collection_boxes", "spider:collection_time": "2023-09-07T08:24:46.282741"}, "geometry": {"coordinates": [-122.496056, 47.27468], "type": "Point"}, "id": "u3lpb_K9QnW7rcBMmHQKS3degUY=", "properties": {"@spider": "usps_collection_boxes", "addr:city": "RUSTON", "addr:country": "US", "addr:full": "2923 N STEVENS ST", "addr:postcode": "98407", "addr:state": "WA", "amenity": "post_box", "brand": "United States Postal Service", "brand:wikidata": "Q668687", "collection_times": "Mo-Sa 12:30", "name": "USPS COLLECTION BOX - BLUE BOX", "note": "ON 12/24 AND 12/31, THIS BOX MAY BE COLLECTED AS EARLY AS 12 NOON.", "nsi_id": "unitedstatespostalservice-a77078", "operator": "United States Postal Service", "operator:short": "USPS", "operator:type": "public", "operator:wikidata": "Q668687", "ref": "9840700017"}, "type": "Feature"}
{"dataset_attributes": {"@spider": "usps_collection_boxes", "spider:collection_time": "2023-09-07T08:24:46.282741"}, "geometry": {"coordinates": [-122.487607, 47.272236], "type": "Point"}, "id": "hL_Z3DR1NsZ9URlmZs4pkeELeH0=", "properties": {"@spider": "usps_collection_boxes", "addr:city": "RUSTON", "addr:country": "US", "addr:full": "3801 N 27TH ST", "addr:postcode": "98407", "addr:state": "WA", "amenity": "post_box", "brand": "United States Postal Service", "brand:wikidata": "Q668687", "collection_times": "Mo-Fr 18:00; Sa 15:00", "name": "USPS COLLECTION BOX - PO LOBBY", "note": "ON 12/24 AND 12/31, THIS BOX MAY BE COLLECTED AS EARLY AS 12 NOON.", "nsi_id": "unitedstatespostalservice-a77078", "operator": "United States Postal Service", "operator:short": "USPS", "operator:type": "public", "operator:wikidata": "Q668687", "ref": "9840700030"}, "type": "Feature"}
{"dataset_attributes": {"@spider": "usps_collection_boxes", "spider:collection_time": "2023-09-07T08:24:46.282741"}, "geometry": {"coordinates": [-122.514185, 47.273261], "type": "Point"}, "id": "5YjKphAWX2juxcYZYeU5l3BZob8=", "properties": {"@spider": "usps_collection_boxes", "addr:city": "RUSTON", "addr:country": "US", "addr:full": "2665 N PEARL ST", "addr:postcode": "98407", "addr:state": "WA", "amenity": "post_box", "brand": "United States Postal Service", "brand:wikidata": "Q668687", "collection_times": "Mo-Sa 12:00", "name": "USPS COLLECTION BOX - BLUE BOX", "nsi_id": "unitedstatespostalservice-a77078", "operator": "United States Postal Service", "operator:short": "USPS", "operator:type": "public", "operator:wikidata": "Q668687", "ref": "9840700031"}, "type": "Feature"}
{"dataset_attributes": {"@spider": "usps_collection_boxes", "spider:collection_time": "2023-09-07T08:24:46.282741"}, "geometry": {"coordinates": [-122.487660168, 47.272031453], "type": "Point"}, "id": "RrVEck9Cc21qlBGqC2G6QQHQF7I=", "properties": {"@spider": "usps_collection_boxes", "addr:city": "RUSTON", "addr:country": "US", "addr:full": "3801 N 27TH ST", "addr:postcode": "98407", "addr:state": "WA", "amenity": "post_box", "brand": "United States Postal Service", "brand:wikidata": "Q668687", "collection_times": "Mo-Fr 18:00; Sa 15:00", "name": "USPS COLLECTION BOX - PO LOBBY", "note": "ON 12/24 AND 12/31, THIS BOX MAY BE COLLECTED AS EARLY AS 12 NOON.", "nsi_id": "unitedstatespostalservice-a77078", "operator": "United States Postal Service", "operator:short": "USPS", "operator:type": "public", "operator:wikidata": "Q668687", "ref": "9840700034"}, "type": "Feature"}
{"dataset_attributes": {"@spider": "usps_collection_boxes", "spider:collection_time": "2023-09-07T08:24:46.282741"}, "geometry": {"coordinates": [-122.435353, 47.19136], "type": "Point"}, "id": "ghCBU6zNuT1YhO-7w4GCIlhsPy0=", "properties": {"@spider": "usps_collection_boxes", "addr:city": "TACOMA", "addr:country": "US", "addr:full": "7250 PACIFIC AVE", "addr:postcode": "98408", "addr:state": "WA", "amenity": "post_box", "brand": "United States Postal Service", "brand:wikidata": "Q668687", "collection_times": "Mo-Fr 14:30; Sa 14:45", "name": "USPS COLLECTION BOX - BLUE BOX", "note": "ON 12/24 AND 12/31, THIS BOX MAY BE COLLECTED AS EARLY AS 12 NOON.", "nsi_id": "unitedstatespostalservice-a77078", "operator": "United States Postal Service", "operator:short": "USPS", "operator:type": "public", "operator:wikidata": "Q668687", "ref": "9840800021"}, "type": "Feature"}
{"dataset_attributes": {"@spider": "usps_collection_boxes", "spider:collection_time": "2023-09-07T08:24:46.282741"}, "geometry": {"coordinates": [-122.444493, 47.198232], "type": "Point"}, "id": "Eh_pvq3GRrnNDDl5aqunQpl1i-c=", "properties": {"@spider": "usps_collection_boxes", "addr:city": "TACOMA", "addr:country": "US", "addr:full": "6414 YAKIMA AVE", "addr:postcode": "98408", "addr:state": "WA", "amenity": "post_box", "brand": "United States Postal Service", "brand:wikidata": "Q668687", "collection_times": "Mo-Sa 13:00", "name": "USPS COLLECTION BOX - BLUE BOX", "note": "ON 12/24 AND 12/31, THIS BOX MAY BE COLLECTED AS EARLY AS 12 NOON.", "nsi_id": "unitedstatespostalservice-a77078", "operator": "United States Postal Service", "operator:short": "USPS", "operator:type": "public", "operator:wikidata": "Q668687", "ref": "9840800030"}, "type": "Feature"}
{"dataset_attributes": {"@spider": "usps_collection_boxes", "spider:collection_time": "2023-09-07T08:24:46.282741"}, "geometry": {"coordinates": [-122.483568, 47.204577], "type": "Point"}, "id": "eTFc2_XQ2fFponCIjPc4Z7xQ_do=", "properties": {"@spider": "usps_collection_boxes", "addr:city": "TACOMA", "addr:country": "US", "addr:full": "5647 SOUTH TACOMA WAY", "addr:postcode": "98409", "addr:state": "WA", "amenity": "post_box", "brand": "United States Postal Service", "brand:wikidata": "Q668687", "collection_times": "Mo-Sa 10:00", "name": "USPS COLLECTION BOX - BLUE BOX", "nsi_id": "unitedstatespostalservice-a77078", "operator": "United States Postal Service", "operator:short": "USPS", "operator:type": "public", "operator:wikidata": "Q668687", "ref": "9840900023"}, "type": "Feature"}
{"dataset_attributes": {"@spider": "usps_collection_boxes", "spider:collection_time": "2023-09-07T08:24:46.282741"}, "geometry": {"coordinates": [-122.4680209916, 47.2291729959], "type": "Point"}, "id": "dcMEUUr43ErQwsQJNFqpoRVwXf0=", "properties": {"@spider": "usps_collection_boxes", "addr:city": "TACOMA", "addr:country": "US", "addr:full": "2401 S 35TH ST", "addr:postcode": "98409", "addr:state": "WA", "amenity": "post_box", "brand": "United States Postal Service", "brand:wikidata": "Q668687", "collection_times": "Mo-Sa 11:00", "name": "USPS COLLECTION BOX - BLUE BOX", "nsi_id": "unitedstatespostalservice-a77078", "operator": "United States Postal Service", "operator:short": "USPS", "operator:type": "public", "operator:wikidata": "Q668687", "ref": "9840900041"}, "type": "Feature"}
{"dataset_attributes": {"@spider": "usps_collection_boxes", "spider:collection_time": "2023-09-07T08:24:46.282741"}, "geometry": {"coordinates": [-122.4726310384, 47.2200140065], "type": "Point"}, "id": "5jfVXP-t4Y1V1XX0l1eKBAZCbIs=", "properties": {"@spider": "usps_collection_boxes", "addr:city": "TACOMA", "addr:country": "US", "addr:full": "4001 S PINE ST", "addr:postcode": "98409", "addr:state": "WA", "amenity": "post_box", "brand": "United States Postal Service", "brand:wikidata": "Q668687", "collection_times": "Mo-Fr 20:30; Sa 20:00", "name": "USPS COLLECTION BOX - BLUE BOX", "note": "ON 12/24 AND 12/31, THIS BOX MAY BE COLLECTED AS EARLY AS 12 NOON.", "nsi_id": "unitedstatespostalservice-a77078", "operator": "United States Postal Service", "operator:short": "USPS", "operator:type": "public", "operator:wikidata": "Q668687", "ref": "9840900056"}, "type": "Feature"}
{"dataset_attributes": {"@spider": "usps_collection_boxes", "spider:collection_time": "2023-09-07T08:24:46.282741"}, "geometry": {"coordinates": [-122.45275, 47.233754], "type": "Point"}, "id": "1lFmjmV2MufqEsBi8pmYMenczs8=", "properties": {"@spider": "usps_collection_boxes", "addr:city": "TACOMA", "addr:country": "US", "addr:full": "1414 CENTER ST", "addr:postcode": "98409", "addr:state": "WA", "amenity": "post_box", "brand": "United States Postal Service", "brand:wikidata": "Q668687", "collection_times": "Mo-Sa 12:00", "name": "USPS COLLECTION BOX - BLUE BOX", "nsi_id": "unitedstatespostalservice-a77078", "operator": "United States Postal Service", "operator:short": "USPS", "operator:type": "public", "operator:wikidata": "Q668687", "ref": "9840900062"}, "type": "Feature"}
{"dataset_attributes": {"@spider": "usps_collection_boxes", "spider:collection_time": "2023-09-07T08:24:46.282741"}, "geometry": {"coordinates": [-122.485652, 47.231163], "type": "Point"}, "id": "BOVWVJbL_buma7-xPMjWk1F9e7Q=", "properties": {"@spider": "usps_collection_boxes", "addr:city": "TACOMA", "addr:country": "US", "addr:full": "3720 CENTER ST", "addr:postcode": "98409", "addr:state": "WA", "amenity": "post_box", "brand": "United States Postal Service", "brand:wikidata": "Q668687", "collection_times": "Mo-Fr 10:30; Sa 11:45", "name": "USPS COLLECTION BOX - BLUE BOX", "nsi_id": "unitedstatespostalservice-a77078", "operator": "United States Postal Service", "operator:short": "USPS", "operator:type": "public", "operator:wikidata": "Q668687", "ref": "9840900065"}, "type": "Feature"}
{"dataset_attributes": {"@spider": "usps_collection_boxes", "spider:collection_time": "2023-09-07T08:24:46.282741"}, "geometry": {"coordinates": [-122.473588, 47.220456], "type": "Point"}, "id": "8OzL3NmNLh3GB1E18zxaDCKbHRw=", "properties": {"@spider": "usps_collection_boxes", "addr:city": "TACOMA", "addr:country": "US", "addr:full": "4001 S PINE ST", "addr:postcode": "98409", "addr:state": "WA", "amenity": "post_box", "brand": "United States Postal Service", "brand:wikidata": "Q668687", "collection_times": "Mo-Fr 18:30; Sa 15:00", "name": "USPS COLLECTION BOX - PO LOBBY", "note": "ON 12/24 AND 12/31, THIS BOX MAY BE COLLECTED AS EARLY AS 12 NOON.", "nsi_id": "unitedstatespostalservice-a77078", "operator": "United States Postal Service", "operator:short": "USPS", "operator:type": "public", "operator:wikidata": "Q668687", "ref": "9840900070"}, "type": "Feature"}
{"dataset_attributes": {"@spider": "usps_collection_boxes", "spider:collection_time": "2023-09-07T08:24:46.282741"}, "geometry": {"coordinates": [-122.482781, 47.206266], "type": "Point"}, "id": "6c0tlTA2_z8h6_WU_pUXjfexYfM=", "properties": {"@spider": "usps_collection_boxes", "addr:city": "TACOMA", "addr:country": "US", "addr:full": "3503 S 56TH ST", "addr:postcode": "98409", "addr:state": "WA", "amenity": "post_box", "brand": "United States Postal Service", "brand:wikidata": "Q668687", "collection_times": "Mo-Fr 15:00", "name": "USPS COLLECTION BOX - PO LOBBY", "note": "ON 12/24 AND 12/31, THIS BOX MAY BE COLLECTED AS EARLY AS 12 NOON.", "nsi_id": "unitedstatespostalservice-a77078", "operator": "United States Postal Service", "operator:short": "USPS", "operator:type": "public", "operator:wikidata": "Q668687", "ref": "9840900073"}, "type": "Feature"}
{"dataset_attributes": {"@spider": "usps_collection_boxes", "spider:collection_time": "2023-09-07T08:24:46.282741"}, "geometry": {"coordinates": [-122.4696500145, 47.2155599888], "type": "Point"}, "id": "EmKSN20Ig6w_AEqcr3GmgC4Xwqs=", "properties": {"@spider": "usps_collection_boxes", "addr:city": "TACOMA", "addr:country": "US", "addr:full": "4502 S STEELE ST", "addr:postcode": "98409", "addr:state": "WA", "amenity": "post_box", "brand": "United States Postal Service", "brand:wikidata": "Q668687", "collection_times": "Mo-Fr 15:00; Sa 16:15", "name": "USPS COLLECTION BOX - BLUE BOX", "note": "ON 12/24 AND 12/31, THIS BOX MAY BE COLLECTED AS EARLY AS 12 NOON.", "nsi_id": "unitedstatespostalservice-a77078", "operator": "United States Postal Service", "operator:short": "USPS", "operator:type": "public", "operator:wikidata": "Q668687", "ref": "9840900075"}, "type": "Feature"}
{"dataset_attributes": {"@spider": "usps_collection_boxes", "spider:collection_time": "2023-09-07T08:24:46.282741"}, "geometry": {"coordinates": [-122.4726310384, 47.2200140065], "type": "Point"}, "id": "VIFzOPUteyWm4zLKOdsQ7QtkuX0=", "properties": {"@spider": "usps_collection_boxes", "addr:city": "TACOMA", "addr:country": "US", "addr:full": "4001 S PINE ST", "addr:postcode": "98409", "addr:state": "WA", "amenity": "post_box", "brand": "United States Postal Service", "brand:wikidata": "Q668687", "collection_times": "Mo-Fr 18:30; Sa 15:00", "name": "USPS COLLECTION BOX - APC", "note": "ON 12/24 AND 12/31, THIS BOX MAY BE COLLECTED AS EARLY AS 12 NOON.", "nsi_id": "unitedstatespostalservice-a77078", "operator": "United States Postal Service", "operator:short": "USPS", "operator:type": "public", "operator:wikidata": "Q668687", "ref": "9840900083"}, "type": "Feature"}
{"dataset_attributes": {"@spider": "usps_collection_boxes", "spider:collection_time": "2023-09-07T08:24:46.282741"}, "geometry": {"coordinates": [-122.482782168, 47.206264515], "type": "Point"}, "id": "weUyYBqbkUI-D8Ub2YSKuwTo9JQ=", "properties": {"@spider": "usps_collection_boxes", "addr:city": "TACOMA", "addr:country": "US", "addr:full": "3503 S 56TH ST", "addr:postcode": "98409", "addr:state": "WA", "amenity": "post_box", "brand": "United States Postal Service", "brand:wikidata": "Q668687", "collection_times": "Mo-Fr 15:00", "name": "USPS COLLECTION BOX - PO LOBBY", "note": "ON 12/24 AND 12/31, THIS BOX MAY BE COLLECTED AS EARLY AS 12 NOON.", "nsi_id": "unitedstatespostalservice-a77078", "operator": "United States Postal Service", "operator:short": "USPS", "operator:type": "public", "operator:wikidata": "Q668687", "ref": "9840900088"}, "type": "Feature"}
{"dataset_attributes": {"@spider": "usps_collection_boxes", "spider:collection_time": "2023-09-07T08:24:46.282741"}, "geometry": {"coordinates": [-122.473593564, 47.220488749], "type": "Point"}, "id": "C3NOKhADxoTQJly99B5CstLREXo=", "properties": {"@spider": "usps_collection_boxes", "addr:city": "TACOMA", "addr:country": "US", "addr:full": "4001 S PINE ST", "addr:postcode": "98413", "addr:state": "WA", "amenity": "post_box", "brand": "United States Postal Service", "brand:wikidata": "Q668687", "collection_times": "Mo-Fr 19:00; Sa 15:00", "name": "USPS COLLECTION BOX - PO LOBBY", "note": "ON 12/24 AND 12/31, THIS BOX MAY BE COLLECTED AS EARLY AS 12 NOON.", "nsi_id": "unitedstatespostalservice-a77078", "operator": "United States Postal Service", "operator:short": "USPS", "operator:type": "public", "operator:wikidata": "Q668687", "ref": "9841300001"}, "type": "Feature"}
{"dataset_attributes": {"@spider": "usps_collection_boxes", "spider:collection_time": "2023-09-07T08:24:46.282741"}, "geometry": {"coordinates": [-122.44061, 47.224437], "type": "Point"}, "id": "3WsUMFaBgr2E_VeHmRcAi9ERH-k=", "properties": {"@spider": "usps_collection_boxes", "addr:city": "TACOMA", "addr:country": "US", "addr:full": "3705 S G ST", "addr:postcode": "98418", "addr:state": "WA", "amenity": "post_box", "brand": "United States Postal Service", "brand:wikidata": "Q668687", "collection_times": "Mo-Fr 17:00; Sa 14:30", "name": "USPS COLLECTION BOX - PO LOBBY", "note": "ON 12/24 AND 12/31, THIS BOX MAY BE COLLECTED AS EARLY AS 12 NOON.", "nsi_id": "unitedstatespostalservice-a77078", "operator": "United States Postal Service", "operator:short": "USPS", "operator:type": "public", "operator:wikidata": "Q668687", "ref": "9841800005"}, "type": "Feature"}
{"dataset_attributes": {"@spider": "usps_collection_boxes", "spider:collection_time": "2023-09-07T08:24:46.282741"}, "geometry": {"coordinates": [-122.433585032, 47.220603003], "type": "Point"}, "id": "cCHYl2yhS5yd1l5iv1kxY6Q8QUs=", "properties": {"@spider": "usps_collection_boxes", "addr:city": "TACOMA", "addr:country": "US", "addr:full": "4001 PACIFIC AVE", "addr:postcode": "98418", "addr:state": "WA", "amenity": "post_box", "brand": "United States Postal Service", "brand:wikidata": "Q668687", "collection_times": "Mo-Sa 09:30", "name": "USPS COLLECTION BOX - BLUE BOX", "nsi_id": "unitedstatespostalservice-a77078", "operator": "United States Postal Service", "operator:short": "USPS", "operator:type": "public", "operator:wikidata": "Q668687", "ref": "9841800008"}, "type": "Feature"}
{"dataset_attributes": {"@spider": "usps_collection_boxes", "spider:collection_time": "2023-09-07T08:24:46.282741"}, "geometry": {"coordinates": [-122.434195, 47.216721], "type": "Point"}, "id": "a6HPU64_aOdB_SB4f7F1-HMyrgQ=", "properties": {"@spider": "usps_collection_boxes", "addr:city": "TACOMA", "addr:country": "US", "addr:full": "4502 PACIFIC AVE", "addr:postcode": "98418", "addr:state": "WA", "amenity": "post_box", "brand": "United States Postal Service", "brand:wikidata": "Q668687", "collection_times": "Mo-Fr 17:00; Sa 13:45", "name": "USPS COLLECTION BOX - BLUE BOX", "note": "ON 12/24 AND 12/31, THIS BOX MAY BE COLLECTED AS EARLY AS 12 NOON.", "nsi_id": "unitedstatespostalservice-a77078", "operator": "United States Postal Service", "operator:short": "USPS", "operator:type": "public", "operator:wikidata": "Q668687", "ref": "9841800009"}, "type": "Feature"}
{"dataset_attributes": {"@spider": "usps_collection_boxes", "spider:collection_time": "2023-09-07T08:24:46.282741"}, "geometry": {"coordinates": [-122.432225, 47.223984], "type": "Point"}, "id": "x7_OpYnF4ka3m35m1IG38oqFIrc=", "properties": {"@spider": "usps_collection_boxes", "addr:city": "TACOMA", "addr:country": "US", "addr:full": "111 S 38TH ST", "addr:postcode": "98418", "addr:state": "WA", "amenity": "post_box", "brand": "United States Postal Service", "brand:wikidata": "Q668687", "collection_times": "Mo-Sa 09:30", "name": "USPS COLLECTION BOX - BLUE BOX", "nsi_id": "unitedstatespostalservice-a77078", "operator": "United States Postal Service", "operator:short": "USPS", "operator:type": "public", "operator:wikidata": "Q668687", "ref": "9841800012"}, "type": "Feature"}
{"dataset_attributes": {"@spider": "usps_collection_boxes", "spider:collection_time": "2023-09-07T08:24:46.282741"}, "geometry": {"coordinates": [-122.44061254, 47.224439497], "type": "Point"}, "id": "MLqXwd-qTx9w9cG1Ob9bFB1Ja74=", "properties": {"@spider": "usps_collection_boxes", "addr:city": "TACOMA", "addr:country": "US", "addr:full": "3705 S G ST", "addr:postcode": "98418", "addr:state": "WA", "amenity": "post_box", "brand": "United States Postal Service", "brand:wikidata": "Q668687", "collection_times": "Mo-Fr 17:00", "name": "USPS COLLECTION BOX - PO LOBBY", "note": "ON 12/24 AND 12/31, THIS BOX MAY BE COLLECTED AS EARLY AS 12 NOON.", "nsi_id": "unitedstatespostalservice-a77078", "operator": "United States Postal Service", "operator:short": "USPS", "operator:type": "public", "operator:wikidata": "Q668687", "ref": "9841800013"}, "type": "Feature"}
{"dataset_attributes": {"@spider": "usps_collection_boxes", "spider:collection_time": "2023-09-07T08:24:46.282741"}, "geometry": {"coordinates": [-122.412562, 47.265157], "type": "Point"}, "id": "c52H3d624RA8e4pdIjn_D1Df5m4=", "properties": {"@spider": "usps_collection_boxes", "addr:city": "TACOMA", "addr:country": "US", "addr:full": "1 SITCUM WAY", "addr:postcode": "98421", "addr:state": "WA", "amenity": "post_box", "brand": "United States Postal Service", "brand:wikidata": "Q668687", "collection_times": "Mo-Fr 15:45; Sa 14:30", "name": "USPS COLLECTION BOX - BLUE BOX", "note": "ON 12/24 AND 12/31, THIS BOX MAY BE COLLECTED AS EARLY AS 12 NOON.", "nsi_id": "unitedstatespostalservice-a77078", "operator": "United States Postal Service", "operator:short": "USPS", "operator:type": "public", "operator:wikidata": "Q668687", "ref": "9842100001"}, "type": "Feature"}
{"dataset_attributes": {"@spider": "usps_collection_boxes", "spider:collection_time": "2023-09-07T08:24:46.282741"}, "geometry": {"coordinates": [-122.405653, 47.268138], "type": "Point"}, "id": "aa9HlM0Ag-oXw_4Q6qzSnMWDMGQ=", "properties": {"@spider": "usps_collection_boxes", "addr:city": "TACOMA", "addr:country": "US", "addr:full": "2504 E 11TH ST", "addr:postcode": "98421", "addr:state": "WA", "amenity": "post_box", "brand": "United States Postal Service", "brand:wikidata": "Q668687", "collection_times": "Mo-Fr 16:00; Sa 14:30", "name": "USPS COLLECTION BOX - BLUE BOX", "note": "ON 12/24 AND 12/31, THIS BOX MAY BE COLLECTED AS EARLY AS 12 NOON.", "nsi_id": "unitedstatespostalservice-a77078", "operator": "United States Postal Service", "operator:short": "USPS", "operator:type": "public", "operator:wikidata": "Q668687", "ref": "9842100007"}, "type": "Feature"}
{"dataset_attributes": {"@spider": "usps_collection_boxes", "spider:collection_time": "2023-09-07T08:24:46.282741"}, "geometry": {"coordinates": [-122.425602024, 47.240574983], "type": "Point"}, "id": "KE1KWSTe2XSRSsTkgyChXikRqHM=", "properties": {"@spider": "usps_collection_boxes", "addr:city": "TACOMA", "addr:country": "US", "addr:full": "610 PUYALLUP AVE", "addr:postcode": "98421", "addr:state": "WA", "amenity": "post_box", "brand": "United States Postal Service", "brand:wikidata": "Q668687", "collection_times": "Mo-Sa 10:00", "name": "USPS COLLECTION BOX - BLUE BOX", "nsi_id": "unitedstatespostalservice-a77078", "operator": "United States Postal Service", "operator:short": "USPS", "operator:type": "public", "operator:wikidata": "Q668687", "ref": "9842100012"}, "type": "Feature"}
{"dataset_attributes": {"@spider": "usps_collection_boxes", "spider:collection_time": "2023-09-07T08:24:46.282741"}, "geometry": {"coordinates": [-122.435209, 47.301495], "type": "Point"}, "id": "-O4D7bGT_nSoYL3yci6OxUa_DJU=", "properties": {"@spider": "usps_collection_boxes", "addr:city": "TACOMA", "addr:country": "US", "addr:full": "6622 E SIDE DR NE", "addr:postcode": "98422", "addr:state": "WA", "amenity": "post_box", "brand": "United States Postal Service", "brand:wikidata": "Q668687", "collection_times": "Mo-Fr 16:15; Sa 15:15", "name": "USPS COLLECTION BOX - BLUE BOX", "note": "ON 12/24 AND 12/31, THIS BOX MAY BE COLLECTED AS EARLY AS 12 NOON.", "nsi_id": "unitedstatespostalservice-a77078", "operator": "United States Postal Service", "operator:short": "USPS", "operator:type": "public", "operator:wikidata": "Q668687", "ref": "9842200002"}, "type": "Feature"}
{"dataset_attributes": {"@spider": "usps_collection_boxes", "spider:collection_time": "2023-09-07T08:24:46.282741"}, "geometry": {"coordinates": [-122.3668110195, 47.2421789855], "type": "Point"}, "id": "nL3dHTUcrgsIl_uQY9GkjRS5InQ=", "properties": {"@spider": "usps_collection_boxes", "addr:city": "FIFE", "addr:country": "US", "addr:full": "4624 16TH ST E", "addr:postcode": "98424", "addr:state": "WA", "amenity": "post_box", "brand": "United States Postal Service", "brand:wikidata": "Q668687", "collection_times": "Mo-Sa 10:00", "name": "USPS COLLECTION BOX - BLUE BOX", "nsi_id": "unitedstatespostalservice-a77078", "operator": "United States Postal Service", "operator:short": "USPS", "operator:type": "public", "operator:wikidata": "Q668687", "ref": "9842400007"}, "type": "Feature"}
{"dataset_attributes": {"@spider": "usps_collection_boxes", "spider:collection_time": "2023-09-07T08:24:46.282741"}, "geometry": {"coordinates": [-122.379106, 47.241974], "type": "Point"}, "id": "UMdvKX5krvGptOS-RCKbIURiObk=", "properties": {"@spider": "usps_collection_boxes", "addr:city": "FIFE", "addr:country": "US", "addr:full": "3700 PACIFIC HWY E", "addr:postcode": "98424", "addr:state": "WA", "amenity": "post_box", "brand": "United States Postal Service", "brand:wikidata": "Q668687", "collection_times": "Mo-Fr 16:00; Sa 14:45", "name": "USPS COLLECTION BOX - BLUE BOX", "note": "ON 12/24 AND 12/31, THIS BOX MAY BE COLLECTED AS EARLY AS 12 NOON.", "nsi_id": "unitedstatespostalservice-a77078", "operator": "United States Postal Service", "operator:short": "USPS", "operator:type": "public", "operator:wikidata": "Q668687", "ref": "9842400011"}, "type": "Feature"}
{"dataset_attributes": {"@spider": "usps_collection_boxes", "spider:collection_time": "2023-09-07T08:24:46.282741"}, "geometry": {"coordinates": [-122.387219, 47.245273], "type": "Point"}, "id": "rX4y9MM8KU8_In3bWwdIUmKFx9I=", "properties": {"@spider": "usps_collection_boxes", "addr:city": "FIFE", "addr:country": "US", "addr:full": "3600 PORT OF TACOMA RD", "addr:postcode": "98424", "addr:state": "WA", "amenity": "post_box", "brand": "United States Postal Service", "brand:wikidata": "Q668687", "collection_times": "Mo-Sa 12:00", "name": "USPS COLLECTION BOX - BLUE BOX", "nsi_id": "unitedstatespostalservice-a77078", "operator": "United States Postal Service", "operator:short": "USPS", "operator:type": "public", "operator:wikidata": "Q668687", "ref": "9842400013"}, "type": "Feature"}
{"dataset_attributes": {"@spider": "usps_collection_boxes", "spider:collection_time": "2023-09-07T08:24:46.282741"}, "geometry": {"coordinates": [-122.3839420371, 47.2441859903], "type": "Point"}, "id": "MylkwD7Pj50JAmbN4MkggRWSLF4=", "properties": {"@spider": "usps_collection_boxes", "addr:city": "FIFE", "addr:country": "US", "addr:full": "1501 33RD AVE E", "addr:postcode": "98424", "addr:state": "WA", "amenity": "post_box", "brand": "United States Postal Service", "brand:wikidata": "Q668687", "collection_times": "Mo-Fr 17:00; Sa 16:00", "name": "USPS COLLECTION BOX - BLUE BOX", "note": "ON 12/24 AND 12/31, THIS BOX MAY BE COLLECTED AS EARLY AS 12 NOON.", "nsi_id": "unitedstatespostalservice-a77078", "operator": "United States Postal Service", "operator:short": "USPS", "operator:type": "public", "operator:wikidata": "Q668687", "ref": "9842400018"}, "type": "Feature"}
{"dataset_attributes": {"@spider": "usps_collection_boxes", "spider:collection_time": "2023-09-07T08:24:46.282741"}, "geometry": {"coordinates": [-122.3581101392, 47.2430954788], "type": "Point"}, "id": "f25gUGv8X-1755ivv4Mnrb3fTNo=", "properties": {"@spider": "usps_collection_boxes", "addr:city": "FIFE", "addr:country": "US", "addr:full": "5303 PACIFIC HWY E", "addr:postcode": "98424", "addr:state": "WA", "amenity": "post_box", "brand": "United States Postal Service", "brand:wikidata": "Q668687", "collection_times": "Mo-Fr 17:15; Sa 15:45", "name": "USPS COLLECTION BOX - BLUE BOX", "note": "ON 12/24 AND 12/31, THIS BOX MAY BE COLLECTED AS EARLY AS 12 NOON.", "nsi_id": "unitedstatespostalservice-a77078", "operator": "United States Postal Service", "operator:short": "USPS", "operator:type": "public", "operator:wikidata": "Q668687", "ref": "9842400022"}, "type": "Feature"}
{"dataset_attributes": {"@spider": "usps_collection_boxes", "spider:collection_time": "2023-09-07T08:24:46.282741"}, "geometry": {"coordinates": [-122.3564809944, 47.2372210059], "type": "Point"}, "id": "-_bJnn1PPW6a00RldZjbzJ55nno=", "properties": {"@spider": "usps_collection_boxes", "addr:city": "FIFE", "addr:country": "US", "addr:full": "5411 23RD ST E", "addr:postcode": "98424", "addr:state": "WA", "amenity": "post_box", "brand": "United States Postal Service", "brand:wikidata": "Q668687", "collection_times": "Mo-Fr 14:30; Sa 12:00", "name": "USPS COLLECTION BOX - BLUE BOX", "note": "ON 12/24 AND 12/31, THIS BOX MAY BE COLLECTED AS EARLY AS 12 NOON.", "nsi_id": "unitedstatespostalservice-a77078", "operator": "United States Postal Service", "operator:short": "USPS", "operator:type": "public", "operator:wikidata": "Q668687", "ref": "9842400024"}, "type": "Feature"}
{"dataset_attributes": {"@spider": "usps_collection_boxes", "spider:collection_time": "2023-09-07T08:24:46.282741"}, "geometry": {"coordinates": [-122.359363657, 47.2443561829], "type": "Point"}, "id": "lSX4zo7VjFXLEbz1JHCpDVIZBWk=", "properties": {"@spider": "usps_collection_boxes", "addr:city": "FIFE", "addr:country": "US", "addr:full": "1421 52ND AVE E", "addr:postcode": "98424", "addr:state": "WA", "amenity": "post_box", "brand": "United States Postal Service", "brand:wikidata": "Q668687", "collection_times": "Mo-Fr 17:00; Sa 15:45", "name": "USPS COLLECTION BOX - BLUE BOX", "note": "ON 12/24 AND 12/31, THIS BOX MAY BE COLLECTED AS EARLY AS 12 NOON.", "nsi_id": "unitedstatespostalservice-a77078", "operator": "United States Postal Service", "operator:short": "USPS", "operator:type": "public", "operator:wikidata": "Q668687", "ref": "9842400026"}, "type": "Feature"}
{"dataset_attributes": {"@spider": "usps_collection_boxes", "spider:collection_time": "2023-09-07T08:24:46.282741"}, "geometry": {"coordinates": [-122.552266209, 47.109711288], "type": "Point"}, "id": "y9OdojiRLAzEAN2j2tpW3twT_pI=", "properties": {"@spider": "usps_collection_boxes", "addr:city": "FORT LEWIS", "addr:country": "US", "addr:full": "9040 REID ST", "addr:postcode": "98431", "addr:state": "WA", "amenity": "post_box", "brand": "United States Postal Service", "brand:wikidata": "Q668687", "collection_times": "Mo-Fr 16:30", "name": "USPS COLLECTION BOX - PO LOBBY", "note": "ON 12/24 AND 12/31, THIS BOX MAY BE COLLECTED AS EARLY AS 12 NOON.", "nsi_id": "unitedstatespostalservice-a77078", "operator": "United States Postal Service", "operator:short": "USPS", "operator:type": "public", "operator:wikidata": "Q668687", "ref": "9843100001"}, "type": "Feature"}
{"dataset_attributes": {"@spider": "usps_collection_boxes", "spider:collection_time": "2023-09-07T08:24:46.282741"}, "geometry": {"coordinates": [-122.591776, 47.112368], "type": "Point"}, "id": "mmeVP3wYuqGs_oWfARrpAWxW0fk=", "properties": {"@spider": "usps_collection_boxes", "addr:city": "FT LEWIS", "addr:country": "US", "addr:full": "08197 AMERICAN LAKE AVE", "addr:postcode": "98433", "addr:state": "WA", "amenity": "post_box", "brand": "United States Postal Service", "brand:wikidata": "Q668687", "collection_times": "Mo-Fr 12:30; Sa 11:30", "name": "USPS COLLECTION BOX - BLUE BOX", "note": "ON 12/24 AND 12/31, THIS BOX MAY BE COLLECTED AS EARLY AS 12 NOON.", "nsi_id": "unitedstatespostalservice-a77078", "operator": "United States Postal Service", "operator:short": "USPS", "operator:type": "public", "operator:wikidata": "Q668687", "ref": "9843300001"}, "type": "Feature"}
{"dataset_attributes": {"@spider": "usps_collection_boxes", "spider:collection_time": "2023-09-07T08:24:46.282741"}, "geometry": {"coordinates": [-122.604034, 47.089776], "type": "Point"}, "id": "jgLXESUTxTsxBdh7lgGDjB_hXBU=", "properties": {"@spider": "usps_collection_boxes", "addr:city": "FT LEWIS", "addr:country": "US", "addr:full": "2026 S DIVISION ST", "addr:postcode": "98433", "addr:state": "WA", "amenity": "post_box", "brand": "United States Postal Service", "brand:wikidata": "Q668687", "collection_times": "Mo-Fr 13:00; Sa 12:00", "name": "USPS COLLECTION BOX - BLUE BOX", "note": "ON 12/24 AND 12/31, THIS BOX MAY BE COLLECTED AS EARLY AS 12 NOON.", "nsi_id": "unitedstatespostalservice-a77078", "operator": "United States Postal Service", "operator:short": "USPS", "operator:type": "public", "operator:wikidata": "Q668687", "ref": "9843300009"}, "type": "Feature"}
{"dataset_attributes": {"@spider": "usps_collection_boxes", "spider:collection_time": "2023-09-07T08:24:46.282741"}, "geometry": {"coordinates": [-122.585913, 47.097726], "type": "Point"}, "id": "6v71t9VDXmExaKN0i9jk0FIDitM=", "properties": {"@spider": "usps_collection_boxes", "addr:city": "FT LEWIS", "addr:country": "US", "addr:full": "6038 41ST DIVISION DR S", "addr:postcode": "98433", "addr:state": "WA", "amenity": "post_box", "brand": "United States Postal Service", "brand:wikidata": "Q668687", "collection_times": "Mo-Fr 13:30; Sa 12:30", "name": "USPS COLLECTION BOX - BLUE BOX", "note": "ON 12/24 AND 12/31, THIS BOX MAY BE COLLECTED AS EARLY AS 12 NOON.", "nsi_id": "unitedstatespostalservice-a77078", "operator": "United States Postal Service", "operator:short": "USPS", "operator:type": "public", "operator:wikidata": "Q668687", "ref": "9843300010"}, "type": "Feature"}
{"dataset_attributes": {"@spider": "usps_collection_boxes", "spider:collection_time": "2023-09-07T08:24:46.282741"}, "geometry": {"coordinates": [-122.60057, 47.124888], "type": "Point"}, "id": "NLDLOlZ5tG59btIOmONleZIiud4=", "properties": {"@spider": "usps_collection_boxes", "addr:city": "FT LEWIS", "addr:country": "US", "addr:full": "11566 A ST", "addr:postcode": "98433", "addr:state": "WA", "amenity": "post_box", "brand": "United States Postal Service", "brand:wikidata": "Q668687", "collection_times": "Mo-Fr 12:30; Sa 11:30", "name": "USPS COLLECTION BOX - BLUE BOX", "note": "ON 12/24 AND 12/31, THIS BOX MAY BE COLLECTED AS EARLY AS 12 NOON.", "nsi_id": "unitedstatespostalservice-a77078", "operator": "United States Postal Service", "operator:short": "USPS", "operator:type": "public", "operator:wikidata": "Q668687", "ref": "9843300018"}, "type": "Feature"}
{"dataset_attributes": {"@spider": "usps_collection_boxes", "spider:collection_time": "2023-09-07T08:24:46.282741"}, "geometry": {"coordinates": [-122.6136887359, 47.0929945528], "type": "Point"}, "id": "lwuu_WNclRfhWy4BsSXDEBl2mjI=", "properties": {"@spider": "usps_collection_boxes", "addr:city": "FT LEWIS", "addr:country": "US", "addr:full": "4170 KAUFMAN AVE", "addr:postcode": "98433", "addr:state": "WA", "amenity": "post_box", "brand": "United States Postal Service", "brand:wikidata": "Q668687", "collection_times": "Mo-Fr 17:00; Sa 16:15", "name": "USPS COLLECTION BOX - BLUE BOX", "note": "ON 12/24 AND 12/31, THIS BOX MAY BE COLLECTED AS EARLY AS 12 NOON.", "nsi_id": "unitedstatespostalservice-a77078", "operator": "United States Postal Service", "operator:short": "USPS", "operator:type": "public", "operator:wikidata": "Q668687", "ref": "9843300024"}, "type": "Feature"}
{"dataset_attributes": {"@spider": "usps_collection_boxes", "spider:collection_time": "2023-09-07T08:24:46.282741"}, "geometry": {"coordinates": [-122.551719, 47.110184], "type": "Point"}, "id": "k59bIYrCBbgL4oxJDQrg-JJrgv0=", "properties": {"@spider": "usps_collection_boxes", "addr:city": "FT LEWIS", "addr:country": "US", "addr:full": "9040 BEAUMONT AVE", "addr:postcode": "98433", "addr:state": "WA", "amenity": "post_box", "brand": "United States Postal Service", "brand:wikidata": "Q668687", "collection_times": "Mo-Fr 13:30; Sa 12:30", "name": "USPS COLLECTION BOX - BLUE BOX", "note": "ON 12/24 AND 12/31, THIS BOX MAY BE COLLECTED AS EARLY AS 12 NOON.", "nsi_id": "unitedstatespostalservice-a77078", "operator": "United States Postal Service", "operator:short": "USPS", "operator:type": "public", "operator:wikidata": "Q668687", "ref": "9843300026"}, "type": "Feature"}
{"dataset_attributes": {"@spider": "usps_collection_boxes", "spider:collection_time": "2023-09-07T08:24:46.282741"}, "geometry": {"coordinates": [-122.5678261136, 47.0929271921], "type": "Point"}, "id": "P7p3qrr8qvQrqzmehmgrwkwcBM0=", "properties": {"@spider": "usps_collection_boxes", "addr:city": "FT LEWIS", "addr:country": "US", "addr:full": "5280 PENDLETON AVE", "addr:postcode": "98433", "addr:state": "WA", "amenity": "post_box", "brand": "United States Postal Service", "brand:wikidata": "Q668687", "collection_times": "Mo-Sa 12:00", "name": "USPS COLLECTION BOX - BLUE BOX", "nsi_id": "unitedstatespostalservice-a77078", "operator": "United States Postal Service", "operator:short": "USPS", "operator:type": "public", "operator:wikidata": "Q668687", "ref": "9843300027"}, "type": "Feature"}
{"dataset_attributes": {"@spider": "usps_collection_boxes", "spider:collection_time": "2023-09-07T08:24:46.282741"}, "geometry": {"coordinates": [-122.576169, 47.095266], "type": "Point"}, "id": "N6yw5ZySO3ifDzF2kobXb_Te_OY=", "properties": {"@spider": "usps_collection_boxes", "addr:city": "FT LEWIS", "addr:country": "US", "addr:full": "6242 COLORADO AVE", "addr:postcode": "98433", "addr:state": "WA", "amenity": "post_box", "brand": "United States Postal Service", "brand:wikidata": "Q668687", "collection_times": "Mo-Fr 13:30; Sa 12:30", "name": "USPS COLLECTION BOX - BLUE BOX", "note": "ON 12/24 AND 12/31, THIS BOX MAY BE COLLECTED AS EARLY AS 12 NOON.", "nsi_id": "unitedstatespostalservice-a77078", "operator": "United States Postal Service", "operator:short": "USPS", "operator:type": "public", "operator:wikidata": "Q668687", "ref": "9843300028"}, "type": "Feature"}
{"dataset_attributes": {"@spider": "usps_collection_boxes", "spider:collection_time": "2023-09-07T08:24:46.282741"}, "geometry": {"coordinates": [-122.602328, 47.13115], "type": "Point"}, "id": "brnAk7Kj3FY_-VES-NLd_nnZ0VI=", "properties": {"@spider": "usps_collection_boxes", "addr:city": "FT LEWIS", "addr:country": "US", "addr:full": "12430 19TH ST", "addr:postcode": "98433", "addr:state": "WA", "amenity": "post_box", "brand": "United States Postal Service", "brand:wikidata": "Q668687", "collection_times": "Mo-Fr 12:45; Sa 11:45", "name": "USPS COLLECTION BOX - BLUE BOX", "note": "ON 12/24 AND 12/31, THIS BOX MAY BE COLLECTED AS EARLY AS 12 NOON.", "nsi_id": "unitedstatespostalservice-a77078", "operator": "United States Postal Service", "operator:short": "USPS", "operator:type": "public", "operator:wikidata": "Q668687", "ref": "9843300030"}, "type": "Feature"}
{"dataset_attributes": {"@spider": "usps_collection_boxes", "spider:collection_time": "2023-09-07T08:24:46.282741"}, "geometry": {"coordinates": [-122.613673, 47.092933], "type": "Point"}, "id": "EqOZ3VlvbpNRzffgrb4FsurifXk=", "properties": {"@spider": "usps_collection_boxes", "addr:city": "FT LEWIS", "addr:country": "US", "addr:full": "4170 KAUFMAN AVE", "addr:postcode": "98433", "addr:state": "WA", "amenity": "post_box", "brand": "United States Postal Service", "brand:wikidata": "Q668687", "collection_times": "Mo-Fr 17:00; Sa 15:00", "name": "USPS COLLECTION BOX - PO LOBBY", "note": "ON 12/24 AND 12/31, THIS BOX MAY BE COLLECTED AS EARLY AS 12 NOON.", "nsi_id": "unitedstatespostalservice-a77078", "operator": "United States Postal Service", "operator:short": "USPS", "operator:type": "public", "operator:wikidata": "Q668687", "ref": "9843300032"}, "type": "Feature"}
{"dataset_attributes": {"@spider": "usps_collection_boxes", "spider:collection_time": "2023-09-07T08:24:46.282741"}, "geometry": {"coordinates": [-122.55104, 47.105566], "type": "Point"}, "id": "EgVVFBac916-uankIAA13EGHfM0=", "properties": {"@spider": "usps_collection_boxes", "addr:city": "FT LEWIS", "addr:country": "US", "addr:full": "9040A FITZSIMMONS ST", "addr:postcode": "98433", "addr:state": "WA", "amenity": "post_box", "brand": "United States Postal Service", "brand:wikidata": "Q668687", "collection_times": "Mo-Fr 16:30", "name": "USPS COLLECTION BOX - PO LOBBY", "note": "ON 12/24 AND 12/31, THIS BOX MAY BE COLLECTED AS EARLY AS 12 NOON.", "nsi_id": "unitedstatespostalservice-a77078", "operator": "United States Postal Service", "operator:short": "USPS", "operator:type": "public", "operator:wikidata": "Q668687", "ref": "9843300035"}, "type": "Feature"}
{"dataset_attributes": {"@spider": "usps_collection_boxes", "spider:collection_time": "2023-09-07T08:24:46.282741"}, "geometry": {"coordinates": [-122.613673, 47.092933], "type": "Point"}, "id": "HzdPqoZ89yk4TPi5qZcxqZtT0O8=", "properties": {"@spider": "usps_collection_boxes", "addr:city": "FT LEWIS", "addr:country": "US", "addr:full": "4170 KAUFMAN AVE", "addr:postcode": "98433", "addr:state": "WA", "amenity": "post_box", "brand": "United States Postal Service", "brand:wikidata": "Q668687", "collection_times": "Mo-Fr 17:00; Sa 15:00", "name": "USPS COLLECTION BOX - APC", "note": "ON 12/24 AND 12/31, THIS BOX MAY BE COLLECTED AS EARLY AS 12 NOON.", "nsi_id": "unitedstatespostalservice-a77078", "operator": "United States Postal Service", "operator:short": "USPS", "operator:type": "public", "operator:wikidata": "Q668687", "ref": "9843300036"}, "type": "Feature"}
{"dataset_attributes": {"@spider": "usps_collection_boxes", "spider:collection_time": "2023-09-07T08:24:46.282741"}, "geometry": {"coordinates": [-122.600652, 47.133315], "type": "Point"}, "id": "3nCW4kSmb-0rKR0mhwivJMqoffE=", "properties": {"@spider": "usps_collection_boxes", "addr:city": "FT LEWIS", "addr:country": "US", "addr:full": "12324 22ND ST", "addr:postcode": "98433", "addr:state": "WA", "amenity": "post_box", "brand": "United States Postal Service", "brand:wikidata": "Q668687", "collection_times": "Mo-Sa 12:00", "name": "USPS COLLECTION BOX - BLUE BOX", "nsi_id": "unitedstatespostalservice-a77078", "operator": "United States Postal Service", "operator:short": "USPS", "operator:type": "public", "operator:wikidata": "Q668687", "ref": "9843300037"}, "type": "Feature"}
{"dataset_attributes": {"@spider": "usps_collection_boxes", "spider:collection_time": "2023-09-07T08:24:46.282741"}, "geometry": {"coordinates": [-122.613735494, 47.0929906], "type": "Point"}, "id": "tJYJ-XFa5IzU5wmXPq0VI0Hsgcw=", "properties": {"@spider": "usps_collection_boxes", "addr:city": "FT LEWIS", "addr:country": "US", "addr:full": "4170 KAUFMAN AVE", "addr:postcode": "98433", "addr:state": "WA", "amenity": "post_box", "brand": "United States Postal Service", "brand:wikidata": "Q668687", "collection_times": "Mo-Fr 17:00; Sa 15:00", "name": "USPS COLLECTION BOX - PO LOBBY", "note": "ON 12/24 AND 12/31, THIS BOX MAY BE COLLECTED AS EARLY AS 12 NOON.", "nsi_id": "unitedstatespostalservice-a77078", "operator": "United States Postal Service", "operator:short": "USPS", "operator:type": "public", "operator:wikidata": "Q668687", "ref": "9843300038"}, "type": "Feature"}
{"dataset_attributes": {"@spider": "usps_collection_boxes", "spider:collection_time": "2023-09-07T08:24:46.282741"}, "geometry": {"coordinates": [-122.491457, 47.128483], "type": "Point"}, "id": "94tMcCMiDfTPnyjKGvXXGspRz4g=", "properties": {"@spider": "usps_collection_boxes", "addr:city": "LEWIS MCCHORD", "addr:country": "US", "addr:full": "565 OUTER DR", "addr:postcode": "98438", "addr:state": "WA", "amenity": "post_box", "brand": "United States Postal Service", "brand:wikidata": "Q668687", "collection_times": "Mo-Fr 14:15; Sa 13:00", "name": "USPS COLLECTION BOX - BLUE BOX", "note": "ON 12/24 AND 12/31, THIS BOX MAY BE COLLECTED AS EARLY AS 12 NOON.", "nsi_id": "unitedstatespostalservice-a77078", "operator": "United States Postal Service", "operator:short": "USPS", "operator:type": "public", "operator:wikidata": "Q668687", "ref": "9843800000"}, "type": "Feature"}
{"dataset_attributes": {"@spider": "usps_collection_boxes", "spider:collection_time": "2023-09-07T08:24:46.282741"}, "geometry": {"coordinates": [-122.494273, 47.125172], "type": "Point"}, "id": "z4xzasO3lx4v5Nd1_0YLX5aU6Qc=", "properties": {"@spider": "usps_collection_boxes", "addr:city": "LEWIS MCCHORD", "addr:country": "US", "addr:full": "500 A ST", "addr:postcode": "98438", "addr:state": "WA", "amenity": "post_box", "brand": "United States Postal Service", "brand:wikidata": "Q668687", "collection_times": "Mo-Fr 14:15; Sa 13:00", "name": "USPS COLLECTION BOX - BLUE BOX", "note": "ON 12/24 AND 12/31, THIS BOX MAY BE COLLECTED AS EARLY AS 12 NOON.", "nsi_id": "unitedstatespostalservice-a77078", "operator": "United States Postal Service", "operator:short": "USPS", "operator:type": "public", "operator:wikidata": "Q668687", "ref": "9843800002"}, "type": "Feature"}
{"dataset_attributes": {"@spider": "usps_collection_boxes", "spider:collection_time": "2023-09-07T08:24:46.282741"}, "geometry": {"coordinates": [-122.488712, 47.134447], "type": "Point"}, "id": "AVmJLbN1-m1ByzO40dCFkP0cOTY=", "properties": {"@spider": "usps_collection_boxes", "addr:city": "LEWIS MCCHORD", "addr:country": "US", "addr:full": "735 5TH ST", "addr:postcode": "98438", "addr:state": "WA", "amenity": "post_box", "brand": "United States Postal Service", "brand:wikidata": "Q668687", "collection_times": "Mo-Fr 16:30; Sa 13:15", "name": "USPS COLLECTION BOX - BLUE BOX", "note": "ON 12/24 AND 12/31, THIS BOX MAY BE COLLECTED AS EARLY AS 12 NOON.", "nsi_id": "unitedstatespostalservice-a77078", "operator": "United States Postal Service", "operator:short": "USPS", "operator:type": "public", "operator:wikidata": "Q668687", "ref": "9843800003"}, "type": "Feature"}
{"dataset_attributes": {"@spider": "usps_collection_boxes", "spider:collection_time": "2023-09-07T08:24:46.282741"}, "geometry": {"coordinates": [-122.493742, 47.144452], "type": "Point"}, "id": "VTdYyKyfe8tYXkiJNmiVkUuOLMk=", "properties": {"@spider": "usps_collection_boxes", "addr:city": "LEWIS MCCHORD", "addr:country": "US", "addr:full": "1188 BARNES BLVD", "addr:postcode": "98438", "addr:state": "WA", "amenity": "post_box", "brand": "United States Postal Service", "brand:wikidata": "Q668687", "collection_times": "Mo-Fr 14:30; Sa 13:15", "name": "USPS COLLECTION BOX - BLUE BOX", "note": "ON 12/24 AND 12/31, THIS BOX MAY BE COLLECTED AS EARLY AS 12 NOON.", "nsi_id": "unitedstatespostalservice-a77078", "operator": "United States Postal Service", "operator:short": "USPS", "operator:type": "public", "operator:wikidata": "Q668687", "ref": "9843800004"}, "type": "Feature"}
{"dataset_attributes": {"@spider": "usps_collection_boxes", "spider:collection_time": "2023-09-07T08:24:46.282741"}, "geometry": {"coordinates": [-122.488928, 47.134147], "type": "Point"}, "id": "wdjeUGMmxfRnUWcmPi9geDmYPCc=", "properties": {"@spider": "usps_collection_boxes", "addr:city": "LEWIS MCCHORD", "addr:country": "US", "addr:full": "735 5TH ST", "addr:postcode": "98438", "addr:state": "WA", "amenity": "post_box", "brand": "United States Postal Service", "brand:wikidata": "Q668687", "collection_times": "Mo-Fr 16:30", "name": "USPS COLLECTION BOX - PO LOBBY", "note": "ON 12/24 AND 12/31, THIS BOX MAY BE COLLECTED AS EARLY AS 12 NOON.", "nsi_id": "unitedstatespostalservice-a77078", "operator": "United States Postal Service", "operator:short": "USPS", "operator:type": "public", "operator:wikidata": "Q668687", "ref": "9843800005"}, "type": "Feature"}
{"dataset_attributes": {"@spider": "usps_collection_boxes", "spider:collection_time": "2023-09-07T08:24:46.282741"}, "geometry": {"coordinates": [-122.489013835, 47.134226646], "type": "Point"}, "id": "vxcCjiwVpsFVTME32Eogl869QGA=", "properties": {"@spider": "usps_collection_boxes", "addr:city": "LEWIS MCCHORD", "addr:country": "US", "addr:full": "735 5TH ST", "addr:postcode": "98438", "addr:state": "WA", "amenity": "post_box", "brand": "United States Postal Service", "brand:wikidata": "Q668687", "collection_times": "Mo-Fr 16:30", "name": "USPS COLLECTION BOX - PO LOBBY", "note": "ON 12/24 AND 12/31, THIS BOX MAY BE COLLECTED AS EARLY AS 12 NOON.", "nsi_id": "unitedstatespostalservice-a77078", "operator": "United States Postal Service", "operator:short": "USPS", "operator:type": "public", "operator:wikidata": "Q668687", "ref": "9843800007"}, "type": "Feature"}
{"dataset_attributes": {"@spider": "usps_collection_boxes", "spider:collection_time": "2023-09-07T08:24:46.282741"}, "geometry": {"coordinates": [-122.528501, 47.132631], "type": "Point"}, "id": "LSSR8aGrKXL4DP9R5kep3jMrrw0=", "properties": {"@spider": "usps_collection_boxes", "addr:city": "MCCHORD AFB", "addr:country": "US", "addr:full": "4370 BIRCH ST SW", "addr:postcode": "98439", "addr:state": "WA", "amenity": "post_box", "brand": "United States Postal Service", "brand:wikidata": "Q668687", "collection_times": "Mo-Fr 13:30; Sa 12:45", "name": "USPS COLLECTION BOX - BLUE BOX", "note": "ON 12/24 AND 12/31, THIS BOX MAY BE COLLECTED AS EARLY AS 12 NOON.", "nsi_id": "unitedstatespostalservice-a77078", "operator": "United States Postal Service", "operator:short": "USPS", "operator:type": "public", "operator:wikidata": "Q668687", "ref": "9843900002"}, "type": "Feature"}
{"dataset_attributes": {"@spider": "usps_collection_boxes", "spider:collection_time": "2023-09-07T08:24:46.282741"}, "geometry": {"coordinates": [-122.527338, 47.127227], "type": "Point"}, "id": "KCnmZfidU4T5bgjKWt_V9vpHdws=", "properties": {"@spider": "usps_collection_boxes", "addr:city": "MCCHORD AFB", "addr:country": "US", "addr:full": "3101A DOGWOOD ST SW", "addr:postcode": "98439", "addr:state": "WA", "amenity": "post_box", "brand": "United States Postal Service", "brand:wikidata": "Q668687", "collection_times": "Mo-Sa 10:30", "name": "USPS COLLECTION BOX - BLUE BOX", "nsi_id": "unitedstatespostalservice-a77078", "operator": "United States Postal Service", "operator:short": "USPS", "operator:type": "public", "operator:wikidata": "Q668687", "ref": "9843900004"}, "type": "Feature"}
{"dataset_attributes": {"@spider": "usps_collection_boxes", "spider:collection_time": "2023-09-07T08:24:46.282741"}, "geometry": {"coordinates": [-122.43012, 47.159416], "type": "Point"}, "id": "8M3UbVJeNGW-DCKKwJzU-0qc6pk=", "properties": {"@spider": "usps_collection_boxes", "addr:city": "TACOMA", "addr:country": "US", "addr:full": "10801 A ST S", "addr:postcode": "98444", "addr:state": "WA", "amenity": "post_box", "brand": "United States Postal Service", "brand:wikidata": "Q668687", "collection_times": "Mo-Sa 11:00", "name": "USPS COLLECTION BOX - BLUE BOX", "nsi_id": "unitedstatespostalservice-a77078", "operator": "United States Postal Service", "operator:short": "USPS", "operator:type": "public", "operator:wikidata": "Q668687", "ref": "9844400003"}, "type": "Feature"}
{"dataset_attributes": {"@spider": "usps_collection_boxes", "spider:collection_time": "2023-09-07T08:24:46.282741"}, "geometry": {"coordinates": [-122.4587360222, 47.1821179973], "type": "Point"}, "id": "_jTM-PZKJUQ4WDJA4Os3bTvQLhM=", "properties": {"@spider": "usps_collection_boxes", "addr:city": "TACOMA", "addr:country": "US", "addr:full": "1717 S 84TH ST", "addr:postcode": "98444", "addr:state": "WA", "amenity": "post_box", "brand": "United States Postal Service", "brand:wikidata": "Q668687", "collection_times": "Mo-Sa 10:15", "name": "USPS COLLECTION BOX - BLUE BOX", "nsi_id": "unitedstatespostalservice-a77078", "operator": "United States Postal Service", "operator:short": "USPS", "operator:type": "public", "operator:wikidata": "Q668687", "ref": "9844400022"}, "type": "Feature"}
{"dataset_attributes": {"@spider": "usps_collection_boxes", "spider:collection_time": "2023-09-07T08:24:46.282741"}, "geometry": {"coordinates": [-122.4652987478, 47.1705752628], "type": "Point"}, "id": "Om7SnGMjV871g-5cmZgtBoAbZnk=", "properties": {"@spider": "usps_collection_boxes", "addr:city": "TACOMA", "addr:country": "US", "addr:full": "9517 S STEELE ST", "addr:postcode": "98444", "addr:state": "WA", "amenity": "post_box", "brand": "United States Postal Service", "brand:wikidata": "Q668687", "collection_times": "Mo-Sa 12:30", "name": "USPS COLLECTION BOX - BLUE BOX", "note": "ON 12/24 AND 12/31, THIS BOX MAY BE COLLECTED AS EARLY AS 12 NOON.", "nsi_id": "unitedstatespostalservice-a77078", "operator": "United States Postal Service", "operator:short": "USPS", "operator:type": "public", "operator:wikidata": "Q668687", "ref": "9844400024"}, "type": "Feature"}
{"dataset_attributes": {"@spider": "usps_collection_boxes", "spider:collection_time": "2023-09-07T08:24:46.282741"}, "geometry": {"coordinates": [-122.4365949735, 47.1458780007], "type": "Point"}, "id": "Dy8WhWKAODvGmxnjP-pch8-kkSU=", "properties": {"@spider": "usps_collection_boxes", "addr:city": "TACOMA", "addr:country": "US", "addr:full": "320 GARFIELD ST S", "addr:postcode": "98444", "addr:state": "WA", "amenity": "post_box", "brand": "United States Postal Service", "brand:wikidata": "Q668687", "collection_times": "Mo-Fr 17:00; Sa 15:15", "name": "USPS COLLECTION BOX - BLUE BOX", "note": "ON 12/24 AND 12/31, THIS BOX MAY BE COLLECTED AS EARLY AS 12 NOON.", "nsi_id": "unitedstatespostalservice-a77078", "operator": "United States Postal Service", "operator:short": "USPS", "operator:type": "public", "operator:wikidata": "Q668687", "ref": "9844400027"}, "type": "Feature"}
{"dataset_attributes": {"@spider": "usps_collection_boxes", "spider:collection_time": "2023-09-07T08:24:46.282741"}, "geometry": {"coordinates": [-122.463882, 47.172547], "type": "Point"}, "id": "BOh_uNKzDuUfKovWX3wGY3yWX1Q=", "properties": {"@spider": "usps_collection_boxes", "addr:city": "TACOMA", "addr:country": "US", "addr:full": "9318 S STEELE ST", "addr:postcode": "98444", "addr:state": "WA", "amenity": "post_box", "brand": "United States Postal Service", "brand:wikidata": "Q668687", "collection_times": "Mo-Sa 11:15", "name": "USPS COLLECTION BOX - BLUE BOX", "nsi_id": "unitedstatespostalservice-a77078", "operator": "United States Postal Service", "operator:short": "USPS", "operator:type": "public", "operator:wikidata": "Q668687", "ref": "9844400031"}, "type": "Feature"}
{"dataset_attributes": {"@spider": "usps_collection_boxes", "spider:collection_time": "2023-09-07T08:24:46.282741"}, "geometry": {"coordinates": [-122.436046, 47.146131], "type": "Point"}, "id": "hk_jTh5tod_oKnTUgQ9s7OaaKyU=", "properties": {"@spider": "usps_collection_boxes", "addr:city": "TACOMA", "addr:country": "US", "addr:full": "320 GARFIELD ST S", "addr:postcode": "98444", "addr:state": "WA", "amenity": "post_box", "brand": "United States Postal Service", "brand:wikidata": "Q668687", "collection_times": "Mo-Fr 18:00; Sa 15:00", "name": "USPS COLLECTION BOX - PO LOBBY", "note": "ON 12/24 AND 12/31, THIS BOX MAY BE COLLECTED AS EARLY AS 12 NOON.", "nsi_id": "unitedstatespostalservice-a77078", "operator": "United States Postal Service", "operator:short": "USPS", "operator:type": "public", "operator:wikidata": "Q668687", "ref": "9844400032"}, "type": "Feature"}
{"dataset_attributes": {"@spider": "usps_collection_boxes", "spider:collection_time": "2023-09-07T08:24:46.282741"}, "geometry": {"coordinates": [-122.436046, 47.146131], "type": "Point"}, "id": "feLGMxhAEwgTlW67ozFPCCsTUMc=", "properties": {"@spider": "usps_collection_boxes", "addr:city": "TACOMA", "addr:country": "US", "addr:full": "320 GARFIELD ST S", "addr:postcode": "98444", "addr:state": "WA", "amenity": "post_box", "brand": "United States Postal Service", "brand:wikidata": "Q668687", "collection_times": "Mo-Fr 18:00; Sa 15:00", "name": "USPS COLLECTION BOX - PO LOBBY", "note": "ON 12/24 AND 12/31, THIS BOX MAY BE COLLECTED AS EARLY AS 12 NOON.", "nsi_id": "unitedstatespostalservice-a77078", "operator": "United States Postal Service", "operator:short": "USPS", "operator:type": "public", "operator:wikidata": "Q668687", "ref": "9844400033"}, "type": "Feature"}
{"dataset_attributes": {"@spider": "usps_collection_boxes", "spider:collection_time": "2023-09-07T08:24:46.282741"}, "geometry": {"coordinates": [-122.4425607164, 47.1439649416], "type": "Point"}, "id": "-3w0gM-VFjOrJxQsp9dXCqsWhRU=", "properties": {"@spider": "usps_collection_boxes", "addr:city": "TACOMA", "addr:country": "US", "addr:full": "12402 YAKIMA AVE S", "addr:postcode": "98444", "addr:state": "WA", "amenity": "post_box", "brand": "United States Postal Service", "brand:wikidata": "Q668687", "collection_times": "Mo-Fr 12:00; Sa 11:45", "name": "USPS COLLECTION BOX - BLUE BOX", "nsi_id": "unitedstatespostalservice-a77078", "operator": "United States Postal Service", "operator:short": "USPS", "operator:type": "public", "operator:wikidata": "Q668687", "ref": "9844400035"}, "type": "Feature"}
{"dataset_attributes": {"@spider": "usps_collection_boxes", "spider:collection_time": "2023-09-07T08:24:46.282741"}, "geometry": {"coordinates": [-122.436432168, 47.146111536], "type": "Point"}, "id": "fzUwKxVCQf9ZwLs7LQTX4oocOHs=", "properties": {"@spider": "usps_collection_boxes", "addr:city": "TACOMA", "addr:country": "US", "addr:full": "320 GARFIELD ST S", "addr:postcode": "98444", "addr:state": "WA", "amenity": "post_box", "brand": "United States Postal Service", "brand:wikidata": "Q668687", "collection_times": "Mo-Fr 17:30; Sa 15:00", "name": "USPS COLLECTION BOX - PO LOBBY", "note": "ON 12/24 AND 12/31, THIS BOX MAY BE COLLECTED AS EARLY AS 12 NOON.", "nsi_id": "unitedstatespostalservice-a77078", "operator": "United States Postal Service", "operator:short": "USPS", "operator:type": "public", "operator:wikidata": "Q668687", "ref": "9844400036"}, "type": "Feature"}
{"dataset_attributes": {"@spider": "usps_collection_boxes", "spider:collection_time": "2023-09-07T08:24:46.282741"}, "geometry": {"coordinates": [-122.4046190187, 47.1627710141], "type": "Point"}, "id": "w2gMSKfOAUwS_EEuGzseCsNPvoU=", "properties": {"@spider": "usps_collection_boxes", "addr:city": "TACOMA", "addr:country": "US", "addr:full": "10323 PORTLAND AVE E", "addr:postcode": "98445", "addr:state": "WA", "amenity": "post_box", "brand": "United States Postal Service", "brand:wikidata": "Q668687", "collection_times": "Mo-Fr 13:45; Sa 12:30", "name": "USPS COLLECTION BOX - BLUE BOX", "note": "ON 12/24 AND 12/31, THIS BOX MAY BE COLLECTED AS EARLY AS 12 NOON.", "nsi_id": "unitedstatespostalservice-a77078", "operator": "United States Postal Service", "operator:short": "USPS", "operator:type": "public", "operator:wikidata": "Q668687", "ref": "9844500003"}, "type": "Feature"}
{"dataset_attributes": {"@spider": "usps_collection_boxes", "spider:collection_time": "2023-09-07T08:24:46.282741"}, "geometry": {"coordinates": [-122.531063, 47.246336], "type": "Point"}, "id": "IyfleWG-XqrCm6SfrtucEBFGr6k=", "properties": {"@spider": "usps_collection_boxes", "addr:city": "TACOMA", "addr:country": "US", "addr:full": "1506 S MILDRED ST", "addr:postcode": "98465", "addr:state": "WA", "amenity": "post_box", "brand": "United States Postal Service", "brand:wikidata": "Q668687", "collection_times": "Mo-Sa 10:45", "name": "USPS COLLECTION BOX - BLUE BOX", "nsi_id": "unitedstatespostalservice-a77078", "operator": "United States Postal Service", "operator:short": "USPS", "operator:type": "public", "operator:wikidata": "Q668687", "ref": "9846500001"}, "type": "Feature"}
{"dataset_attributes": {"@spider": "usps_collection_boxes", "spider:collection_time": "2023-09-07T08:24:46.282741"}, "geometry": {"coordinates": [-122.524504, 47.248396], "type": "Point"}, "id": "ibzvx_CViL0S3q9-G6La1Ad92Ac=", "properties": {"@spider": "usps_collection_boxes", "addr:city": "TACOMA", "addr:country": "US", "addr:full": "6501 12TH ST E", "addr:postcode": "98465", "addr:state": "WA", "amenity": "post_box", "brand": "United States Postal Service", "brand:wikidata": "Q668687", "collection_times": "Mo-Fr 12:30; Sa 12:15", "name": "USPS COLLECTION BOX - BLUE BOX", "note": "ON 12/24 AND 12/31, THIS BOX MAY BE COLLECTED AS EARLY AS 12 NOON.", "nsi_id": "unitedstatespostalservice-a77078", "operator": "United States Postal Service", "operator:short": "USPS", "operator:type": "public", "operator:wikidata": "Q668687", "ref": "9846500002"}, "type": "Feature"}
{"dataset_attributes": {"@spider": "usps_collection_boxes", "spider:collection_time": "2023-09-07T08:24:46.282741"}, "geometry": {"coordinates": [-122.508503277, 47.250173501], "type": "Point"}, "id": "CEAV4exzhFtzl5BBrBc4iaA3ZAs=", "properties": {"@spider": "usps_collection_boxes", "addr:city": "TACOMA", "addr:country": "US", "addr:full": "5401 S 12TH ST", "addr:postcode": "98465", "addr:state": "WA", "amenity": "post_box", "brand": "United States Postal Service", "brand:wikidata": "Q668687", "collection_times": "Mo-Fr 13:00; Sa 12:00", "name": "USPS COLLECTION BOX - BLUE BOX", "note": "ON 12/24 AND 12/31, THIS BOX MAY BE COLLECTED AS EARLY AS 12 NOON.", "nsi_id": "unitedstatespostalservice-a77078", "operator": "United States Postal Service", "operator:short": "USPS", "operator:type": "public", "operator:wikidata": "Q668687", "ref": "9846500003"}, "type": "Feature"}
{"dataset_attributes": {"@spider": "usps_collection_boxes", "spider:collection_time": "2023-09-07T08:24:46.282741"}, "geometry": {"coordinates": [-122.5367980276, 47.2121420164], "type": "Point"}, "id": "eaV4T7-0oQPFj9oxkbnTMKXb9kA=", "properties": {"@spider": "usps_collection_boxes", "addr:city": "TACOMA", "addr:country": "US", "addr:full": "4922 BRIDGEPORT WAY W", "addr:postcode": "98465", "addr:state": "WA", "amenity": "post_box", "brand": "United States Postal Service", "brand:wikidata": "Q668687", "collection_times": "Mo-Sa 10:00", "name": "USPS COLLECTION BOX - BLUE BOX", "nsi_id": "unitedstatespostalservice-a77078", "operator": "United States Postal Service", "operator:short": "USPS", "operator:type": "public", "operator:wikidata": "Q668687", "ref": "9846500008"}, "type": "Feature"}
{"dataset_attributes": {"@spider": "usps_collection_boxes", "spider:collection_time": "2023-09-07T08:24:46.282741"}, "geometry": {"coordinates": [-122.519669, 47.23912], "type": "Point"}, "id": "OP0WTbESDuXAM9mGK9uS2KXdqKk=", "properties": {"@spider": "usps_collection_boxes", "addr:city": "UNIVERSITY PL", "addr:country": "US", "addr:full": "1115 REGENTS BLVD", "addr:postcode": "98466", "addr:state": "WA", "amenity": "post_box", "brand": "United States Postal Service", "brand:wikidata": "Q668687", "collection_times": "Mo-Fr 16:30; Sa 16:15", "name": "USPS COLLECTION BOX - BLUE BOX", "note": "ON 12/24 AND 12/31, THIS BOX MAY BE COLLECTED AS EARLY AS 12 NOON.", "nsi_id": "unitedstatespostalservice-a77078", "operator": "United States Postal Service", "operator:short": "USPS", "operator:type": "public", "operator:wikidata": "Q668687", "ref": "9846600001"}, "type": "Feature"}
{"dataset_attributes": {"@spider": "usps_collection_boxes", "spider:collection_time": "2023-09-07T08:24:46.282741"}, "geometry": {"coordinates": [-122.566835, 47.214736], "type": "Point"}, "id": "uuqAzJ5HMDvobvbgdhY8W8cCLic=", "properties": {"@spider": "usps_collection_boxes", "addr:city": "UNIVERSITY PL", "addr:country": "US", "addr:full": "4601 GRANDVIEW DR W", "addr:postcode": "98466", "addr:state": "WA", "amenity": "post_box", "brand": "United States Postal Service", "brand:wikidata": "Q668687", "collection_times": "Mo-Sa 12:30", "name": "USPS COLLECTION BOX - BLUE BOX", "note": "ON 12/24 AND 12/31, THIS BOX MAY BE COLLECTED AS EARLY AS 12 NOON.", "nsi_id": "unitedstatespostalservice-a77078", "operator": "United States Postal Service", "operator:short": "USPS", "operator:type": "public", "operator:wikidata": "Q668687", "ref": "9846600005"}, "type": "Feature"}
{"dataset_attributes": {"@spider": "usps_collection_boxes", "spider:collection_time": "2023-09-07T08:24:46.282741"}, "geometry": {"coordinates": [-122.5556459942, 47.2360560052], "type": "Point"}, "id": "JrFMedS2Y1jzQplsXxgG4azoXo4=", "properties": {"@spider": "usps_collection_boxes", "addr:city": "UNIVERSITY PL", "addr:country": "US", "addr:full": "2602 WESTRIDGE AVE W", "addr:postcode": "98466", "addr:state": "WA", "amenity": "post_box", "brand": "United States Postal Service", "brand:wikidata": "Q668687", "collection_times": "Mo-Sa 12:30", "name": "USPS COLLECTION BOX - BLUE BOX", "note": "ON 12/24 AND 12/31, THIS BOX MAY BE COLLECTED AS EARLY AS 12 NOON.", "nsi_id": "unitedstatespostalservice-a77078", "operator": "United States Postal Service", "operator:short": "USPS", "operator:type": "public", "operator:wikidata": "Q668687", "ref": "9846600006"}, "type": "Feature"}
{"dataset_attributes": {"@spider": "usps_collection_boxes", "spider:collection_time": "2023-09-07T08:24:46.282741"}, "geometry": {"coordinates": [-122.52239, 47.220894], "type": "Point"}, "id": "8-HPivsLdeFFJDNBqGWP4sp_FOo=", "properties": {"@spider": "usps_collection_boxes", "addr:city": "UNIVERSITY PL", "addr:country": "US", "addr:full": "1250 EMERSON ST", "addr:postcode": "98466", "addr:state": "WA", "amenity": "post_box", "brand": "United States Postal Service", "brand:wikidata": "Q668687", "collection_times": "Mo-Sa 10:30", "name": "USPS COLLECTION BOX - BLUE BOX", "nsi_id": "unitedstatespostalservice-a77078", "operator": "United States Postal Service", "operator:short": "USPS", "operator:type": "public", "operator:wikidata": "Q668687", "ref": "9846600007"}, "type": "Feature"}
{"dataset_attributes": {"@spider": "usps_collection_boxes", "spider:collection_time": "2023-09-07T08:24:46.282741"}, "geometry": {"coordinates": [-122.528331, 47.238471], "type": "Point"}, "id": "X_iaG613BdcM0KCkt-JLUwD4Wd8=", "properties": {"@spider": "usps_collection_boxes", "addr:city": "UNIVERSITY PL", "addr:country": "US", "addr:full": "2310 MILDRED ST W", "addr:postcode": "98466", "addr:state": "WA", "amenity": "post_box", "brand": "United States Postal Service", "brand:wikidata": "Q668687", "collection_times": "Mo-Sa 13:30", "name": "USPS COLLECTION BOX - BLUE BOX", "note": "ON 12/24 AND 12/31, THIS BOX MAY BE COLLECTED AS EARLY AS 12 NOON.", "nsi_id": "unitedstatespostalservice-a77078", "operator": "United States Postal Service", "operator:short": "USPS", "operator:type": "public", "operator:wikidata": "Q668687", "ref": "9846600008"}, "type": "Feature"}
{"dataset_attributes": {"@spider": "usps_collection_boxes", "spider:collection_time": "2023-09-07T08:24:46.282741"}, "geometry": {"coordinates": [-122.528871, 47.24212], "type": "Point"}, "id": "hK61SV-Y7QXpfFatVZztwj3KkAA=", "properties": {"@spider": "usps_collection_boxes", "addr:city": "UNIVERSITY PL", "addr:country": "US", "addr:full": "6824 19TH ST W", "addr:postcode": "98466", "addr:state": "WA", "amenity": "post_box", "brand": "United States Postal Service", "brand:wikidata": "Q668687", "collection_times": "Mo-Fr 17:00; Sa 15:00", "name": "USPS COLLECTION BOX - BLUE BOX", "note": "ON 12/24 AND 12/31, THIS BOX MAY BE COLLECTED AS EARLY AS 12 NOON.", "nsi_id": "unitedstatespostalservice-a77078", "operator": "United States Postal Service", "operator:short": "USPS", "operator:type": "public", "operator:wikidata": "Q668687", "ref": "9846600009"}, "type": "Feature"}
{"dataset_attributes": {"@spider": "usps_collection_boxes", "spider:collection_time": "2023-09-07T08:24:46.282741"}, "geometry": {"coordinates": [-122.540562, 47.218132], "type": "Point"}, "id": "N3csjnElnlwrIzYhbJKWoMKcsi0=", "properties": {"@spider": "usps_collection_boxes", "addr:city": "UNIVERSITY PL", "addr:country": "US", "addr:full": "7713 44TH ST W", "addr:postcode": "98466", "addr:state": "WA", "amenity": "post_box", "brand": "United States Postal Service", "brand:wikidata": "Q668687", "collection_times": "Mo-Sa 11:00", "name": "USPS COLLECTION BOX - BLUE BOX", "nsi_id": "unitedstatespostalservice-a77078", "operator": "United States Postal Service", "operator:short": "USPS", "operator:type": "public", "operator:wikidata": "Q668687", "ref": "9846600010"}, "type": "Feature"}
{"dataset_attributes": {"@spider": "usps_collection_boxes", "spider:collection_time": "2023-09-07T08:24:46.282741"}, "geometry": {"coordinates": [-122.5217210554, 47.242734499], "type": "Point"}, "id": "6hWhP4ckasMxAu3lYAyzn3lT9nA=", "properties": {"@spider": "usps_collection_boxes", "addr:city": "UNIVERSITY PL", "addr:country": "US", "addr:full": "6314 19TH ST W", "addr:postcode": "98466", "addr:state": "WA", "amenity": "post_box", "brand": "United States Postal Service", "brand:wikidata": "Q668687", "collection_times": "Mo-Fr 16:15; Sa 16:00", "name": "USPS COLLECTION BOX - BLUE BOX", "note": "ON 12/24 AND 12/31, THIS BOX MAY BE COLLECTED AS EARLY AS 12 NOON.", "nsi_id": "unitedstatespostalservice-a77078", "operator": "United States Postal Service", "operator:short": "USPS", "operator:type": "public", "operator:wikidata": "Q668687", "ref": "9846600011"}, "type": "Feature"}
{"dataset_attributes": {"@spider": "usps_collection_boxes", "spider:collection_time": "2023-09-07T08:24:46.282741"}, "geometry": {"coordinates": [-122.535636, 47.221132], "type": "Point"}, "id": "UGJUL9VOFjPOckT-XwRKMghq_Tk=", "properties": {"@spider": "usps_collection_boxes", "addr:city": "UNIVERSITY PL", "addr:country": "US", "addr:full": "3915 BRIDGEPORT WAY W", "addr:postcode": "98466", "addr:state": "WA", "amenity": "post_box", "brand": "United States Postal Service", "brand:wikidata": "Q668687", "collection_times": "Mo-Fr 15:45; Sa 15:30", "name": "USPS COLLECTION BOX - BLUE BOX", "note": "ON 12/24 AND 12/31, THIS BOX MAY BE COLLECTED AS EARLY AS 12 NOON.", "nsi_id": "unitedstatespostalservice-a77078", "operator": "United States Postal Service", "operator:short": "USPS", "operator:type": "public", "operator:wikidata": "Q668687", "ref": "9846600013"}, "type": "Feature"}
{"dataset_attributes": {"@spider": "usps_collection_boxes", "spider:collection_time": "2023-09-07T08:24:46.282741"}, "geometry": {"coordinates": [-122.538977, 47.222259], "type": "Point"}, "id": "D7Wl6GVk4phCX-BGVQdHsVEus-8=", "properties": {"@spider": "usps_collection_boxes", "addr:city": "UNIVERSITY PL", "addr:country": "US", "addr:full": "3830 BRIDGEPORT WAY W", "addr:postcode": "98466", "addr:state": "WA", "amenity": "post_box", "brand": "United States Postal Service", "brand:wikidata": "Q668687", "collection_times": "Mo-Fr 15:45; Sa 15:30", "name": "USPS COLLECTION BOX - BLUE BOX", "note": "ON 12/24 AND 12/31, THIS BOX MAY BE COLLECTED AS EARLY AS 12 NOON.", "nsi_id": "unitedstatespostalservice-a77078", "operator": "United States Postal Service", "operator:short": "USPS", "operator:type": "public", "operator:wikidata": "Q668687", "ref": "9846600019"}, "type": "Feature"}
{"dataset_attributes": {"@spider": "usps_collection_boxes", "spider:collection_time": "2023-09-07T08:24:46.282741"}, "geometry": {"coordinates": [-122.52914, 47.242966], "type": "Point"}, "id": "jDiEU8Rxis_gkVh13euUZ4YYuEE=", "properties": {"@spider": "usps_collection_boxes", "addr:city": "UNIVERSITY PL", "addr:country": "US", "addr:full": "6909 S 19TH ST", "addr:postcode": "98466", "addr:state": "WA", "amenity": "post_box", "brand": "United States Postal Service", "brand:wikidata": "Q668687", "collection_times": "Mo-Fr 13:15; Sa 15:00", "name": "USPS COLLECTION BOX - BLUE BOX", "note": "ON 12/24 AND 12/31, THIS BOX MAY BE COLLECTED AS EARLY AS 12 NOON.", "nsi_id": "unitedstatespostalservice-a77078", "operator": "United States Postal Service", "operator:short": "USPS", "operator:type": "public", "operator:wikidata": "Q668687", "ref": "9846600024"}, "type": "Feature"}
{"dataset_attributes": {"@spider": "usps_collection_boxes", "spider:collection_time": "2023-09-07T08:24:46.282741"}, "geometry": {"coordinates": [-122.506252, 47.232733], "type": "Point"}, "id": "WGIOwPLjW-WwtEGFS9YUx04hurY=", "properties": {"@spider": "usps_collection_boxes", "addr:city": "UNIVERSITY PL", "addr:country": "US", "addr:full": "115 CORNELL ST", "addr:postcode": "98466", "addr:state": "WA", "amenity": "post_box", "brand": "United States Postal Service", "brand:wikidata": "Q668687", "collection_times": "Mo-Fr 16:30; Sa 16:15", "name": "USPS COLLECTION BOX - BLUE BOX", "note": "ON 12/24 AND 12/31, THIS BOX MAY BE COLLECTED AS EARLY AS 12 NOON.", "nsi_id": "unitedstatespostalservice-a77078", "operator": "United States Postal Service", "operator:short": "USPS", "operator:type": "public", "operator:wikidata": "Q668687", "ref": "9846600025"}, "type": "Feature"}
{"dataset_attributes": {"@spider": "usps_collection_boxes", "spider:collection_time": "2023-09-07T08:24:46.282741"}, "geometry": {"coordinates": [-122.5287690025, 47.2360050013], "type": "Point"}, "id": "kpeWXMEr6rPwjDn0VulRo4fAaW0=", "properties": {"@spider": "usps_collection_boxes", "addr:city": "UNIVERSITY PL", "addr:country": "US", "addr:full": "6817 27TH ST W", "addr:postcode": "98466", "addr:state": "WA", "amenity": "post_box", "brand": "United States Postal Service", "brand:wikidata": "Q668687", "collection_times": "Mo-Fr 17:00; Sa 16:00", "name": "USPS COLLECTION BOX - BLUE BOX", "note": "ON 12/24 AND 12/31, THIS BOX MAY BE COLLECTED AS EARLY AS 12 NOON.", "nsi_id": "unitedstatespostalservice-a77078", "operator": "United States Postal Service", "operator:short": "USPS", "operator:type": "public", "operator:wikidata": "Q668687", "ref": "9846600027"}, "type": "Feature"}
{"dataset_attributes": {"@spider": "usps_collection_boxes", "spider:collection_time": "2023-09-07T08:24:46.282741"}, "geometry": {"coordinates": [-122.5355561804, 47.2262337076], "type": "Point"}, "id": "CwMqcf0J6O7gAkD40bBY-rNnl5s=", "properties": {"@spider": "usps_collection_boxes", "addr:city": "UNIVERSITY PL", "addr:country": "US", "addr:full": "3612 DREXLER DR", "addr:postcode": "98466", "addr:state": "WA", "amenity": "post_box", "brand": "United States Postal Service", "brand:wikidata": "Q668687", "collection_times": "Mo-Fr 16:00; Sa 15:45", "name": "USPS COLLECTION BOX - BLUE BOX", "note": "ON 12/24 AND 12/31, THIS BOX MAY BE COLLECTED AS EARLY AS 12 NOON.", "nsi_id": "unitedstatespostalservice-a77078", "operator": "United States Postal Service", "operator:short": "USPS", "operator:type": "public", "operator:wikidata": "Q668687", "ref": "9846600031"}, "type": "Feature"}
{"dataset_attributes": {"@spider": "usps_collection_boxes", "spider:collection_time": "2023-09-07T08:24:46.282741"}, "geometry": {"coordinates": [-122.528341, 47.235564], "type": "Point"}, "id": "mXQJx8c2Hrb4_B7F4qyxM0Ina9c=", "properties": {"@spider": "usps_collection_boxes", "addr:city": "UNIVERSITY PL", "addr:country": "US", "addr:full": "6817 27TH ST W", "addr:postcode": "98466", "addr:state": "WA", "amenity": "post_box", "brand": "United States Postal Service", "brand:wikidata": "Q668687", "collection_times": "Mo-Fr 18:00; Sa 15:00", "name": "USPS COLLECTION BOX - PO LOBBY", "note": "ON 12/24 AND 12/31, THIS BOX MAY BE COLLECTED AS EARLY AS 12 NOON.", "nsi_id": "unitedstatespostalservice-a77078", "operator": "United States Postal Service", "operator:short": "USPS", "operator:type": "public", "operator:wikidata": "Q668687", "ref": "9846600032"}, "type": "Feature"}
{"dataset_attributes": {"@spider": "usps_collection_boxes", "spider:collection_time": "2023-09-07T08:24:46.282741"}, "geometry": {"coordinates": [-122.528341, 47.235564], "type": "Point"}, "id": "IRbk_zX0kOctp9kCmGIAiBc6tJA=", "properties": {"@spider": "usps_collection_boxes", "addr:city": "UNIVERSITY PL", "addr:country": "US", "addr:full": "6817 27TH ST W", "addr:postcode": "98466", "addr:state": "WA", "amenity": "post_box", "brand": "United States Postal Service", "brand:wikidata": "Q668687", "collection_times": "Mo-Fr 18:00; Sa 15:00", "name": "USPS COLLECTION BOX - APC", "note": "ON 12/24 AND 12/31, THIS BOX MAY BE COLLECTED AS EARLY AS 12 NOON.", "nsi_id": "unitedstatespostalservice-a77078", "operator": "United States Postal Service", "operator:short": "USPS", "operator:type": "public", "operator:wikidata": "Q668687", "ref": "9846600033"}, "type": "Feature"}
{"dataset_attributes": {"@spider": "usps_collection_boxes", "spider:collection_time": "2023-09-07T08:24:46.282741"}, "geometry": {"coordinates": [-122.528341, 47.235564], "type": "Point"}, "id": "wuaqyMJCsg_JpHSwegRDoNMiWA8=", "properties": {"@spider": "usps_collection_boxes", "addr:city": "UNIVERSITY PL", "addr:country": "US", "addr:full": "6817 27TH ST W", "addr:postcode": "98466", "addr:state": "WA", "amenity": "post_box", "brand": "United States Postal Service", "brand:wikidata": "Q668687", "collection_times": "Mo-Fr 18:00; Sa 15:00", "name": "USPS COLLECTION BOX - PO LOBBY", "note": "ON 12/24 AND 12/31, THIS BOX MAY BE COLLECTED AS EARLY AS 12 NOON.", "nsi_id": "unitedstatespostalservice-a77078", "operator": "United States Postal Service", "operator:short": "USPS", "operator:type": "public", "operator:wikidata": "Q668687", "ref": "9846600035"}, "type": "Feature"}
{"dataset_attributes": {"@spider": "usps_collection_boxes", "spider:collection_time": "2023-09-07T08:24:46.282741"}, "geometry": {"coordinates": [-122.527718, 47.236231], "type": "Point"}, "id": "dhIsWrDFsgkD0kNCaj8mrJVYFXY=", "properties": {"@spider": "usps_collection_boxes", "addr:city": "UNIVERSITY PL", "addr:country": "US", "addr:full": "6817 27TH ST W", "addr:postcode": "98466", "addr:state": "WA", "amenity": "post_box", "brand": "United States Postal Service", "brand:wikidata": "Q668687", "collection_times": "Mo-Fr 17:00; Sa 16:00", "name": "USPS COLLECTION BOX - BLUE BOX", "note": "ON 12/24 AND 12/31, THIS BOX MAY BE COLLECTED AS EARLY AS 12 NOON.", "nsi_id": "unitedstatespostalservice-a77078", "operator": "United States Postal Service", "operator:short": "USPS", "operator:type": "public", "operator:wikidata": "Q668687", "ref": "9846600037"}, "type": "Feature"}
{"dataset_attributes": {"@spider": "usps_collection_boxes", "spider:collection_time": "2023-09-07T08:24:46.282741"}, "geometry": {"coordinates": [-122.52822201, 47.235623872], "type": "Point"}, "id": "GdrtkWmpdB4JEmVBDwuvusKnXko=", "properties": {"@spider": "usps_collection_boxes", "addr:city": "UNIVERSITY PL", "addr:country": "US", "addr:full": "6817 27TH ST W", "addr:postcode": "98466", "addr:state": "WA", "amenity": "post_box", "brand": "United States Postal Service", "brand:wikidata": "Q668687", "collection_times": "Mo-Fr 17:00; Sa 15:00", "name": "USPS COLLECTION BOX - PO LOBBY", "note": "ON 12/24 AND 12/31, THIS BOX MAY BE COLLECTED AS EARLY AS 12 NOON.", "nsi_id": "unitedstatespostalservice-a77078", "operator": "United States Postal Service", "operator:short": "USPS", "operator:type": "public", "operator:wikidata": "Q668687", "ref": "9846600039"}, "type": "Feature"}
{"dataset_attributes": {"@spider": "usps_collection_boxes", "spider:collection_time": "2023-09-07T08:24:46.282741"}, "geometry": {"coordinates": [-122.5099, 47.191142], "type": "Point"}, "id": "WTUIh9eTaz-s8rHjdPcPPUjAKtM=", "properties": {"@spider": "usps_collection_boxes", "addr:city": "LAKEWOOD", "addr:country": "US", "addr:full": "7304 LAKEWOOD DR W", "addr:postcode": "98467", "addr:state": "WA", "amenity": "post_box", "brand": "United States Postal Service", "brand:wikidata": "Q668687", "collection_times": "Mo-Fr 15:45; Sa 13:30", "name": "USPS COLLECTION BOX - BLUE BOX", "note": "ON 12/24 AND 12/31, THIS BOX MAY BE COLLECTED AS EARLY AS 12 NOON.", "nsi_id": "unitedstatespostalservice-a77078", "operator": "United States Postal Service", "operator:short": "USPS", "operator:type": "public", "operator:wikidata": "Q668687", "ref": "9846700006"}, "type": "Feature"}
{"dataset_attributes": {"@spider": "usps_collection_boxes", "spider:collection_time": "2023-09-07T08:24:46.282741"}, "geometry": {"coordinates": [-122.506073, 47.206767], "type": "Point"}, "id": "NxXnA4m2ZjJ3FTtOlTQjBGmNk-4=", "properties": {"@spider": "usps_collection_boxes", "addr:city": "LAKEWOOD", "addr:country": "US", "addr:full": "5510 ORCHARD ST W", "addr:postcode": "98467", "addr:state": "WA", "amenity": "post_box", "brand": "United States Postal Service", "brand:wikidata": "Q668687", "collection_times": "Mo-Fr 17:00; Sa 15:15", "name": "USPS COLLECTION BOX - BLUE BOX", "note": "ON 12/24 AND 12/31, THIS BOX MAY BE COLLECTED AS EARLY AS 12 NOON.", "nsi_id": "unitedstatespostalservice-a77078", "operator": "United States Postal Service", "operator:short": "USPS", "operator:type": "public", "operator:wikidata": "Q668687", "ref": "9846700008"}, "type": "Feature"}
{"dataset_attributes": {"@spider": "usps_collection_boxes", "spider:collection_time": "2023-09-07T08:24:46.282741"}, "geometry": {"coordinates": [-122.5435467342, 47.1800145678], "type": "Point"}, "id": "tnP6lzLq4pDIzC3AMmTF55n6f1U=", "properties": {"@spider": "usps_collection_boxes", "addr:city": "TACOMA", "addr:country": "US", "addr:full": "8017 STEILACOOM BLVD SW", "addr:postcode": "98498", "addr:state": "WA", "amenity": "post_box", "brand": "United States Postal Service", "brand:wikidata": "Q668687", "collection_times": "Mo-Fr 16:00; Sa 15:45", "name": "USPS COLLECTION BOX - BLUE BOX", "note": "ON 12/24 AND 12/31, THIS BOX MAY BE COLLECTED AS EARLY AS 12 NOON.", "nsi_id": "unitedstatespostalservice-a77078", "operator": "United States Postal Service", "operator:short": "USPS", "operator:type": "public", "operator:wikidata": "Q668687", "ref": "9849800000"}, "type": "Feature"}
{"dataset_attributes": {"@spider": "usps_collection_boxes", "spider:collection_time": "2023-09-07T08:24:46.282741"}, "geometry": {"coordinates": [-122.553907, 47.123526], "type": "Point"}, "id": "iQubQugN3sYP4ZeJkFoyHNNum1I=", "properties": {"@spider": "usps_collection_boxes", "addr:city": "TACOMA", "addr:country": "US", "addr:full": "14916 WASHINGTON AVE SW", "addr:postcode": "98498", "addr:state": "WA", "amenity": "post_box", "brand": "United States Postal Service", "brand:wikidata": "Q668687", "collection_times": "Mo-Sa 10:00", "name": "USPS COLLECTION BOX - BLUE BOX", "nsi_id": "unitedstatespostalservice-a77078", "operator": "United States Postal Service", "operator:short": "USPS", "operator:type": "public", "operator:wikidata": "Q668687", "ref": "9849800007"}, "type": "Feature"}
{"dataset_attributes": {"@spider": "usps_collection_boxes", "spider:collection_time": "2023-09-07T08:24:46.282741"}, "geometry": {"coordinates": [-122.565411, 47.177539], "type": "Point"}, "id": "pOWA5f97ZoHguTrVYyGGHZF8gWo=", "properties": {"@spider": "usps_collection_boxes", "addr:city": "TACOMA", "addr:country": "US", "addr:full": "9601 STEILACOOM BLVD SW", "addr:postcode": "98498", "addr:state": "WA", "amenity": "post_box", "brand": "United States Postal Service", "brand:wikidata": "Q668687", "collection_times": "Mo-Fr 15:00; Sa 13:45", "name": "USPS COLLECTION BOX - BLUE BOX", "note": "ON 12/24 AND 12/31, THIS BOX MAY BE COLLECTED AS EARLY AS 12 NOON.", "nsi_id": "unitedstatespostalservice-a77078", "operator": "United States Postal Service", "operator:short": "USPS", "operator:type": "public", "operator:wikidata": "Q668687", "ref": "9849800008"}, "type": "Feature"}
{"dataset_attributes": {"@spider": "usps_collection_boxes", "spider:collection_time": "2023-09-07T08:24:46.282741"}, "geometry": {"coordinates": [-122.5592979894, 47.1439090078], "type": "Point"}, "id": "9j4mPsIulXgCWR2cGoXB-iy0dzE=", "properties": {"@spider": "usps_collection_boxes", "addr:city": "TACOMA", "addr:country": "US", "addr:full": "9126 VETERANS DR SW", "addr:postcode": "98498", "addr:state": "WA", "amenity": "post_box", "brand": "United States Postal Service", "brand:wikidata": "Q668687", "collection_times": "Mo-Sa 10:00", "name": "USPS COLLECTION BOX - BLUE BOX", "nsi_id": "unitedstatespostalservice-a77078", "operator": "United States Postal Service", "operator:short": "USPS", "operator:type": "public", "operator:wikidata": "Q668687", "ref": "9849800010"}, "type": "Feature"}
{"dataset_attributes": {"@spider": "usps_collection_boxes", "spider:collection_time": "2023-09-07T08:24:46.282741"}, "geometry": {"coordinates": [-122.577441, 47.130833], "type": "Point"}, "id": "UsccRRb812kYj1VdIB5bW4Jx7xw=", "properties": {"@spider": "usps_collection_boxes", "addr:city": "TACOMA", "addr:country": "US", "addr:full": "9600 VETERANS DR SW", "addr:postcode": "98498", "addr:state": "WA", "amenity": "post_box", "brand": "United States Postal Service", "brand:wikidata": "Q668687", "collection_times": "Mo-Fr 13:00", "name": "USPS COLLECTION BOX - BLUE BOX", "note": "ON 12/24 AND 12/31, THIS BOX MAY BE COLLECTED AS EARLY AS 12 NOON.", "nsi_id": "unitedstatespostalservice-a77078", "operator": "United States Postal Service", "operator:short": "USPS", "operator:type": "public", "operator:wikidata": "Q668687", "ref": "9849800011"}, "type": "Feature"}
{"dataset_attributes": {"@spider": "usps_collection_boxes", "spider:collection_time": "2023-09-07T08:24:46.282741"}, "geometry": {"coordinates": [-122.504773, 47.155586], "type": "Point"}, "id": "-W7jFhIRcIN8Ka8Fv6idZGWKb4Q=", "properties": {"@spider": "usps_collection_boxes", "addr:city": "TACOMA", "addr:country": "US", "addr:full": "11202 BRIDGEPORT WAY SW", "addr:postcode": "98499", "addr:state": "WA", "amenity": "post_box", "brand": "United States Postal Service", "brand:wikidata": "Q668687", "collection_times": "Mo-Sa 10:30", "name": "USPS COLLECTION BOX - BLUE BOX", "nsi_id": "unitedstatespostalservice-a77078", "operator": "United States Postal Service", "operator:short": "USPS", "operator:type": "public", "operator:wikidata": "Q668687", "ref": "9849900013"}, "type": "Feature"}
{"dataset_attributes": {"@spider": "usps_collection_boxes", "spider:collection_time": "2023-09-07T08:24:46.282741"}, "geometry": {"coordinates": [-122.503523, 47.154702], "type": "Point"}, "id": "Wuk8s24RK5r2aC4TU_pcl3Tvn_E=", "properties": {"@spider": "usps_collection_boxes", "addr:city": "TACOMA", "addr:country": "US", "addr:full": "11315 BRIDGEPORT WAY SW", "addr:postcode": "98499", "addr:state": "WA", "amenity": "post_box", "brand": "United States Postal Service", "brand:wikidata": "Q668687", "collection_times": "Mo-Sa 09:30", "name": "USPS COLLECTION BOX - BLUE BOX", "nsi_id": "unitedstatespostalservice-a77078", "operator": "United States Postal Service", "operator:short": "USPS", "operator:type": "public", "operator:wikidata": "Q668687", "ref": "9849900016"}, "type": "Feature"}
{"dataset_attributes": {"@spider": "usps_collection_boxes", "spider:collection_time": "2023-09-07T08:24:46.282741"}, "geometry": {"coordinates": [-122.50261, 47.1397], "type": "Point"}, "id": "sP4hl_uoLn1LSwt3J0HMoh0sLEs=", "properties": {"@spider": "usps_collection_boxes", "addr:city": "TACOMA", "addr:country": "US", "addr:full": "12928 BRIDGEPORT WAY SW", "addr:postcode": "98499", "addr:state": "WA", "amenity": "post_box", "brand": "United States Postal Service", "brand:wikidata": "Q668687", "collection_times": "Mo-Sa 10:30", "name": "USPS COLLECTION BOX - BLUE BOX", "nsi_id": "unitedstatespostalservice-a77078", "operator": "United States Postal Service", "operator:short": "USPS", "operator:type": "public", "operator:wikidata": "Q668687", "ref": "9849900017"}, "type": "Feature"}
{"dataset_attributes": {"@spider": "usps_collection_boxes", "spider:collection_time": "2023-09-07T08:24:46.282741"}, "geometry": {"coordinates": [-122.519156, 47.170755], "type": "Point"}, "id": "5hAjl8XFnE_rXoOEWWuCEuHDgu0=", "properties": {"@spider": "usps_collection_boxes", "addr:city": "TACOMA", "addr:country": "US", "addr:full": "9533 GRAVELLY LAKE DR SW", "addr:postcode": "98499", "addr:state": "WA", "amenity": "post_box", "brand": "United States Postal Service", "brand:wikidata": "Q668687", "collection_times": "Mo-Sa 12:00", "name": "USPS COLLECTION BOX - BLUE BOX", "nsi_id": "unitedstatespostalservice-a77078", "operator": "United States Postal Service", "operator:short": "USPS", "operator:type": "public", "operator:wikidata": "Q668687", "ref": "9849900018"}, "type": "Feature"}
{"dataset_attributes": {"@spider": "usps_collection_boxes", "spider:collection_time": "2023-09-07T08:24:46.282741"}, "geometry": {"coordinates": [-122.4814890337, 47.1656540116], "type": "Point"}, "id": "BQUFpwGOX_UwBPrkLaziF4EB0Zc=", "properties": {"@spider": "usps_collection_boxes", "addr:city": "TACOMA", "addr:country": "US", "addr:full": "10107 SOUTH TACOMA WAY", "addr:postcode": "98499", "addr:state": "WA", "amenity": "post_box", "brand": "United States Postal Service", "brand:wikidata": "Q668687", "collection_times": "Mo-Sa 10:00", "name": "USPS COLLECTION BOX - BLUE BOX", "nsi_id": "unitedstatespostalservice-a77078", "operator": "United States Postal Service", "operator:short": "USPS", "operator:type": "public", "operator:wikidata": "Q668687", "ref": "9849900026"}, "type": "Feature"}
{"dataset_attributes": {"@spider": "usps_collection_boxes", "spider:collection_time": "2023-09-07T08:24:46.282741"}, "geometry": {"coordinates": [-122.497866, 47.176259], "type": "Point"}, "id": "WetCFIn5W2nm2ptqewAms4v1pDk=", "properties": {"@spider": "usps_collection_boxes", "addr:city": "TACOMA", "addr:country": "US", "addr:full": "4500 STEILACOOM BLVD SW", "addr:postcode": "98499", "addr:state": "WA", "amenity": "post_box", "brand": "United States Postal Service", "brand:wikidata": "Q668687", "collection_times": "Mo-Sa 10:00", "name": "USPS COLLECTION BOX - BLUE BOX", "nsi_id": "unitedstatespostalservice-a77078", "operator": "United States Postal Service", "operator:short": "USPS", "operator:type": "public", "operator:wikidata": "Q668687", "ref": "9849900027"}, "type": "Feature"}
{"dataset_attributes": {"@spider": "usps_collection_boxes", "spider:collection_time": "2023-09-07T08:24:46.282741"}, "geometry": {"coordinates": [-122.483903, 47.184436], "type": "Point"}, "id": "hv_V3p48uD_duBLR1gg_rFsfueQ=", "properties": {"@spider": "usps_collection_boxes", "addr:city": "TACOMA", "addr:country": "US", "addr:full": "8012 SOUTH TACOMA WAY", "addr:postcode": "98499", "addr:state": "WA", "amenity": "post_box", "brand": "United States Postal Service", "brand:wikidata": "Q668687", "collection_times": "Mo-Fr 12:00; Sa 11:30", "name": "USPS COLLECTION BOX - BLUE BOX", "nsi_id": "unitedstatespostalservice-a77078", "operator": "United States Postal Service", "operator:short": "USPS", "operator:type": "public", "operator:wikidata": "Q668687", "ref": "9849900033"}, "type": "Feature"}
{"dataset_attributes": {"@spider": "usps_collection_boxes", "spider:collection_time": "2023-09-07T08:24:46.282741"}, "geometry": {"coordinates": [-122.482783, 47.177715], "type": "Point"}, "id": "rw7RfuaNf8T_CB6vzWWKoxF3afQ=", "properties": {"@spider": "usps_collection_boxes", "addr:city": "TACOMA", "addr:country": "US", "addr:full": "8797 SOUTH TACOMA WAY", "addr:postcode": "98499", "addr:state": "WA", "amenity": "post_box", "brand": "United States Postal Service", "brand:wikidata": "Q668687", "collection_times": "Mo-Sa 11:00", "name": "USPS COLLECTION BOX - BLUE BOX", "nsi_id": "unitedstatespostalservice-a77078", "operator": "United States Postal Service", "operator:short": "USPS", "operator:type": "public", "operator:wikidata": "Q668687", "ref": "9849900034"}, "type": "Feature"}
{"dataset_attributes": {"@spider": "usps_collection_boxes", "spider:collection_time": "2023-09-07T08:24:46.282741"}, "geometry": {"coordinates": [-122.499986, 47.168485], "type": "Point"}, "id": "I9ulLVRwj0kzmtsKV79A2KnrNec=", "properties": {"@spider": "usps_collection_boxes", "addr:city": "TACOMA", "addr:country": "US", "addr:full": "4700 100TH ST SW", "addr:postcode": "98499", "addr:state": "WA", "amenity": "post_box", "brand": "United States Postal Service", "brand:wikidata": "Q668687", "collection_times": "Mo-Fr 16:30; Sa 15:15", "name": "USPS COLLECTION BOX - BLUE BOX", "note": "ON 12/24 AND 12/31, THIS BOX MAY BE COLLECTED AS EARLY AS 12 NOON.", "nsi_id": "unitedstatespostalservice-a77078", "operator": "United States Postal Service", "operator:short": "USPS", "operator:type": "public", "operator:wikidata": "Q668687", "ref": "9849900043"}, "type": "Feature"}
{"dataset_attributes": {"@spider": "usps_collection_boxes", "spider:collection_time": "2023-09-07T08:24:46.282741"}, "geometry": {"coordinates": [-122.50862, 47.16689], "type": "Point"}, "id": "0uXg_-ymOKen_Uimtdw1vMerbx8=", "properties": {"@spider": "usps_collection_boxes", "addr:city": "TACOMA", "addr:country": "US", "addr:full": "5409 100TH ST SW", "addr:postcode": "98499", "addr:state": "WA", "amenity": "post_box", "brand": "United States Postal Service", "brand:wikidata": "Q668687", "collection_times": "Mo-Fr 17:00; Sa 16:00", "name": "USPS COLLECTION BOX - BLUE BOX", "note": "ON 12/24 AND 12/31, THIS BOX MAY BE COLLECTED AS EARLY AS 12 NOON.", "nsi_id": "unitedstatespostalservice-a77078", "operator": "United States Postal Service", "operator:short": "USPS", "operator:type": "public", "operator:wikidata": "Q668687", "ref": "9849900053"}, "type": "Feature"}
{"dataset_attributes": {"@spider": "usps_collection_boxes", "spider:collection_time": "2023-09-07T08:24:46.282741"}, "geometry": {"coordinates": [-122.5204020192, 47.1707000011], "type": "Point"}, "id": "xTduie5pbDkKlsqRLs-UhzXDtg8=", "properties": {"@spider": "usps_collection_boxes", "addr:city": "TACOMA", "addr:country": "US", "addr:full": "6132 MOTOR AVE SW", "addr:postcode": "98499", "addr:state": "WA", "amenity": "post_box", "brand": "United States Postal Service", "brand:wikidata": "Q668687", "collection_times": "Mo-Sa 12:15", "name": "USPS COLLECTION BOX - BLUE BOX", "note": "ON 12/24 AND 12/31, THIS BOX MAY BE COLLECTED AS EARLY AS 12 NOON.", "nsi_id": "unitedstatespostalservice-a77078", "operator": "United States Postal Service", "operator:short": "USPS", "operator:type": "public", "operator:wikidata": "Q668687", "ref": "9849900059"}, "type": "Feature"}
{"dataset_attributes": {"@spider": "usps_collection_boxes", "spider:collection_time": "2023-09-07T08:24:46.282741"}, "geometry": {"coordinates": [-122.5201270089, 47.164261987], "type": "Point"}, "id": "IPtdABsSr6tYQYfaW0CBQHAepwM=", "properties": {"@spider": "usps_collection_boxes", "addr:city": "TACOMA", "addr:country": "US", "addr:full": "10225 GRAVELLY LAKE DR SW", "addr:postcode": "98499", "addr:state": "WA", "amenity": "post_box", "brand": "United States Postal Service", "brand:wikidata": "Q668687", "collection_times": "Mo-Sa 13:15", "name": "USPS COLLECTION BOX - BLUE BOX", "note": "ON 12/24 AND 12/31, THIS BOX MAY BE COLLECTED AS EARLY AS 12 NOON.", "nsi_id": "unitedstatespostalservice-a77078", "operator": "United States Postal Service", "operator:short": "USPS", "operator:type": "public", "operator:wikidata": "Q668687", "ref": "9849900065"}, "type": "Feature"}
{"dataset_attributes": {"@spider": "usps_collection_boxes", "spider:collection_time": "2023-09-07T08:24:46.282741"}, "geometry": {"coordinates": [-122.520243, 47.163769], "type": "Point"}, "id": "edi9-D3lEwNoPfk5Ziz95B2S9yY=", "properties": {"@spider": "usps_collection_boxes", "addr:city": "TACOMA", "addr:country": "US", "addr:full": "10225 GRAVELLY LAKE DR SW", "addr:postcode": "98499", "addr:state": "WA", "amenity": "post_box", "brand": "United States Postal Service", "brand:wikidata": "Q668687", "collection_times": "Mo-Sa 13:15", "name": "USPS COLLECTION BOX - BLUE BOX", "note": "ON 12/24 AND 12/31, THIS BOX MAY BE COLLECTED AS EARLY AS 12 NOON.", "nsi_id": "unitedstatespostalservice-a77078", "operator": "United States Postal Service", "operator:short": "USPS", "operator:type": "public", "operator:wikidata": "Q668687", "ref": "9849900066"}, "type": "Feature"}
{"dataset_attributes": {"@spider": "usps_collection_boxes", "spider:collection_time": "2023-09-07T08:24:46.282741"}, "geometry": {"coordinates": [-122.509661, 47.167969], "type": "Point"}, "id": "QVLaO7fz4_SZ8sN62-l1U9725nM=", "properties": {"@spider": "usps_collection_boxes", "addr:city": "TACOMA", "addr:country": "US", "addr:full": "5409 100TH ST SW", "addr:postcode": "98499", "addr:state": "WA", "amenity": "post_box", "brand": "United States Postal Service", "brand:wikidata": "Q668687", "collection_times": "Mo-Fr 17:45; Sa 14:45", "name": "USPS COLLECTION BOX - PO LOBBY", "note": "ON 12/24 AND 12/31, THIS BOX MAY BE COLLECTED AS EARLY AS 12 NOON.", "nsi_id": "unitedstatespostalservice-a77078", "operator": "United States Postal Service", "operator:short": "USPS", "operator:type": "public", "operator:wikidata": "Q668687", "ref": "9849900070"}, "type": "Feature"}
{"dataset_attributes": {"@spider": "usps_collection_boxes", "spider:collection_time": "2023-09-07T08:24:46.282741"}, "geometry": {"coordinates": [-122.515392, 47.161206], "type": "Point"}, "id": "HyHbaE8pkMGcjDxMR2kjaWs0_eI=", "properties": {"@spider": "usps_collection_boxes", "addr:city": "TACOMA", "addr:country": "US", "addr:full": "6000 MAIN ST SW", "addr:postcode": "98499", "addr:state": "WA", "amenity": "post_box", "brand": "United States Postal Service", "brand:wikidata": "Q668687", "collection_times": "Mo-Fr 16:30; Sa 14:45", "name": "USPS COLLECTION BOX - BLUE BOX", "note": "ON 12/24 AND 12/31, THIS BOX MAY BE COLLECTED AS EARLY AS 12 NOON.", "nsi_id": "unitedstatespostalservice-a77078", "operator": "United States Postal Service", "operator:short": "USPS", "operator:type": "public", "operator:wikidata": "Q668687", "ref": "9849900073"}, "type": "Feature"}
{"dataset_attributes": {"@spider": "usps_collection_boxes", "spider:collection_time": "2023-09-07T08:24:46.282741"}, "geometry": {"coordinates": [-122.509165523, 47.166734034], "type": "Point"}, "id": "Zvh-qvsXYTC6Fz6mvdUW6srvlak=", "properties": {"@spider": "usps_collection_boxes", "addr:city": "TACOMA", "addr:country": "US", "addr:full": "5409 100TH ST SW", "addr:postcode": "98499", "addr:state": "WA", "amenity": "post_box", "brand": "United States Postal Service", "brand:wikidata": "Q668687", "collection_times": "Mo-Fr 17:45; Sa 14:45", "name": "USPS COLLECTION BOX - APC", "note": "ON 12/24 AND 12/31, THIS BOX MAY BE COLLECTED AS EARLY AS 12 NOON.", "nsi_id": "unitedstatespostalservice-a77078", "operator": "United States Postal Service", "operator:short": "USPS", "operator:type": "public", "operator:wikidata": "Q668687", "ref": "9849900074"}, "type": "Feature"}
{"dataset_attributes": {"@spider": "usps_collection_boxes", "spider:collection_time": "2023-09-07T08:24:46.282741"}, "geometry": {"coordinates": [-122.50917, 47.1667352747], "type": "Point"}, "id": "rY-uBUnxqAdhHebrbFgyAAGS2S8=", "properties": {"@spider": "usps_collection_boxes", "addr:city": "TACOMA", "addr:country": "US", "addr:full": "5409 100TH ST SW", "addr:postcode": "98499", "addr:state": "WA", "amenity": "post_box", "brand": "United States Postal Service", "brand:wikidata": "Q668687", "collection_times": "Mo-Fr 17:45; Sa 14:45", "name": "USPS COLLECTION BOX - APC", "note": "ON 12/24 AND 12/31, THIS BOX MAY BE COLLECTED AS EARLY AS 12 NOON.", "nsi_id": "unitedstatespostalservice-a77078", "operator": "United States Postal Service", "operator:short": "USPS", "operator:type": "public", "operator:wikidata": "Q668687", "ref": "9849900076"}, "type": "Feature"}
{"dataset_attributes": {"@spider": "usps_collection_boxes", "spider:collection_time": "2023-09-07T08:24:46.282741"}, "geometry": {"coordinates": [-122.509165773, 47.166724792], "type": "Point"}, "id": "Fnqk77JrS7zoNSWSDoTPCzns99o=", "properties": {"@spider": "usps_collection_boxes", "addr:city": "TACOMA", "addr:country": "US", "addr:full": "5409 100TH ST SW", "addr:postcode": "98499", "addr:state": "WA", "amenity": "post_box", "brand": "United States Postal Service", "brand:wikidata": "Q668687", "collection_times": "Mo-Fr 17:00; Sa 15:00", "name": "USPS COLLECTION BOX - PO LOBBY", "note": "ON 12/24 AND 12/31, THIS BOX MAY BE COLLECTED AS EARLY AS 12 NOON.", "nsi_id": "unitedstatespostalservice-a77078", "operator": "United States Postal Service", "operator:short": "USPS", "operator:type": "public", "operator:wikidata": "Q668687", "ref": "9849900080"}, "type": "Feature"}
