{"geometry": {"coordinates": [-122.830046, 47.381376], "type": "Point"}, "id": "M2vg_4utP-ILBRsSCv3So_yuKYE=", "properties": {"@spider": "usps_collection_boxes", "addr:city": "ALLYN", "addr:country": "US", "addr:full": "18329 E STATE ROUTE 3", "addr:postcode": "98524", "addr:state": "WA", "brand": "USPS", "collection_times": "Mo-Fr 13:30; Sa 09:45", "name": "USPS COLLECTION BOX - BLUE BOX", "note": "ON 12/24 AND 12/31, THIS BOX MAY BE COLLECTED AS EARLY AS 12 NOON.", "ref": "9852400001"}, "type": "Feature"}
{"geometry": {"coordinates": [-122.829972, 47.381444], "type": "Point"}, "id": "lNGOFfoVgv9QeP09tot8iChd-xE=", "properties": {"@spider": "usps_collection_boxes", "addr:city": "ALLYN", "addr:country": "US", "addr:full": "18329 E STATE ROUTE 3", "addr:postcode": "98524", "addr:state": "WA", "brand": "USPS", "collection_times": "Mo-Fr 13:30; Sa 10:00", "name": "USPS COLLECTION BOX - PO LOBBY", "note": "ON 12/24 AND 12/31, THIS BOX MAY BE COLLECTED AS EARLY AS 12 NOON.", "ref": "9852400002"}, "type": "Feature"}
{"geometry": {"coordinates": [-122.829972, 47.381444], "type": "Point"}, "id": "ZF-KGc4IG4dJ8ZgKyDsL6A5IcMM=", "properties": {"@spider": "usps_collection_boxes", "addr:city": "ALLYN", "addr:country": "US", "addr:full": "18329 E STATE ROUTE 3", "addr:postcode": "98524", "addr:state": "WA", "brand": "USPS", "collection_times": "Mo-Fr 13:30; Sa 10:00", "name": "USPS COLLECTION BOX - PO LOBBY", "note": "ON 12/24 AND 12/31, THIS BOX MAY BE COLLECTED AS EARLY AS 12 NOON.", "ref": "9852400003"}, "type": "Feature"}
{"geometry": {"coordinates": [-122.830325673, 47.380790901], "type": "Point"}, "id": "o7pWDJfHcFe5gtl27er1srqQXBU=", "properties": {"@spider": "usps_collection_boxes", "addr:city": "ALLYN", "addr:country": "US", "addr:full": "18329 E STATE ROUTE 3", "addr:postcode": "98524", "addr:state": "WA", "brand": "USPS", "collection_times": "Mo-Fr 17:00", "name": "USPS COLLECTION BOX - PO LOBBY", "note": "ON 12/24 AND 12/31, THIS BOX MAY BE COLLECTED AS EARLY AS 12 NOON.", "ref": "9852400004"}, "type": "Feature"}
{"geometry": {"coordinates": [-123.954526, 46.630892], "type": "Point"}, "id": "eblY67J2b8Txby1vP4LDNkP2Ilk=", "properties": {"@spider": "usps_collection_boxes", "addr:city": "BAY CENTER", "addr:country": "US", "addr:full": "3 MAIN ST E", "addr:postcode": "98527", "addr:state": "WA", "brand": "USPS", "collection_times": "Mo-Fr 12:45; Sa 11:30", "name": "USPS COLLECTION BOX - BLUE BOX", "note": "ON 12/24 AND 12/31, THIS BOX MAY BE COLLECTED AS EARLY AS 12 NOON.", "ref": "9852700000"}, "type": "Feature"}
{"geometry": {"coordinates": [-123.954526, 46.630892], "type": "Point"}, "id": "7fOC4QXvKRCiOVUB02A2HuPPgoY=", "properties": {"@spider": "usps_collection_boxes", "addr:city": "BAY CENTER", "addr:country": "US", "addr:full": "3 MAIN ST E", "addr:postcode": "98527", "addr:state": "WA", "brand": "USPS", "collection_times": "Mo-Fr 12:45; Sa 11:30", "name": "USPS COLLECTION BOX - PO LOBBY", "note": "ON 12/24 AND 12/31, THIS BOX MAY BE COLLECTED AS EARLY AS 12 NOON.", "ref": "9852700001"}, "type": "Feature"}
{"geometry": {"coordinates": [-123.954630879, 46.630947234], "type": "Point"}, "id": "x5M7lCPHUVD7flpU8M7uIfkcYyU=", "properties": {"@spider": "usps_collection_boxes", "addr:city": "BAY CENTER", "addr:country": "US", "addr:full": "3 MAIN ST E", "addr:postcode": "98527", "addr:state": "WA", "brand": "USPS", "collection_times": "Mo-Fr 14:00; Sa 11:30", "name": "USPS COLLECTION BOX - PO LOBBY", "note": "ON 12/24 AND 12/31, THIS BOX MAY BE COLLECTED AS EARLY AS 12 NOON.", "ref": "9852700002"}, "type": "Feature"}
{"geometry": {"coordinates": [-122.818129, 47.455304], "type": "Point"}, "id": "yZxjbYJgKME-zw-qtBh76CUtKaQ=", "properties": {"@spider": "usps_collection_boxes", "addr:city": "BELFAIR", "addr:country": "US", "addr:full": "60 NE RIDGE POINT BLVD", "addr:postcode": "98528", "addr:state": "WA", "brand": "USPS", "collection_times": "Mo-Fr 13:15; Sa 13:00", "name": "USPS COLLECTION BOX - BLUE BOX", "note": "ON 12/24 AND 12/31, THIS BOX MAY BE COLLECTED AS EARLY AS 12 NOON.", "ref": "9852800002"}, "type": "Feature"}
{"geometry": {"coordinates": [-122.818087, 47.455321], "type": "Point"}, "id": "k08dmkndmQlpMdYTAioUHe3Z8MU=", "properties": {"@spider": "usps_collection_boxes", "addr:city": "BELFAIR", "addr:country": "US", "addr:full": "60 NE RIDGE POINT BLVD", "addr:postcode": "98528", "addr:state": "WA", "brand": "USPS", "collection_times": "Mo-Fr 13:15; Sa 12:00", "name": "USPS COLLECTION BOX - PO LOBBY", "note": "ON 12/24 AND 12/31, THIS BOX MAY BE COLLECTED AS EARLY AS 12 NOON.", "ref": "9852800004"}, "type": "Feature"}
{"geometry": {"coordinates": [-122.818087, 47.455321], "type": "Point"}, "id": "0VYNV-jnijyoI9ApRTuos21stFQ=", "properties": {"@spider": "usps_collection_boxes", "addr:city": "BELFAIR", "addr:country": "US", "addr:full": "60 NE RIDGE POINT BLVD", "addr:postcode": "98528", "addr:state": "WA", "brand": "USPS", "collection_times": "Mo-Fr 13:15; Sa 12:00", "name": "USPS COLLECTION BOX - PO LOBBY", "note": "ON 12/24 AND 12/31, THIS BOX MAY BE COLLECTED AS EARLY AS 12 NOON.", "ref": "9852800005"}, "type": "Feature"}
{"geometry": {"coordinates": [-122.827972, 47.451288], "type": "Point"}, "id": "EyKXAceQdcVSr_2ZD2lDV7XSnIc=", "properties": {"@spider": "usps_collection_boxes", "addr:city": "BELFAIR", "addr:country": "US", "addr:full": "51 NE STATE ROUTE 300", "addr:postcode": "98528", "addr:state": "WA", "brand": "USPS", "collection_times": "Mo-Sa 10:00", "name": "USPS COLLECTION BOX - BLUE BOX", "ref": "9852800006"}, "type": "Feature"}
{"geometry": {"coordinates": [-122.823528, 47.45423], "type": "Point"}, "id": "LrjNz8ul_V0D2LKU_zjsWaO1FKM=", "properties": {"@spider": "usps_collection_boxes", "addr:city": "BELFAIR", "addr:country": "US", "addr:full": "23961 NE STATE ROUTE 3", "addr:postcode": "98528", "addr:state": "WA", "brand": "USPS", "collection_times": "Mo-Sa 10:00", "name": "USPS COLLECTION BOX - BLUE BOX", "ref": "9852800007"}, "type": "Feature"}
{"geometry": {"coordinates": [-122.817940265, 47.455237177], "type": "Point"}, "id": "mxt0EgdzvqSIsWWk7d2D_Fnc9PU=", "properties": {"@spider": "usps_collection_boxes", "addr:city": "BELFAIR", "addr:country": "US", "addr:full": "60 NE RIDGE POINT BLVD", "addr:postcode": "98528", "addr:state": "WA", "brand": "USPS", "collection_times": "Mo-Fr 17:00", "name": "USPS COLLECTION BOX - PO LOBBY", "note": "ON 12/24 AND 12/31, THIS BOX MAY BE COLLECTED AS EARLY AS 12 NOON.", "ref": "9852800008"}, "type": "Feature"}
{"geometry": {"coordinates": [-123.141911, 47.406395], "type": "Point"}, "id": "34Mhp8s8J9zjBMqWzpPD9JHlqig=", "properties": {"@spider": "usps_collection_boxes", "addr:city": "HOODSPORT", "addr:country": "US", "addr:full": "76 N LAKE CUSHMAN RD", "addr:postcode": "98548", "addr:state": "WA", "brand": "USPS", "collection_times": "Mo-Fr 15:00; Sa 13:00", "name": "USPS COLLECTION BOX - PO LOBBY", "note": "ON 12/24 AND 12/31, THIS BOX MAY BE COLLECTED AS EARLY AS 12 NOON.", "ref": "9854800001"}, "type": "Feature"}
{"geometry": {"coordinates": [-123.141873, 47.406371], "type": "Point"}, "id": "SimUrvJ1NexJRWKKv8QN8i4aAzw=", "properties": {"@spider": "usps_collection_boxes", "addr:city": "HOODSPORT", "addr:country": "US", "addr:full": "76 N LAKE CUSHMAN RD", "addr:postcode": "98548", "addr:state": "WA", "brand": "USPS", "collection_times": "Mo-Fr 15:00; Sa 13:00", "name": "USPS COLLECTION BOX - PO LOBBY", "note": "ON 12/24 AND 12/31, THIS BOX MAY BE COLLECTED AS EARLY AS 12 NOON.", "ref": "9854800002"}, "type": "Feature"}
{"geometry": {"coordinates": [-123.141873, 47.406371], "type": "Point"}, "id": "21mnm2Oz00NL4H41WjN0TGJwBDk=", "properties": {"@spider": "usps_collection_boxes", "addr:city": "HOODSPORT", "addr:country": "US", "addr:full": "76 N LAKE CUSHMAN RD", "addr:postcode": "98548", "addr:state": "WA", "brand": "USPS", "collection_times": "Mo-Fr 15:00; Sa 13:00", "name": "USPS COLLECTION BOX - BLUE BOX", "note": "ON 12/24 AND 12/31, THIS BOX MAY BE COLLECTED AS EARLY AS 12 NOON.", "ref": "9854800003"}, "type": "Feature"}
{"geometry": {"coordinates": [-123.1419028464, 47.4064412618], "type": "Point"}, "id": "kz7PqrXSQZw5vs7yja83wqJL8b0=", "properties": {"@spider": "usps_collection_boxes", "addr:city": "HOODSPORT", "addr:country": "US", "addr:full": "76 N LAKE CUSHMAN RD", "addr:postcode": "98548", "addr:state": "WA", "brand": "USPS", "collection_times": "Mo-Fr 15:00; Sa 13:00", "name": "USPS COLLECTION BOX - PO LOBBY", "note": "ON 12/24 AND 12/31, THIS BOX MAY BE COLLECTED AS EARLY AS 12 NOON.", "ref": "9854800004"}, "type": "Feature"}
{"geometry": {"coordinates": [-123.114799, 47.461645], "type": "Point"}, "id": "7InKiQU-vZT5bZtw3F_ClLZJbeE=", "properties": {"@spider": "usps_collection_boxes", "addr:city": "LILLIWAUP", "addr:country": "US", "addr:full": "28611 N US HIGHWAY 101", "addr:postcode": "98555", "addr:state": "WA", "brand": "USPS", "collection_times": "Mo-Fr 13:15; Sa 12:15", "name": "USPS COLLECTION BOX - BLUE BOX", "note": "ON 12/24 AND 12/31, THIS BOX MAY BE COLLECTED AS EARLY AS 12 NOON.", "ref": "9855500000"}, "type": "Feature"}
{"geometry": {"coordinates": [-123.114785, 47.461679], "type": "Point"}, "id": "9-ehPzJgr2MHAjyiq_WCR73hIt8=", "properties": {"@spider": "usps_collection_boxes", "addr:city": "LILLIWAUP", "addr:country": "US", "addr:full": "28611 N US HIGHWAY 101", "addr:postcode": "98555", "addr:state": "WA", "brand": "USPS", "collection_times": "Mo-Fr 13:15; Sa 12:15", "name": "USPS COLLECTION BOX - PO LOBBY", "note": "ON 12/24 AND 12/31, THIS BOX MAY BE COLLECTED AS EARLY AS 12 NOON.", "ref": "9855500001"}, "type": "Feature"}
{"geometry": {"coordinates": [-123.114825781, 47.461619058], "type": "Point"}, "id": "EgI4z5awpX7-21hzOeAqSqMR9L8=", "properties": {"@spider": "usps_collection_boxes", "addr:city": "LILLIWAUP", "addr:country": "US", "addr:full": "28611 N US HIGHWAY 101", "addr:postcode": "98555", "addr:state": "WA", "brand": "USPS", "collection_times": "Mo-Fr 14:45; Sa 12:15", "name": "USPS COLLECTION BOX - PO LOBBY", "note": "ON 12/24 AND 12/31, THIS BOX MAY BE COLLECTED AS EARLY AS 12 NOON.", "ref": "9855500002"}, "type": "Feature"}
{"geometry": {"coordinates": [-124.21289, 47.233267], "type": "Point"}, "id": "WyisQGw8ZFnotn5rgWNt262YVPE=", "properties": {"@spider": "usps_collection_boxes", "addr:city": "MOCLIPS", "addr:country": "US", "addr:full": "4758 STATE ROUTE 109", "addr:postcode": "98562", "addr:state": "WA", "brand": "USPS", "collection_times": "Mo-Fr 12:15; Sa 10:00", "name": "USPS COLLECTION BOX - PO LOBBY", "note": "ON 12/24 AND 12/31, THIS BOX MAY BE COLLECTED AS EARLY AS 12 NOON.", "ref": "9856200001"}, "type": "Feature"}
{"geometry": {"coordinates": [-124.212921, 47.233236], "type": "Point"}, "id": "0MPAKgU1Z-x_rijJPL4yBzP-Isw=", "properties": {"@spider": "usps_collection_boxes", "addr:city": "MOCLIPS", "addr:country": "US", "addr:full": "4758 STATE ROUTE 109", "addr:postcode": "98562", "addr:state": "WA", "brand": "USPS", "collection_times": "Mo-Fr 12:15; Sa 10:00", "name": "USPS COLLECTION BOX - PO LOBBY", "note": "ON 12/24 AND 12/31, THIS BOX MAY BE COLLECTED AS EARLY AS 12 NOON.", "ref": "9856200002"}, "type": "Feature"}
{"geometry": {"coordinates": [-124.212921, 47.233236], "type": "Point"}, "id": "ovUAodfqZtNO2Yjs8JuNZ_FanuY=", "properties": {"@spider": "usps_collection_boxes", "addr:city": "MOCLIPS", "addr:country": "US", "addr:full": "4758 STATE ROUTE 109", "addr:postcode": "98562", "addr:state": "WA", "brand": "USPS", "collection_times": "Mo-Fr 12:15; Sa 10:00", "name": "USPS COLLECTION BOX - BLUE BOX", "note": "ON 12/24 AND 12/31, THIS BOX MAY BE COLLECTED AS EARLY AS 12 NOON.", "ref": "9856200003"}, "type": "Feature"}
{"geometry": {"coordinates": [-124.21285557, 47.233149642], "type": "Point"}, "id": "eS1WiglIDxnSiCisekERFLTSHyU=", "properties": {"@spider": "usps_collection_boxes", "addr:city": "MOCLIPS", "addr:country": "US", "addr:full": "4758 STATE ROUTE 109", "addr:postcode": "98562", "addr:state": "WA", "brand": "USPS", "collection_times": "Mo-Fr 14:00", "name": "USPS COLLECTION BOX - PO LOBBY", "note": "ON 12/24 AND 12/31, THIS BOX MAY BE COLLECTED AS EARLY AS 12 NOON.", "ref": "9856200004"}, "type": "Feature"}
{"geometry": {"coordinates": [-124.198849, 47.209319], "type": "Point"}, "id": "qUOgsW75fqIlwvRUE1BZcWh4DRk=", "properties": {"@spider": "usps_collection_boxes", "addr:city": "PACIFIC BEACH", "addr:country": "US", "addr:full": "12 MAIN ST", "addr:postcode": "98571", "addr:state": "WA", "brand": "USPS", "collection_times": "Mo-Fr 12:15; Sa 10:00", "name": "USPS COLLECTION BOX - BLUE BOX", "note": "ON 12/24 AND 12/31, THIS BOX MAY BE COLLECTED AS EARLY AS 12 NOON.", "ref": "9857100000"}, "type": "Feature"}
{"geometry": {"coordinates": [-124.198849, 47.209319], "type": "Point"}, "id": "av2ukadZ4vTysj0GD-Elhi-Tm18=", "properties": {"@spider": "usps_collection_boxes", "addr:city": "PACIFIC BEACH", "addr:country": "US", "addr:full": "12 MAIN ST", "addr:postcode": "98571", "addr:state": "WA", "brand": "USPS", "collection_times": "Mo-Fr 12:15; Sa 10:00", "name": "USPS COLLECTION BOX - PO LOBBY", "note": "ON 12/24 AND 12/31, THIS BOX MAY BE COLLECTED AS EARLY AS 12 NOON.", "ref": "9857100001"}, "type": "Feature"}
{"geometry": {"coordinates": [-124.198849, 47.209319], "type": "Point"}, "id": "wBPLZuck2xM3njOamcC4LkuD6eg=", "properties": {"@spider": "usps_collection_boxes", "addr:city": "PACIFIC BEACH", "addr:country": "US", "addr:full": "12 MAIN ST", "addr:postcode": "98571", "addr:state": "WA", "brand": "USPS", "collection_times": "Mo-Fr 12:15; Sa 10:00", "name": "USPS COLLECTION BOX - PO LOBBY", "note": "ON 12/24 AND 12/31, THIS BOX MAY BE COLLECTED AS EARLY AS 12 NOON.", "ref": "9857100002"}, "type": "Feature"}
{"geometry": {"coordinates": [-124.198675999, 47.209443966], "type": "Point"}, "id": "fE2O0e-ISv22QTw_dUDiKSKkDMI=", "properties": {"@spider": "usps_collection_boxes", "addr:city": "PACIFIC BEACH", "addr:country": "US", "addr:full": "12 MAIN ST", "addr:postcode": "98571", "addr:state": "WA", "brand": "USPS", "collection_times": "Mo-Fr 14:15", "name": "USPS COLLECTION BOX - PO LOBBY", "note": "ON 12/24 AND 12/31, THIS BOX MAY BE COLLECTED AS EARLY AS 12 NOON.", "ref": "9857100005"}, "type": "Feature"}
{"geometry": {"coordinates": [-124.2926630502, 47.3476651741], "type": "Point"}, "id": "ePrK6JaJ3WMNK-ivO97CT2J_POc=", "properties": {"@spider": "usps_collection_boxes", "addr:city": "TAHOLAH", "addr:country": "US", "addr:full": "142 W QUINAULT ST", "addr:postcode": "98587", "addr:state": "WA", "brand": "USPS", "collection_times": "Mo-Fr 12:00; Sa 10:00", "name": "USPS COLLECTION BOX - BLUE BOX", "ref": "9858700000"}, "type": "Feature"}
{"geometry": {"coordinates": [-124.2926630502, 47.3476651741], "type": "Point"}, "id": "Ueu_9Q4HKhHeVAP0LklWxmvbTW4=", "properties": {"@spider": "usps_collection_boxes", "addr:city": "TAHOLAH", "addr:country": "US", "addr:full": "142 W QUINAULT ST", "addr:postcode": "98587", "addr:state": "WA", "brand": "USPS", "collection_times": "Mo-Fr 12:00; Sa 10:00", "name": "USPS COLLECTION BOX - PO LOBBY", "ref": "9858700001"}, "type": "Feature"}
{"geometry": {"coordinates": [-124.2926630502, 47.3476651741], "type": "Point"}, "id": "8M6tvv0OtmpMY3aVsv6rpVzWDmE=", "properties": {"@spider": "usps_collection_boxes", "addr:city": "TAHOLAH", "addr:country": "US", "addr:full": "142 W QUINAULT ST", "addr:postcode": "98587", "addr:state": "WA", "brand": "USPS", "collection_times": "Mo-Fr 12:00; Sa 10:00", "name": "USPS COLLECTION BOX - PO LOBBY", "ref": "9858700002"}, "type": "Feature"}
{"geometry": {"coordinates": [-124.2926630502, 47.3476651741], "type": "Point"}, "id": "OplOEMQXD64op9JNhrKMlBz3mfs=", "properties": {"@spider": "usps_collection_boxes", "addr:city": "TAHOLAH", "addr:country": "US", "addr:full": "142 W QUINAULT ST", "addr:postcode": "98587", "addr:state": "WA", "brand": "USPS", "collection_times": "Mo-Fr 12:00; Sa 10:00", "name": "USPS COLLECTION BOX - PO LOBBY", "ref": "9858700003"}, "type": "Feature"}
{"geometry": {"coordinates": [-124.2926630502, 47.3476651741], "type": "Point"}, "id": "V9R1yvlpHpU8rwRWJf4dPTsS0FI=", "properties": {"@spider": "usps_collection_boxes", "addr:city": "TAHOLAH", "addr:country": "US", "addr:full": "142 W QUINAULT ST", "addr:postcode": "98587", "addr:state": "WA", "brand": "USPS", "collection_times": "Mo-Fr 13:30", "name": "USPS COLLECTION BOX - PO LOBBY", "note": "ON 12/24 AND 12/31, THIS BOX MAY BE COLLECTED AS EARLY AS 12 NOON.", "ref": "9858700004"}, "type": "Feature"}
{"geometry": {"coordinates": [-123.053128, 47.372865], "type": "Point"}, "id": "5jJE0oMB5kI0EB9Ow30ShCcdH58=", "properties": {"@spider": "usps_collection_boxes", "addr:city": "TAHUYA", "addr:country": "US", "addr:full": "14850 NE NORTH SHORE RD", "addr:postcode": "98588", "addr:state": "WA", "brand": "USPS", "collection_times": "Mo-Fr 12:45; Sa 11:00", "name": "USPS COLLECTION BOX - BLUE BOX", "note": "ON 12/24 AND 12/31, THIS BOX MAY BE COLLECTED AS EARLY AS 12 NOON.", "ref": "9858800000"}, "type": "Feature"}
{"geometry": {"coordinates": [-123.053166, 47.372807], "type": "Point"}, "id": "Df9sv9nD0493imQx3gF776YmL3c=", "properties": {"@spider": "usps_collection_boxes", "addr:city": "TAHUYA", "addr:country": "US", "addr:full": "14850 NE NORTH SHORE RD", "addr:postcode": "98588", "addr:state": "WA", "brand": "USPS", "collection_times": "Mo-Fr 12:45; Sa 11:00", "name": "USPS COLLECTION BOX - PO LOBBY", "note": "ON 12/24 AND 12/31, THIS BOX MAY BE COLLECTED AS EARLY AS 12 NOON.", "ref": "9858800001"}, "type": "Feature"}
{"geometry": {"coordinates": [-123.0527684315, 47.3730675909], "type": "Point"}, "id": "fsiYDUo3yjftO1phOP6juIWJu6Y=", "properties": {"@spider": "usps_collection_boxes", "addr:city": "TAHUYA", "addr:country": "US", "addr:full": "14850 NE NORTH SHORE RD", "addr:postcode": "98588", "addr:state": "WA", "brand": "USPS", "collection_times": "Mo-Fr 16:30; Sa 11:00", "name": "USPS COLLECTION BOX - PO LOBBY", "note": "ON 12/24 AND 12/31, THIS BOX MAY BE COLLECTED AS EARLY AS 12 NOON.", "ref": "9858800002"}, "type": "Feature"}
{"geometry": {"coordinates": [-124.014125, 46.721123], "type": "Point"}, "id": "Zsf5g1iXhkJu1O9kG31uIi333mM=", "properties": {"@spider": "usps_collection_boxes", "addr:city": "TOKELAND", "addr:country": "US", "addr:full": "2405 TOKELAND RD", "addr:postcode": "98590", "addr:state": "WA", "brand": "USPS", "collection_times": "Mo-Fr 12:45; Sa 10:00", "name": "USPS COLLECTION BOX - BLUE BOX", "note": "ON 12/24 AND 12/31, THIS BOX MAY BE COLLECTED AS EARLY AS 12 NOON.", "ref": "9859000000"}, "type": "Feature"}
{"geometry": {"coordinates": [-124.014198, 46.72118], "type": "Point"}, "id": "VYaZNRnICRmKdx85Rq7wSbidX7c=", "properties": {"@spider": "usps_collection_boxes", "addr:city": "TOKELAND", "addr:country": "US", "addr:full": "2405 TOKELAND RD", "addr:postcode": "98590", "addr:state": "WA", "brand": "USPS", "collection_times": "Mo-Fr 12:45; Sa 10:00", "name": "USPS COLLECTION BOX - PO LOBBY", "note": "ON 12/24 AND 12/31, THIS BOX MAY BE COLLECTED AS EARLY AS 12 NOON.", "ref": "9859000001"}, "type": "Feature"}
{"geometry": {"coordinates": [-124.014172624, 46.721137371], "type": "Point"}, "id": "_ABvrF75kMxHGHNIZyV2w1E_zgA=", "properties": {"@spider": "usps_collection_boxes", "addr:city": "TOKELAND", "addr:country": "US", "addr:full": "2405 TOKELAND RD", "addr:postcode": "98590", "addr:state": "WA", "brand": "USPS", "collection_times": "Mo-Fr 14:00; Sa 10:00", "name": "USPS COLLECTION BOX - PO LOBBY", "note": "ON 12/24 AND 12/31, THIS BOX MAY BE COLLECTED AS EARLY AS 12 NOON.", "ref": "9859000002"}, "type": "Feature"}
