{"geometry": {"coordinates": [-121.275408, 45.811256], "type": "Point"}, "id": "7C4wT1l4DX9p_CGSTpkvRVcOYso=", "properties": {"@spider": "usps_collection_boxes", "addr:city": "APPLETON", "addr:country": "US", "addr:full": "448 APPLETON RD", "addr:postcode": "98602", "addr:state": "WA", "brand": "USPS", "collection_times": "Mo-Fr 12:30; Sa 11:15", "name": "USPS COLLECTION BOX - PO LOBBY", "note": "ON 12/24 AND 12/31, THIS BOX MAY BE COLLECTED AS EARLY AS 12 NOON.", "ref": "9860200001"}, "type": "Feature"}
{"geometry": {"coordinates": [-121.275630917, 45.809492571], "type": "Point"}, "id": "DbN70eTjTKweVQoWKJ6uJ8VbQa0=", "properties": {"@spider": "usps_collection_boxes", "addr:city": "APPLETON", "addr:country": "US", "addr:full": "448 APPLETON RD", "addr:postcode": "98602", "addr:state": "WA", "brand": "USPS", "collection_times": "Mo-Fr 12:30", "name": "USPS COLLECTION BOX - PO LOBBY", "note": "ON 12/24 AND 12/31, THIS BOX MAY BE COLLECTED AS EARLY AS 12 NOON.", "ref": "9860200003"}, "type": "Feature"}
{"geometry": {"coordinates": [-121.468761, 45.715701], "type": "Point"}, "id": "wlw9ZeQtkBMr4hcHY2ZwrKnhuoM=", "properties": {"@spider": "usps_collection_boxes", "addr:city": "BINGEN", "addr:country": "US", "addr:full": "302 W STEUBEN ST", "addr:postcode": "98605", "addr:state": "WA", "brand": "USPS", "collection_times": "Mo-Fr 17:00; Sa 09:30", "name": "USPS COLLECTION BOX - BLUE BOX", "note": "ON 12/24 AND 12/31, THIS BOX MAY BE COLLECTED AS EARLY AS 12 NOON.", "ref": "9860500001"}, "type": "Feature"}
{"geometry": {"coordinates": [-121.468671, 45.715636], "type": "Point"}, "id": "H3q7iB-A4vZZr-mHo_7ajm8iSds=", "properties": {"@spider": "usps_collection_boxes", "addr:city": "BINGEN", "addr:country": "US", "addr:full": "302 W STEUBEN ST", "addr:postcode": "98605", "addr:state": "WA", "brand": "USPS", "collection_times": "Mo-Fr 17:00; Sa 09:30", "name": "USPS COLLECTION BOX - PO LOBBY", "note": "ON 12/24 AND 12/31, THIS BOX MAY BE COLLECTED AS EARLY AS 12 NOON.", "ref": "9860500002"}, "type": "Feature"}
{"geometry": {"coordinates": [-121.4688207008, 45.7157235529], "type": "Point"}, "id": "GmOtnN69eolfKQQV9U5q-ppNfw0=", "properties": {"@spider": "usps_collection_boxes", "addr:city": "BINGEN", "addr:country": "US", "addr:full": "302 W STEUBEN ST", "addr:postcode": "98605", "addr:state": "WA", "brand": "USPS", "collection_times": "Mo-Fr 17:00", "name": "USPS COLLECTION BOX - PO LOBBY", "note": "ON 12/24 AND 12/31, THIS BOX MAY BE COLLECTED AS EARLY AS 12 NOON.", "ref": "9860500003"}, "type": "Feature"}
{"geometry": {"coordinates": [-121.8109858887, 45.7260473393], "type": "Point"}, "id": "cWEYwkf4gCfg_JgROShJfTDKyRM=", "properties": {"@spider": "usps_collection_boxes", "addr:city": "CARSON", "addr:country": "US", "addr:full": "1182 WIND RIVER HWY", "addr:postcode": "98610", "addr:state": "WA", "brand": "USPS", "collection_times": "Mo-Fr 17:00; Sa 10:30", "name": "USPS COLLECTION BOX - BLUE BOX", "note": "ON 12/24 AND 12/31, THIS BOX MAY BE COLLECTED AS EARLY AS 12 NOON.", "ref": "9861000001"}, "type": "Feature"}
{"geometry": {"coordinates": [-121.8204611222, 45.7293501932], "type": "Point"}, "id": "X960GTP78i2bF884rHwngaXrYNE=", "properties": {"@spider": "usps_collection_boxes", "addr:city": "CARSON", "addr:country": "US", "addr:full": "1182 WIND RIVER HWY", "addr:postcode": "98610", "addr:state": "WA", "brand": "USPS", "collection_times": "Mo-Fr 17:00; Sa 10:30", "name": "USPS COLLECTION BOX - PO LOBBY", "note": "ON 12/24 AND 12/31, THIS BOX MAY BE COLLECTED AS EARLY AS 12 NOON.", "ref": "9861000005"}, "type": "Feature"}
{"geometry": {"coordinates": [-123.384495, 46.202452], "type": "Point"}, "id": "jyh2ygRCtXcU8rIdDUZUoMFiFIU=", "properties": {"@spider": "usps_collection_boxes", "addr:city": "CATHLAMET", "addr:country": "US", "addr:full": "74 MAIN ST", "addr:postcode": "98612", "addr:state": "WA", "brand": "USPS", "collection_times": "Mo-Fr 17:00; Sa 15:30", "name": "USPS COLLECTION BOX - BLUE BOX", "note": "ON 12/24 AND 12/31, THIS BOX MAY BE COLLECTED AS EARLY AS 12 NOON.", "ref": "9861200001"}, "type": "Feature"}
{"geometry": {"coordinates": [-123.385122, 46.20205], "type": "Point"}, "id": "tRHF2pjUwgKErs1GtaNlXnTTxeA=", "properties": {"@spider": "usps_collection_boxes", "addr:city": "CATHLAMET", "addr:country": "US", "addr:full": "30 RIVER ST", "addr:postcode": "98612", "addr:state": "WA", "brand": "USPS", "collection_times": "Mo-Fr 17:00; Sa 15:30", "name": "USPS COLLECTION BOX - PO LOBBY", "note": "ON 12/24 AND 12/31, THIS BOX MAY BE COLLECTED AS EARLY AS 12 NOON.", "ref": "9861200002"}, "type": "Feature"}
{"geometry": {"coordinates": [-123.385113626, 46.202074515], "type": "Point"}, "id": "i4c3WQTcbv3Og-HMOOFC0Xeua18=", "properties": {"@spider": "usps_collection_boxes", "addr:city": "CATHLAMET", "addr:country": "US", "addr:full": "30 RIVER ST", "addr:postcode": "98612", "addr:state": "WA", "brand": "USPS", "collection_times": "Mo-Fr 17:00", "name": "USPS COLLECTION BOX - PO LOBBY", "note": "ON 12/24 AND 12/31, THIS BOX MAY BE COLLECTED AS EARLY AS 12 NOON.", "ref": "9861200003"}, "type": "Feature"}
{"geometry": {"coordinates": [-123.945222, 46.272556], "type": "Point"}, "id": "RCyUE8F0ZZpMLWmphUtOc5Hm43s=", "properties": {"@spider": "usps_collection_boxes", "addr:city": "CHINOOK", "addr:country": "US", "addr:full": "766 HWY 101", "addr:postcode": "98614", "addr:state": "WA", "brand": "USPS", "collection_times": "Mo-Fr 16:45; Sa 10:00", "name": "USPS COLLECTION BOX - BLUE BOX", "note": "ON 12/24 AND 12/31, THIS BOX MAY BE COLLECTED AS EARLY AS 12 NOON.", "ref": "9861400001"}, "type": "Feature"}
{"geometry": {"coordinates": [-123.945231, 46.272516], "type": "Point"}, "id": "AW_Fof6aVj64TLSFo9B3Z0PWv1c=", "properties": {"@spider": "usps_collection_boxes", "addr:city": "CHINOOK", "addr:country": "US", "addr:full": "766 HWY 101", "addr:postcode": "98614", "addr:state": "WA", "brand": "USPS", "collection_times": "Mo-Fr 14:00; Sa 10:00", "name": "USPS COLLECTION BOX - PO LOBBY", "note": "ON 12/24 AND 12/31, THIS BOX MAY BE COLLECTED AS EARLY AS 12 NOON.", "ref": "9861400002"}, "type": "Feature"}
{"geometry": {"coordinates": [-123.9456782036, 46.2730376959], "type": "Point"}, "id": "Bi8tuc2AptIFKqeYARR4M3VNRzk=", "properties": {"@spider": "usps_collection_boxes", "addr:city": "CHINOOK", "addr:country": "US", "addr:full": "766 HWY 101", "addr:postcode": "98614", "addr:state": "WA", "brand": "USPS", "collection_times": "Mo-Fr 14:00", "name": "USPS COLLECTION BOX - PO LOBBY", "note": "ON 12/24 AND 12/31, THIS BOX MAY BE COLLECTED AS EARLY AS 12 NOON.", "ref": "9861400003"}, "type": "Feature"}
{"geometry": {"coordinates": [-121.176027, 45.617529], "type": "Point"}, "id": "1cspImGRMScb6-dhfSLUQiGu-SE=", "properties": {"@spider": "usps_collection_boxes", "addr:city": "DALLESPORT", "addr:country": "US", "addr:full": "316 6TH AVE", "addr:postcode": "98617", "addr:state": "WA", "brand": "USPS", "collection_times": "Mo-Fr 14:45; Sa 11:00", "name": "USPS COLLECTION BOX - PO LOBBY", "note": "ON 12/24 AND 12/31, THIS BOX MAY BE COLLECTED AS EARLY AS 12 NOON.", "ref": "9861700001"}, "type": "Feature"}
{"geometry": {"coordinates": [-121.177888, 45.617268], "type": "Point"}, "id": "HCyDWANypISd7VU07gCGsmeMT4s=", "properties": {"@spider": "usps_collection_boxes", "addr:city": "DALLESPORT", "addr:country": "US", "addr:full": "316 6TH AVE", "addr:postcode": "98617", "addr:state": "WA", "brand": "USPS", "collection_times": "Mo-Fr 16:45; Sa 10:45", "name": "USPS COLLECTION BOX - BLUE BOX", "note": "ON 12/24 AND 12/31, THIS BOX MAY BE COLLECTED AS EARLY AS 12 NOON.", "ref": "9861700002"}, "type": "Feature"}
{"geometry": {"coordinates": [-121.177812526, 45.617447496], "type": "Point"}, "id": "k0MzboimvDxkunP2D0DySpshGEY=", "properties": {"@spider": "usps_collection_boxes", "addr:city": "DALLESPORT", "addr:country": "US", "addr:full": "316 6TH AVE", "addr:postcode": "98617", "addr:state": "WA", "brand": "USPS", "collection_times": "Mo-Fr 14:00", "name": "USPS COLLECTION BOX - PO LOBBY", "note": "ON 12/24 AND 12/31, THIS BOX MAY BE COLLECTED AS EARLY AS 12 NOON.", "ref": "9861700003"}, "type": "Feature"}
{"geometry": {"coordinates": [-121.2923, 46.018411], "type": "Point"}, "id": "idx_cSMYnwfKguq1cAN_C9ojQqY=", "properties": {"@spider": "usps_collection_boxes", "addr:city": "GLENWOOD", "addr:country": "US", "addr:full": "100 W MAIN ST", "addr:postcode": "98619", "addr:state": "WA", "brand": "USPS", "collection_times": "Mo-Fr 15:00; Sa 10:30", "name": "USPS COLLECTION BOX - BLUE BOX", "note": "ON 12/24 AND 12/31, THIS BOX MAY BE COLLECTED AS EARLY AS 12 NOON.", "ref": "9861900000"}, "type": "Feature"}
{"geometry": {"coordinates": [-121.2923, 46.018411], "type": "Point"}, "id": "9IfBRPayyr6gIGTzJ_OVM3XdzZI=", "properties": {"@spider": "usps_collection_boxes", "addr:city": "GLENWOOD", "addr:country": "US", "addr:full": "100 W MAIN ST", "addr:postcode": "98619", "addr:state": "WA", "brand": "USPS", "collection_times": "Mo-Fr 12:00; Sa 10:30", "name": "USPS COLLECTION BOX - PO LOBBY", "ref": "9861900001"}, "type": "Feature"}
{"geometry": {"coordinates": [-121.2923, 46.018411], "type": "Point"}, "id": "jZHF1wXUybywToDygyKbmyyoFwY=", "properties": {"@spider": "usps_collection_boxes", "addr:city": "GLENWOOD", "addr:country": "US", "addr:full": "100 W MAIN ST", "addr:postcode": "98619", "addr:state": "WA", "brand": "USPS", "collection_times": "Mo-Fr 12:00; Sa 10:30", "name": "USPS COLLECTION BOX - PO LOBBY", "ref": "9861900002"}, "type": "Feature"}
{"geometry": {"coordinates": [-121.292302217, 46.018404503], "type": "Point"}, "id": "E5oMehxTbsa80h3vg0KlhB8_K7U=", "properties": {"@spider": "usps_collection_boxes", "addr:city": "GLENWOOD", "addr:country": "US", "addr:full": "100 W MAIN ST", "addr:postcode": "98619", "addr:state": "WA", "brand": "USPS", "collection_times": "Mo-Fr 13:00", "name": "USPS COLLECTION BOX - PO LOBBY", "note": "ON 12/24 AND 12/31, THIS BOX MAY BE COLLECTED AS EARLY AS 12 NOON.", "ref": "9861900003"}, "type": "Feature"}
{"geometry": {"coordinates": [-120.822661, 45.814939], "type": "Point"}, "id": "kBcmIz8vgMkME5U5Mp_YR7AhYeM=", "properties": {"@spider": "usps_collection_boxes", "addr:city": "GOLDENDALE", "addr:country": "US", "addr:full": "1020 S COLUMBUS AVE", "addr:postcode": "98620", "addr:state": "WA", "brand": "USPS", "collection_times": "Mo-Fr 16:00; Sa 15:00", "name": "USPS COLLECTION BOX - BLUE BOX", "note": "ON 12/24 AND 12/31, THIS BOX MAY BE COLLECTED AS EARLY AS 12 NOON.", "ref": "9862000002"}, "type": "Feature"}
{"geometry": {"coordinates": [-120.822661, 45.814939], "type": "Point"}, "id": "zywxdoxJ_rx0O324M3yWsoRukz8=", "properties": {"@spider": "usps_collection_boxes", "addr:city": "GOLDENDALE", "addr:country": "US", "addr:full": "1020 S COLUMBUS AVE", "addr:postcode": "98620", "addr:state": "WA", "brand": "USPS", "collection_times": "Mo-Fr 16:00; Sa 15:00", "name": "USPS COLLECTION BOX - BLUE BOX", "note": "ON 12/24 AND 12/31, THIS BOX MAY BE COLLECTED AS EARLY AS 12 NOON.", "ref": "9862000003"}, "type": "Feature"}
{"geometry": {"coordinates": [-120.822661, 45.814939], "type": "Point"}, "id": "fC_xbn6vW3V4i4PxL7ioleXw6r4=", "properties": {"@spider": "usps_collection_boxes", "addr:city": "GOLDENDALE", "addr:country": "US", "addr:full": "1020 S COLUMBUS AVE", "addr:postcode": "98620", "addr:state": "WA", "brand": "USPS", "collection_times": "Mo-Fr 16:15; Sa 15:00", "name": "USPS COLLECTION BOX - PO LOBBY", "note": "ON 12/24 AND 12/31, THIS BOX MAY BE COLLECTED AS EARLY AS 12 NOON.", "ref": "9862000004"}, "type": "Feature"}
{"geometry": {"coordinates": [-120.8226813201, 45.8220370571], "type": "Point"}, "id": "AWq8bdm7M6ovzVJdKfasaxjwd74=", "properties": {"@spider": "usps_collection_boxes", "addr:city": "GOLDENDALE", "addr:country": "US", "addr:full": "115 S COLUMBUS AVE", "addr:postcode": "98620", "addr:state": "WA", "brand": "USPS", "collection_times": "Mo-Sa 13:00", "name": "USPS COLLECTION BOX - BLUE BOX", "note": "ON 12/24 AND 12/31, THIS BOX MAY BE COLLECTED AS EARLY AS 12 NOON.", "ref": "9862000005"}, "type": "Feature"}
{"geometry": {"coordinates": [-120.8227206472, 45.8149405495], "type": "Point"}, "id": "DEl6KDY-a2IAs7wL4XzGE1R_Cyo=", "properties": {"@spider": "usps_collection_boxes", "addr:city": "GOLDENDALE", "addr:country": "US", "addr:full": "1020 S COLUMBUS AVE", "addr:postcode": "98620", "addr:state": "WA", "brand": "USPS", "collection_times": "Mo-Fr 16:45", "name": "USPS COLLECTION BOX - PO LOBBY", "note": "ON 12/24 AND 12/31, THIS BOX MAY BE COLLECTED AS EARLY AS 12 NOON.", "ref": "9862000006"}, "type": "Feature"}
{"geometry": {"coordinates": [-121.4868457, 45.798107564], "type": "Point"}, "id": "qX-3L5ZhPBGmlJvcX3QTgq1boYY=", "properties": {"@spider": "usps_collection_boxes", "addr:city": "HUSUM", "addr:country": "US", "addr:full": "204 MAIN ST", "addr:postcode": "98623", "addr:state": "WA", "brand": "USPS", "collection_times": "Mo-Fr 16:00; Sa 12:00", "name": "USPS COLLECTION BOX - BLUE BOX", "note": "ON 12/24 AND 12/31, THIS BOX MAY BE COLLECTED AS EARLY AS 12 NOON.", "ref": "9862300001"}, "type": "Feature"}
{"geometry": {"coordinates": [-121.4868457, 45.798107564], "type": "Point"}, "id": "Wi7JJPkI4xhIyYJ3j0PS06sVvuU=", "properties": {"@spider": "usps_collection_boxes", "addr:city": "HUSUM", "addr:country": "US", "addr:full": "204 MAIN ST", "addr:postcode": "98623", "addr:state": "WA", "brand": "USPS", "collection_times": "Mo-Fr 12:00", "name": "USPS COLLECTION BOX - PO LOBBY", "ref": "9862300004"}, "type": "Feature"}
{"geometry": {"coordinates": [-124.04176, 46.308155], "type": "Point"}, "id": "kd5v70bGm76we3G51e-SE56xkQI=", "properties": {"@spider": "usps_collection_boxes", "addr:city": "ILWACO", "addr:country": "US", "addr:full": "128 LAKE ST SE", "addr:postcode": "98624", "addr:state": "WA", "brand": "USPS", "collection_times": "Mo-Fr 16:30; Sa 11:00", "name": "USPS COLLECTION BOX - BLUE BOX", "note": "ON 12/24 AND 12/31, THIS BOX MAY BE COLLECTED AS EARLY AS 12 NOON.", "ref": "9862400001"}, "type": "Feature"}
{"geometry": {"coordinates": [-124.04176, 46.308155], "type": "Point"}, "id": "w5IGEzIjFcFzBYtTRN7-VGF1J-0=", "properties": {"@spider": "usps_collection_boxes", "addr:city": "ILWACO", "addr:country": "US", "addr:full": "128 LAKE ST SE", "addr:postcode": "98624", "addr:state": "WA", "brand": "USPS", "collection_times": "Mo-Fr 16:45; Sa 11:30", "name": "USPS COLLECTION BOX - PO LOBBY", "note": "ON 12/24 AND 12/31, THIS BOX MAY BE COLLECTED AS EARLY AS 12 NOON.", "ref": "9862400002"}, "type": "Feature"}
{"geometry": {"coordinates": [-124.041762, 46.308154493], "type": "Point"}, "id": "9OlOPWwqjXabQc9idtrE26udTDA=", "properties": {"@spider": "usps_collection_boxes", "addr:city": "ILWACO", "addr:country": "US", "addr:full": "128 LAKE ST SE", "addr:postcode": "98624", "addr:state": "WA", "brand": "USPS", "collection_times": "Mo-Fr 17:00", "name": "USPS COLLECTION BOX - PO LOBBY", "note": "ON 12/24 AND 12/31, THIS BOX MAY BE COLLECTED AS EARLY AS 12 NOON.", "ref": "9862400003"}, "type": "Feature"}
{"geometry": {"coordinates": [-122.845926, 46.011173], "type": "Point"}, "id": "MxSbSJhMkOUjklALD-lutRd7RUA=", "properties": {"@spider": "usps_collection_boxes", "addr:city": "KALAMA", "addr:country": "US", "addr:full": "454 N 1ST ST", "addr:postcode": "98625", "addr:state": "WA", "brand": "USPS", "collection_times": "Mo-Fr 17:00; Sa 11:00", "name": "USPS COLLECTION BOX - BLUE BOX", "note": "ON 12/24 AND 12/31, THIS BOX MAY BE COLLECTED AS EARLY AS 12 NOON.", "ref": "9862500001"}, "type": "Feature"}
{"geometry": {"coordinates": [-122.845926, 46.011173], "type": "Point"}, "id": "95Pz0pg4U9Z1sQosYom47waP8IY=", "properties": {"@spider": "usps_collection_boxes", "addr:city": "KALAMA", "addr:country": "US", "addr:full": "454 N 1ST ST", "addr:postcode": "98625", "addr:state": "WA", "brand": "USPS", "collection_times": "Mo-Fr 17:00; Sa 11:00", "name": "USPS COLLECTION BOX - PO LOBBY", "note": "ON 12/24 AND 12/31, THIS BOX MAY BE COLLECTED AS EARLY AS 12 NOON.", "ref": "9862500002"}, "type": "Feature"}
{"geometry": {"coordinates": [-122.845959296, 46.011241414], "type": "Point"}, "id": "qeXBfUzfOMS1uQmN_c-c3t-7uBo=", "properties": {"@spider": "usps_collection_boxes", "addr:city": "KALAMA", "addr:country": "US", "addr:full": "454 N 1ST ST", "addr:postcode": "98625", "addr:state": "WA", "brand": "USPS", "collection_times": "Mo-Fr 17:00", "name": "USPS COLLECTION BOX - PO LOBBY", "note": "ON 12/24 AND 12/31, THIS BOX MAY BE COLLECTED AS EARLY AS 12 NOON.", "ref": "9862500003"}, "type": "Feature"}
{"geometry": {"coordinates": [-121.151747, 45.817178], "type": "Point"}, "id": "7-CFLYIy83CdujHdZpE_3exVAsE=", "properties": {"@spider": "usps_collection_boxes", "addr:city": "KLICKITAT", "addr:country": "US", "addr:full": "103 N MAIN ST", "addr:postcode": "98628", "addr:state": "WA", "brand": "USPS", "collection_times": "Mo-Fr 16:00; Sa 11:00", "name": "USPS COLLECTION BOX - BLUE BOX", "note": "ON 12/24 AND 12/31, THIS BOX MAY BE COLLECTED AS EARLY AS 12 NOON.", "ref": "9862800001"}, "type": "Feature"}
{"geometry": {"coordinates": [-121.151741, 45.817122], "type": "Point"}, "id": "NhxLSB3PShwJiq_by55Nd9jwzNw=", "properties": {"@spider": "usps_collection_boxes", "addr:city": "KLICKITAT", "addr:country": "US", "addr:full": "103 N MAIN ST", "addr:postcode": "98628", "addr:state": "WA", "brand": "USPS", "collection_times": "Mo-Fr 15:00; Sa 11:00", "name": "USPS COLLECTION BOX - PO LOBBY", "note": "ON 12/24 AND 12/31, THIS BOX MAY BE COLLECTED AS EARLY AS 12 NOON.", "ref": "9862800002"}, "type": "Feature"}
{"geometry": {"coordinates": [-121.152037073, 45.816327507], "type": "Point"}, "id": "SW2LO1Ik2GupjF6PATWibd_0B34=", "properties": {"@spider": "usps_collection_boxes", "addr:city": "KLICKITAT", "addr:country": "US", "addr:full": "103 N MAIN ST", "addr:postcode": "98628", "addr:state": "WA", "brand": "USPS", "collection_times": "Mo-Fr 15:00", "name": "USPS COLLECTION BOX - PO LOBBY", "note": "ON 12/24 AND 12/31, THIS BOX MAY BE COLLECTED AS EARLY AS 12 NOON.", "ref": "9862800003"}, "type": "Feature"}
{"geometry": {"coordinates": [-124.05349, 46.351601], "type": "Point"}, "id": "5827Tx4k-hlS5oupeUMr6IPHyUw=", "properties": {"@spider": "usps_collection_boxes", "addr:city": "LONG BEACH", "addr:country": "US", "addr:full": "101 OREGON AVE N", "addr:postcode": "98631", "addr:state": "WA", "brand": "USPS", "collection_times": "Mo-Fr 16:15; Sa 12:00", "name": "USPS COLLECTION BOX - BLUE BOX", "note": "ON 12/24 AND 12/31, THIS BOX MAY BE COLLECTED AS EARLY AS 12 NOON.", "ref": "9863100001"}, "type": "Feature"}
{"geometry": {"coordinates": [-124.05349, 46.351601], "type": "Point"}, "id": "Lb85BrauM9KmAFaQW1PCj72moyM=", "properties": {"@spider": "usps_collection_boxes", "addr:city": "LONG BEACH", "addr:country": "US", "addr:full": "101 OREGON AVE N", "addr:postcode": "98631", "addr:state": "WA", "brand": "USPS", "collection_times": "Mo-Fr 16:30; Sa 12:00", "name": "USPS COLLECTION BOX - PO LOBBY", "note": "ON 12/24 AND 12/31, THIS BOX MAY BE COLLECTED AS EARLY AS 12 NOON.", "ref": "9863100003"}, "type": "Feature"}
{"geometry": {"coordinates": [-124.05349, 46.351601], "type": "Point"}, "id": "oK9rBKB2f0zb340j86URNfszZFM=", "properties": {"@spider": "usps_collection_boxes", "addr:city": "LONG BEACH", "addr:country": "US", "addr:full": "101 OREGON AVE N", "addr:postcode": "98631", "addr:state": "WA", "brand": "USPS", "collection_times": "Mo-Sa 11:00", "name": "USPS COLLECTION BOX - PO LOBBY", "ref": "9863100005"}, "type": "Feature"}
{"geometry": {"coordinates": [-124.053493184, 46.35148676], "type": "Point"}, "id": "4ZCuB9LF3TkYlTKReTe6B_Wq1r8=", "properties": {"@spider": "usps_collection_boxes", "addr:city": "LONG BEACH", "addr:country": "US", "addr:full": "101 OREGON AVE N", "addr:postcode": "98631", "addr:state": "WA", "brand": "USPS", "collection_times": "Mo-Fr 16:30; Sa 12:00", "name": "USPS COLLECTION BOX - PO LOBBY", "note": "ON 12/24 AND 12/31, THIS BOX MAY BE COLLECTED AS EARLY AS 12 NOON.", "ref": "9863100006"}, "type": "Feature"}
{"geometry": {"coordinates": [-122.961418, 46.129813], "type": "Point"}, "id": "kksBOYvzg-_lNcrSLLIDwn0dgyE=", "properties": {"@spider": "usps_collection_boxes", "addr:city": "LONGVIEW", "addr:country": "US", "addr:full": "236 30TH AVE", "addr:postcode": "98632", "addr:state": "WA", "brand": "USPS", "collection_times": "Mo-Sa 14:00", "name": "USPS COLLECTION BOX - BLUE BOX", "note": "ON 12/24 AND 12/31, THIS BOX MAY BE COLLECTED AS EARLY AS 12 NOON.", "ref": "9863200005"}, "type": "Feature"}
{"geometry": {"coordinates": [-123.000228, 46.16371], "type": "Point"}, "id": "nkKYBmo74zsz7UQ2r54UHxraHok=", "properties": {"@spider": "usps_collection_boxes", "addr:city": "LONGVIEW", "addr:country": "US", "addr:full": "4547 OCEAN BEACH HWY", "addr:postcode": "98632", "addr:state": "WA", "brand": "USPS", "collection_times": "Mo-Sa 10:00", "name": "USPS COLLECTION BOX - BLUE BOX", "ref": "9863200011"}, "type": "Feature"}
{"geometry": {"coordinates": [-122.943053, 46.115726], "type": "Point"}, "id": "VD1o5GkM4sfq1wPBY8yTIDhiNdo=", "properties": {"@spider": "usps_collection_boxes", "addr:city": "LONGVIEW", "addr:country": "US", "addr:full": "1161 INDUSTRIAL WAY", "addr:postcode": "98632", "addr:state": "WA", "brand": "USPS", "collection_times": "Mo-Sa 10:00", "name": "USPS COLLECTION BOX - BLUE BOX", "ref": "9863200060"}, "type": "Feature"}
{"geometry": {"coordinates": [-122.953561, 46.135541], "type": "Point"}, "id": "DsEeOHpaUyEp3K1HpUktfpRZIJ8=", "properties": {"@spider": "usps_collection_boxes", "addr:city": "LONGVIEW", "addr:country": "US", "addr:full": "2610 FIELD ST", "addr:postcode": "98632", "addr:state": "WA", "brand": "USPS", "collection_times": "Mo-Sa 10:00", "name": "USPS COLLECTION BOX - BLUE BOX", "ref": "9863200067"}, "type": "Feature"}
{"geometry": {"coordinates": [-123.023296, 46.173445], "type": "Point"}, "id": "JCuY1TK4Ghe4PR7GLpCQs0H9ANw=", "properties": {"@spider": "usps_collection_boxes", "addr:city": "LONGVIEW", "addr:country": "US", "addr:full": "5815 OCEAN BEACH HWY", "addr:postcode": "98632", "addr:state": "WA", "brand": "USPS", "collection_times": "Mo-Sa 10:00", "name": "USPS COLLECTION BOX - BLUE BOX", "ref": "9863200091"}, "type": "Feature"}
{"geometry": {"coordinates": [-123.015784, 46.171492], "type": "Point"}, "id": "SQNrIXjJO1UziFmIRJ5gzJTrk8I=", "properties": {"@spider": "usps_collection_boxes", "addr:city": "LONGVIEW", "addr:country": "US", "addr:full": "5601 OCEAN BEACH HWY", "addr:postcode": "98632", "addr:state": "WA", "brand": "USPS", "collection_times": "Mo-Sa 10:30", "name": "USPS COLLECTION BOX - BLUE BOX", "ref": "9863200102"}, "type": "Feature"}
{"geometry": {"coordinates": [-121.287101, 45.693753], "type": "Point"}, "id": "xqqiAE-4BnUl7YZG7jWG6j0dfZA=", "properties": {"@spider": "usps_collection_boxes", "addr:city": "LYLE", "addr:country": "US", "addr:full": "308 WASHINGTON ST", "addr:postcode": "98635", "addr:state": "WA", "brand": "USPS", "collection_times": "Mo-Fr 16:30; Sa 10:00", "name": "USPS COLLECTION BOX - BLUE BOX", "note": "ON 12/24 AND 12/31, THIS BOX MAY BE COLLECTED AS EARLY AS 12 NOON.", "ref": "9863500001"}, "type": "Feature"}
{"geometry": {"coordinates": [-121.287101, 45.693753], "type": "Point"}, "id": "P1dzramTVCfDVr8DytpK-pW5sLQ=", "properties": {"@spider": "usps_collection_boxes", "addr:city": "LYLE", "addr:country": "US", "addr:full": "308 WASHINGTON ST", "addr:postcode": "98635", "addr:state": "WA", "brand": "USPS", "collection_times": "Mo-Fr 16:30; Sa 10:00", "name": "USPS COLLECTION BOX - PO LOBBY", "note": "ON 12/24 AND 12/31, THIS BOX MAY BE COLLECTED AS EARLY AS 12 NOON.", "ref": "9863500002"}, "type": "Feature"}
{"geometry": {"coordinates": [-121.287101, 45.693753], "type": "Point"}, "id": "0Bg77i-Sz79aBLXTq8I-wDC5XpI=", "properties": {"@spider": "usps_collection_boxes", "addr:city": "LYLE", "addr:country": "US", "addr:full": "308 WASHINGTON ST", "addr:postcode": "98635", "addr:state": "WA", "brand": "USPS", "collection_times": "Mo-Fr 16:30; Sa 10:00", "name": "USPS COLLECTION BOX - PO LOBBY", "note": "ON 12/24 AND 12/31, THIS BOX MAY BE COLLECTED AS EARLY AS 12 NOON.", "ref": "9863500003"}, "type": "Feature"}
{"geometry": {"coordinates": [-121.287131569, 45.693717487], "type": "Point"}, "id": "oc8IHILVWempFfg2aIuvSYtGhFI=", "properties": {"@spider": "usps_collection_boxes", "addr:city": "LYLE", "addr:country": "US", "addr:full": "308 WASHINGTON ST", "addr:postcode": "98635", "addr:state": "WA", "brand": "USPS", "collection_times": "Mo-Fr 16:30", "name": "USPS COLLECTION BOX - PO LOBBY", "note": "ON 12/24 AND 12/31, THIS BOX MAY BE COLLECTED AS EARLY AS 12 NOON.", "ref": "9863500004"}, "type": "Feature"}
{"geometry": {"coordinates": [-123.8117911659, 46.3636710838], "type": "Point"}, "id": "e_JmJ3yeTWYuV7Qc5hfKK6jefgQ=", "properties": {"@spider": "usps_collection_boxes", "addr:city": "NASELLE", "addr:country": "US", "addr:full": "294 KNAPPTON RD", "addr:postcode": "98638", "addr:state": "WA", "brand": "USPS", "collection_times": "Mo-Fr 16:15; Sa 11:00", "name": "USPS COLLECTION BOX - BLUE BOX", "note": "ON 12/24 AND 12/31, THIS BOX MAY BE COLLECTED AS EARLY AS 12 NOON.", "ref": "9863800001"}, "type": "Feature"}
{"geometry": {"coordinates": [-123.8117911659, 46.3636710838], "type": "Point"}, "id": "Jii47jy7vkw2Ve79VAiu12UrcVE=", "properties": {"@spider": "usps_collection_boxes", "addr:city": "NASELLE", "addr:country": "US", "addr:full": "294 KNAPPTON RD", "addr:postcode": "98638", "addr:state": "WA", "brand": "USPS", "collection_times": "Mo-Fr 16:15; Sa 08:30", "name": "USPS COLLECTION BOX - PO LOBBY", "note": "ON 12/24 AND 12/31, THIS BOX MAY BE COLLECTED AS EARLY AS 12 NOON.", "ref": "9863800002"}, "type": "Feature"}
{"geometry": {"coordinates": [-123.8117911659, 46.3636710838], "type": "Point"}, "id": "7g3zSLITfRxIyIjwC3IU2VFQKvY=", "properties": {"@spider": "usps_collection_boxes", "addr:city": "NASELLE", "addr:country": "US", "addr:full": "294 KNAPPTON RD", "addr:postcode": "98638", "addr:state": "WA", "brand": "USPS", "collection_times": "Mo-Fr 16:00", "name": "USPS COLLECTION BOX - PO LOBBY", "note": "ON 12/24 AND 12/31, THIS BOX MAY BE COLLECTED AS EARLY AS 12 NOON.", "ref": "9863800004"}, "type": "Feature"}
{"geometry": {"coordinates": [-121.975776871, 45.638125345], "type": "Point"}, "id": "xEPRzuM5GTiH44fwryc9ZMx1ndA=", "properties": {"@spider": "usps_collection_boxes", "addr:city": "N BONNEVILLE", "addr:country": "US", "addr:full": "212 CBD MALL ST", "addr:postcode": "98639", "addr:state": "WA", "brand": "USPS", "collection_times": "Mo-Fr 16:30; Sa 09:00", "name": "USPS COLLECTION BOX - BLUE BOX", "note": "ON 12/24 AND 12/31, THIS BOX MAY BE COLLECTED AS EARLY AS 12 NOON.", "ref": "9863900001"}, "type": "Feature"}
{"geometry": {"coordinates": [-121.9757768707, 45.6381253447], "type": "Point"}, "id": "A2ERJn1t5TDv5GgEN4g01FqD9ig=", "properties": {"@spider": "usps_collection_boxes", "addr:city": "N BONNEVILLE", "addr:country": "US", "addr:full": "212 CBD MALL ST", "addr:postcode": "98639", "addr:state": "WA", "brand": "USPS", "collection_times": "Mo-Fr 16:45; Sa 08:30", "name": "USPS COLLECTION BOX - PO LOBBY", "note": "ON 12/24 AND 12/31, THIS BOX MAY BE COLLECTED AS EARLY AS 12 NOON.", "ref": "9863900002"}, "type": "Feature"}
{"geometry": {"coordinates": [-121.975776871, 45.638125345], "type": "Point"}, "id": "T39tOo9a902UcRQ_Ystt9wCmHU8=", "properties": {"@spider": "usps_collection_boxes", "addr:city": "N BONNEVILLE", "addr:country": "US", "addr:full": "212 CBD MALL ST", "addr:postcode": "98639", "addr:state": "WA", "brand": "USPS", "collection_times": "Mo-Fr 16:30", "name": "USPS COLLECTION BOX - PO LOBBY", "note": "ON 12/24 AND 12/31, THIS BOX MAY BE COLLECTED AS EARLY AS 12 NOON.", "ref": "9863900003"}, "type": "Feature"}
{"geometry": {"coordinates": [-124.05007, 46.487358], "type": "Point"}, "id": "HyyileO31XN2Lex_gHnGrA_3nlA=", "properties": {"@spider": "usps_collection_boxes", "addr:city": "OCEAN PARK", "addr:country": "US", "addr:full": "25502 VERNON AVE", "addr:postcode": "98640", "addr:state": "WA", "brand": "USPS", "collection_times": "Mo-Fr 16:00; Sa 10:00", "name": "USPS COLLECTION BOX - BLUE BOX", "note": "ON 12/24 AND 12/31, THIS BOX MAY BE COLLECTED AS EARLY AS 12 NOON.", "ref": "9864000001"}, "type": "Feature"}
{"geometry": {"coordinates": [-124.05007, 46.487358], "type": "Point"}, "id": "fZjvj29ynsZK1HBGIXzPzVczpto=", "properties": {"@spider": "usps_collection_boxes", "addr:city": "OCEAN PARK", "addr:country": "US", "addr:full": "25502 VERNON AVE", "addr:postcode": "98640", "addr:state": "WA", "brand": "USPS", "collection_times": "Mo-Fr 16:15; Sa 16:00", "name": "USPS COLLECTION BOX - PO LOBBY", "note": "ON 12/24 AND 12/31, THIS BOX MAY BE COLLECTED AS EARLY AS 12 NOON.", "ref": "9864000003"}, "type": "Feature"}
{"geometry": {"coordinates": [-124.0500701665, 46.4873575495], "type": "Point"}, "id": "Caqu4l8u4eSBX-eyN8QT_8mzHEc=", "properties": {"@spider": "usps_collection_boxes", "addr:city": "OCEAN PARK", "addr:country": "US", "addr:full": "25502 VERNON AVE", "addr:postcode": "98640", "addr:state": "WA", "brand": "USPS", "collection_times": "Mo-Fr 16:15", "name": "USPS COLLECTION BOX - PO LOBBY", "note": "ON 12/24 AND 12/31, THIS BOX MAY BE COLLECTED AS EARLY AS 12 NOON.", "ref": "9864000004"}, "type": "Feature"}
{"geometry": {"coordinates": [-124.0342952367, 46.5491088322], "type": "Point"}, "id": "o8oTq9W1NUa4AfXZynh_3Hy3Fg8=", "properties": {"@spider": "usps_collection_boxes", "addr:city": "OYSTERVILLE", "addr:country": "US", "addr:full": "3012 OYSTERVILLE RD", "addr:postcode": "98641", "addr:state": "WA", "brand": "USPS", "collection_times": "Mo-Fr 15:30; Sa 10:15", "name": "USPS COLLECTION BOX - BLUE BOX", "note": "ON 12/24 AND 12/31, THIS BOX MAY BE COLLECTED AS EARLY AS 12 NOON.", "ref": "9864100001"}, "type": "Feature"}
{"geometry": {"coordinates": [-124.034365, 46.549202], "type": "Point"}, "id": "G8CUmYrATzsEm3fiDtO3l9Vvjkk=", "properties": {"@spider": "usps_collection_boxes", "addr:city": "OYSTERVILLE", "addr:country": "US", "addr:full": "3012 OYSTERVILLE RD", "addr:postcode": "98641", "addr:state": "WA", "brand": "USPS", "collection_times": "Mo-Fr 13:00; Sa 10:15", "name": "USPS COLLECTION BOX - PO LOBBY", "note": "ON 12/24 AND 12/31, THIS BOX MAY BE COLLECTED AS EARLY AS 12 NOON.", "ref": "9864100002"}, "type": "Feature"}
{"geometry": {"coordinates": [-124.034295237, 46.549108832], "type": "Point"}, "id": "POEKJq4uD9E4vfKvsif32diHKyc=", "properties": {"@spider": "usps_collection_boxes", "addr:city": "OYSTERVILLE", "addr:country": "US", "addr:full": "3012 OYSTERVILLE RD", "addr:postcode": "98641", "addr:state": "WA", "brand": "USPS", "collection_times": "Mo-Fr 13:00; Sa 10:15", "name": "USPS COLLECTION BOX - PO LOBBY", "note": "ON 12/24 AND 12/31, THIS BOX MAY BE COLLECTED AS EARLY AS 12 NOON.", "ref": "9864100003"}, "type": "Feature"}
{"geometry": {"coordinates": [-123.696867, 46.333999], "type": "Point"}, "id": "NqXivikEsH2HvCOkfkvpAKiRvQ4=", "properties": {"@spider": "usps_collection_boxes", "addr:city": "ROSBURG", "addr:country": "US", "addr:full": "4182 STATE ROUTE 4 W", "addr:postcode": "98643", "addr:state": "WA", "brand": "USPS", "collection_times": "Mo-Fr 11:45; Sa 09:00", "name": "USPS COLLECTION BOX - PO LOBBY", "ref": "9864300002"}, "type": "Feature"}
{"geometry": {"coordinates": [-123.6398132093, 46.3350971152], "type": "Point"}, "id": "Rf3cNchZDSPSdVp4RZb8mypk3Q8=", "properties": {"@spider": "usps_collection_boxes", "addr:city": "ROSBURG", "addr:country": "US", "addr:full": "4182 STATE ROUTE 4 W", "addr:postcode": "98643", "addr:state": "WA", "brand": "USPS", "collection_times": "Mo-Fr 16:30; Sa 08:00", "name": "USPS COLLECTION BOX - BLUE BOX", "note": "ON 12/24 AND 12/31, THIS BOX MAY BE COLLECTED AS EARLY AS 12 NOON.", "ref": "9864300003"}, "type": "Feature"}
{"geometry": {"coordinates": [-123.643176702, 46.33535522], "type": "Point"}, "id": "CwdPX5fbEyPul8grHkiQDuhLu9Q=", "properties": {"@spider": "usps_collection_boxes", "addr:city": "ROSBURG", "addr:country": "US", "addr:full": "4182 STATE ROUTE 4 W", "addr:postcode": "98643", "addr:state": "WA", "brand": "USPS", "collection_times": "Mo-Fr 12:00", "name": "USPS COLLECTION BOX - PO LOBBY", "ref": "9864300004"}, "type": "Feature"}
{"geometry": {"coordinates": [-124.054819, 46.331758], "type": "Point"}, "id": "5mVLdjGRX9kvfe4ZP3zOKABMjXA=", "properties": {"@spider": "usps_collection_boxes", "addr:city": "SEAVIEW", "addr:country": "US", "addr:full": "4006 PACIFIC HWY", "addr:postcode": "98644", "addr:state": "WA", "brand": "USPS", "collection_times": "Mo-Fr 16:30; Sa 10:00", "name": "USPS COLLECTION BOX - BLUE BOX", "note": "ON 12/24 AND 12/31, THIS BOX MAY BE COLLECTED AS EARLY AS 12 NOON.", "ref": "9864400001"}, "type": "Feature"}
{"geometry": {"coordinates": [-124.054859, 46.33168], "type": "Point"}, "id": "yBhzCY613MNI_O7aWe5t2gpDYo0=", "properties": {"@spider": "usps_collection_boxes", "addr:city": "SEAVIEW", "addr:country": "US", "addr:full": "4006 PACIFIC HWY", "addr:postcode": "98644", "addr:state": "WA", "brand": "USPS", "collection_times": "Mo-Fr 15:00; Sa 10:00", "name": "USPS COLLECTION BOX - PO LOBBY", "note": "ON 12/24 AND 12/31, THIS BOX MAY BE COLLECTED AS EARLY AS 12 NOON.", "ref": "9864400002"}, "type": "Feature"}
{"geometry": {"coordinates": [-124.054822725, 46.331847388], "type": "Point"}, "id": "0DPEE_rkleuigWb1n5Hr_ugZL9E=", "properties": {"@spider": "usps_collection_boxes", "addr:city": "SEAVIEW", "addr:country": "US", "addr:full": "4006 PACIFIC HWY", "addr:postcode": "98644", "addr:state": "WA", "brand": "USPS", "collection_times": "Mo-Fr 15:00", "name": "USPS COLLECTION BOX - PO LOBBY", "note": "ON 12/24 AND 12/31, THIS BOX MAY BE COLLECTED AS EARLY AS 12 NOON.", "ref": "9864400003"}, "type": "Feature"}
{"geometry": {"coordinates": [-121.883347, 45.693002], "type": "Point"}, "id": "X3rBiYG1Ium6t03vvi1-vhMhqQY=", "properties": {"@spider": "usps_collection_boxes", "addr:city": "STEVENSON", "addr:country": "US", "addr:full": "90 SW RUSSELL AVE", "addr:postcode": "98648", "addr:state": "WA", "brand": "USPS", "collection_times": "Mo-Fr 16:00; Sa 10:00", "name": "USPS COLLECTION BOX - BLUE BOX", "note": "ON 12/24 AND 12/31, THIS BOX MAY BE COLLECTED AS EARLY AS 12 NOON.", "ref": "9864800002"}, "type": "Feature"}
{"geometry": {"coordinates": [-121.883347, 45.693002], "type": "Point"}, "id": "TTBUYq2hsakM_L-oxE-QR18vdwI=", "properties": {"@spider": "usps_collection_boxes", "addr:city": "STEVENSON", "addr:country": "US", "addr:full": "90 SW RUSSELL AVE", "addr:postcode": "98648", "addr:state": "WA", "brand": "USPS", "collection_times": "Mo-Fr 16:30; Sa 10:00", "name": "USPS COLLECTION BOX - PO LOBBY", "note": "ON 12/24 AND 12/31, THIS BOX MAY BE COLLECTED AS EARLY AS 12 NOON.", "ref": "9864800003"}, "type": "Feature"}
{"geometry": {"coordinates": [-122.0526624481, 45.6142473891], "type": "Point"}, "id": "eEOLfKmsuFgiAanMDcn1VMGUOWA=", "properties": {"@spider": "usps_collection_boxes", "addr:city": "STEVENSON", "addr:country": "US", "addr:full": "33001 STATE HWY 14", "addr:postcode": "98648", "addr:state": "WA", "brand": "USPS", "collection_times": "Mo-Sa 10:30", "name": "USPS COLLECTION BOX - BLUE BOX", "ref": "9864800004"}, "type": "Feature"}
{"geometry": {"coordinates": [-121.883349549, 45.693006841], "type": "Point"}, "id": "UkH3mypHd3HxZW6r8AGjpkzULx0=", "properties": {"@spider": "usps_collection_boxes", "addr:city": "STEVENSON", "addr:country": "US", "addr:full": "90 SW RUSSELL AVE", "addr:postcode": "98648", "addr:state": "WA", "brand": "USPS", "collection_times": "Mo-Fr 17:00", "name": "USPS COLLECTION BOX - PO LOBBY", "note": "ON 12/24 AND 12/31, THIS BOX MAY BE COLLECTED AS EARLY AS 12 NOON.", "ref": "9864800005"}, "type": "Feature"}
{"geometry": {"coordinates": [-121.529011, 45.997039], "type": "Point"}, "id": "kj3nbtSXZvqLwPK6q09k1oa3Exs=", "properties": {"@spider": "usps_collection_boxes", "addr:city": "TROUT LAKE", "addr:country": "US", "addr:full": "2393 HIGHWAY 141", "addr:postcode": "98650", "addr:state": "WA", "brand": "USPS", "collection_times": "Mo-Fr 15:45; Sa 11:00", "name": "USPS COLLECTION BOX - BLUE BOX", "note": "ON 12/24 AND 12/31, THIS BOX MAY BE COLLECTED AS EARLY AS 12 NOON.", "ref": "9865000001"}, "type": "Feature"}
{"geometry": {"coordinates": [-121.529011, 45.997039], "type": "Point"}, "id": "ZlRlfkeTmX9cGT-bSvRLXWPBH_8=", "properties": {"@spider": "usps_collection_boxes", "addr:city": "TROUT LAKE", "addr:country": "US", "addr:full": "2393 HIGHWAY 141", "addr:postcode": "98650", "addr:state": "WA", "brand": "USPS", "collection_times": "Mo-Fr 15:45; Sa 11:00", "name": "USPS COLLECTION BOX - PO LOBBY", "note": "ON 12/24 AND 12/31, THIS BOX MAY BE COLLECTED AS EARLY AS 12 NOON.", "ref": "9865000002"}, "type": "Feature"}
{"geometry": {"coordinates": [-121.529011, 45.997039], "type": "Point"}, "id": "m9sqoPX_Akry_V41I9EJ3mD2eck=", "properties": {"@spider": "usps_collection_boxes", "addr:city": "TROUT LAKE", "addr:country": "US", "addr:full": "2393 HIGHWAY 141", "addr:postcode": "98650", "addr:state": "WA", "brand": "USPS", "collection_times": "Mo-Fr 15:45; Sa 11:00", "name": "USPS COLLECTION BOX - PO LOBBY", "note": "ON 12/24 AND 12/31, THIS BOX MAY BE COLLECTED AS EARLY AS 12 NOON.", "ref": "9865000003"}, "type": "Feature"}
{"geometry": {"coordinates": [-121.5289603349, 45.9969908148], "type": "Point"}, "id": "ymEJtQeGHVDN7-43hZRbVC0DQtk=", "properties": {"@spider": "usps_collection_boxes", "addr:city": "TROUT LAKE", "addr:country": "US", "addr:full": "2393 HIGHWAY 141", "addr:postcode": "98650", "addr:state": "WA", "brand": "USPS", "collection_times": "Mo-Fr 16:00", "name": "USPS COLLECTION BOX - PO LOBBY", "note": "ON 12/24 AND 12/31, THIS BOX MAY BE COLLECTED AS EARLY AS 12 NOON.", "ref": "9865000004"}, "type": "Feature"}
{"geometry": {"coordinates": [-121.537985, 45.738726], "type": "Point"}, "id": "BDr6HQ16nqy37zzndSGtKIXpve4=", "properties": {"@spider": "usps_collection_boxes", "addr:city": "UNDERWOOD", "addr:country": "US", "addr:full": "981 SCHOOLHOUSE RD", "addr:postcode": "98651", "addr:state": "WA", "brand": "USPS", "collection_times": "Mo-Fr 14:00; Sa 12:00", "name": "USPS COLLECTION BOX - BLUE BOX", "note": "ON 12/24 AND 12/31, THIS BOX MAY BE COLLECTED AS EARLY AS 12 NOON.", "ref": "9865100001"}, "type": "Feature"}
{"geometry": {"coordinates": [-121.537985, 45.738726], "type": "Point"}, "id": "gKxHBrhMAdLfvN6ltVKrDgmBmZg=", "properties": {"@spider": "usps_collection_boxes", "addr:city": "UNDERWOOD", "addr:country": "US", "addr:full": "981 SCHOOLHOUSE RD", "addr:postcode": "98651", "addr:state": "WA", "brand": "USPS", "collection_times": "Mo-Fr 14:00; Sa 12:00", "name": "USPS COLLECTION BOX - PO LOBBY", "note": "ON 12/24 AND 12/31, THIS BOX MAY BE COLLECTED AS EARLY AS 12 NOON.", "ref": "9865100002"}, "type": "Feature"}
{"geometry": {"coordinates": [-121.538000833, 45.738369618], "type": "Point"}, "id": "FjT833zNe2QgxY5usC68TUJqkg8=", "properties": {"@spider": "usps_collection_boxes", "addr:city": "UNDERWOOD", "addr:country": "US", "addr:full": "981 SCHOOLHOUSE RD", "addr:postcode": "98651", "addr:state": "WA", "brand": "USPS", "collection_times": "Mo-Fr 14:00", "name": "USPS COLLECTION BOX - PO LOBBY", "note": "ON 12/24 AND 12/31, THIS BOX MAY BE COLLECTED AS EARLY AS 12 NOON.", "ref": "9865100003"}, "type": "Feature"}
{"geometry": {"coordinates": [-121.509685, 45.849449], "type": "Point"}, "id": "UwpZ_6ITUsrZMJr-TxPOg19zbhg=", "properties": {"@spider": "usps_collection_boxes", "addr:city": "WHITE SALMON", "addr:country": "US", "addr:full": "1255 HIGHWAY 141", "addr:postcode": "98672", "addr:state": "WA", "brand": "USPS", "collection_times": "Mo-Fr 16:15; Sa 13:45", "name": "USPS COLLECTION BOX - BLUE BOX", "note": "ON 12/24 AND 12/31, THIS BOX MAY BE COLLECTED AS EARLY AS 12 NOON.", "ref": "9867200001"}, "type": "Feature"}
{"geometry": {"coordinates": [-121.486417, 45.727666], "type": "Point"}, "id": "k_pa4vGOVtpEnUKPR4Qr0G0og_Q=", "properties": {"@spider": "usps_collection_boxes", "addr:city": "WHITE SALMON", "addr:country": "US", "addr:full": "135 E JEWETT BLVD", "addr:postcode": "98672", "addr:state": "WA", "brand": "USPS", "collection_times": "Mo-Fr 16:45; Sa 14:00", "name": "USPS COLLECTION BOX - BLUE BOX", "note": "ON 12/24 AND 12/31, THIS BOX MAY BE COLLECTED AS EARLY AS 12 NOON.", "ref": "9867200002"}, "type": "Feature"}
{"geometry": {"coordinates": [-121.481433, 45.72891], "type": "Point"}, "id": "LtA1D4lsoG2BS3kumO-eFMWLlbs=", "properties": {"@spider": "usps_collection_boxes", "addr:city": "WHITE SALMON", "addr:country": "US", "addr:full": "185 NE SNOHOMISH AVE", "addr:postcode": "98672", "addr:state": "WA", "brand": "USPS", "collection_times": "Mo-Fr 17:00; Sa 14:00", "name": "USPS COLLECTION BOX - BLUE BOX", "note": "ON 12/24 AND 12/31, THIS BOX MAY BE COLLECTED AS EARLY AS 12 NOON.", "ref": "9867200004"}, "type": "Feature"}
{"geometry": {"coordinates": [-121.481433, 45.72891], "type": "Point"}, "id": "YUXrguWILmUq2rTd40kxZwQGU6E=", "properties": {"@spider": "usps_collection_boxes", "addr:city": "WHITE SALMON", "addr:country": "US", "addr:full": "185 NE SNOHOMISH AVE", "addr:postcode": "98672", "addr:state": "WA", "brand": "USPS", "collection_times": "Mo-Fr 17:00; Sa 14:00", "name": "USPS COLLECTION BOX - BLUE BOX", "note": "ON 12/24 AND 12/31, THIS BOX MAY BE COLLECTED AS EARLY AS 12 NOON.", "ref": "9867200005"}, "type": "Feature"}
{"geometry": {"coordinates": [-121.481433, 45.72891], "type": "Point"}, "id": "7WaHXHT-mS-CQS4qsgAx_Ah9cLI=", "properties": {"@spider": "usps_collection_boxes", "addr:city": "WHITE SALMON", "addr:country": "US", "addr:full": "185 NE SNOHOMISH AVE", "addr:postcode": "98672", "addr:state": "WA", "brand": "USPS", "collection_times": "Mo-Fr 17:00; Sa 10:00", "name": "USPS COLLECTION BOX - PO LOBBY", "note": "ON 12/24 AND 12/31, THIS BOX MAY BE COLLECTED AS EARLY AS 12 NOON.", "ref": "9867200006"}, "type": "Feature"}
{"geometry": {"coordinates": [-121.481713108, 45.728981832], "type": "Point"}, "id": "17dCHRoKy4qa3o1-esjTOjmAYMg=", "properties": {"@spider": "usps_collection_boxes", "addr:city": "WHITE SALMON", "addr:country": "US", "addr:full": "185 NE SNOHOMISH AVE", "addr:postcode": "98672", "addr:state": "WA", "brand": "USPS", "collection_times": "Mo-Fr 17:00", "name": "USPS COLLECTION BOX - PO LOBBY", "note": "ON 12/24 AND 12/31, THIS BOX MAY BE COLLECTED AS EARLY AS 12 NOON.", "ref": "9867200008"}, "type": "Feature"}
{"geometry": {"coordinates": [-120.968947, 45.657262], "type": "Point"}, "id": "5KTelfO-dMTITSRHt0i1l6BxwSo=", "properties": {"@spider": "usps_collection_boxes", "addr:city": "WISHRAM", "addr:country": "US", "addr:full": "521 BRIDGEWAY RD", "addr:postcode": "98673", "addr:state": "WA", "brand": "USPS", "collection_times": "Mo-Fr 16:45; Sa 09:45", "name": "USPS COLLECTION BOX - BLUE BOX", "note": "ON 12/24 AND 12/31, THIS BOX MAY BE COLLECTED AS EARLY AS 12 NOON.", "ref": "9867300001"}, "type": "Feature"}
{"geometry": {"coordinates": [-120.96928, 45.656836], "type": "Point"}, "id": "fKEL3miFUjqPt7G8mS_VW_dDRC0=", "properties": {"@spider": "usps_collection_boxes", "addr:city": "WISHRAM", "addr:country": "US", "addr:full": "521 BRIDGEWAY RD", "addr:postcode": "98673", "addr:state": "WA", "brand": "USPS", "collection_times": "Mo-Fr 12:00; Sa 09:45", "name": "USPS COLLECTION BOX - PO LOBBY", "ref": "9867300002"}, "type": "Feature"}
{"geometry": {"coordinates": [-120.968937221, 45.657201066], "type": "Point"}, "id": "wKFxbjhy3Iw5vQijsPNO5OP8hdI=", "properties": {"@spider": "usps_collection_boxes", "addr:city": "WISHRAM", "addr:country": "US", "addr:full": "521 BRIDGEWAY RD", "addr:postcode": "98673", "addr:state": "WA", "brand": "USPS", "collection_times": "Mo-Fr 12:00", "name": "USPS COLLECTION BOX - PO LOBBY", "ref": "9867300003"}, "type": "Feature"}
