{"dataset_attributes": {"@spider": "usps_collection_boxes", "spider:collection_time": "2023-09-04T08:25:30.667448"}, "geometry": {"coordinates": [-120.324626, 47.442789], "type": "Point"}, "id": "_ZqOyAhkfeQnjizsRtqhWEPg1Zw=", "properties": {"@spider": "usps_collection_boxes", "addr:city": "WENATCHEE", "addr:country": "US", "addr:full": "1505 N MILLER ST", "addr:postcode": "98801", "addr:state": "WA", "amenity": "post_box", "brand": "United States Postal Service", "brand:wikidata": "Q668687", "collection_times": "Mo-Sa 11:00", "name": "USPS COLLECTION BOX - BLUE BOX", "nsi_id": "unitedstatespostalservice-a77078", "operator": "United States Postal Service", "operator:short": "USPS", "operator:type": "public", "operator:wikidata": "Q668687", "ref": "9880100001"}, "type": "Feature"}
{"dataset_attributes": {"@spider": "usps_collection_boxes", "spider:collection_time": "2023-09-04T08:25:30.667448"}, "geometry": {"coordinates": [-120.320429, 47.406186], "type": "Point"}, "id": "YMYlMX3iKKKIH48laq4IUiLjiJg=", "properties": {"@spider": "usps_collection_boxes", "addr:city": "WENATCHEE", "addr:country": "US", "addr:full": "1300 FULLER ST", "addr:postcode": "98801", "addr:state": "WA", "amenity": "post_box", "brand": "United States Postal Service", "brand:wikidata": "Q668687", "collection_times": "Mo-Sa 11:00", "name": "USPS COLLECTION BOX - BLUE BOX", "nsi_id": "unitedstatespostalservice-a77078", "operator": "United States Postal Service", "operator:short": "USPS", "operator:type": "public", "operator:wikidata": "Q668687", "ref": "9880100010"}, "type": "Feature"}
{"dataset_attributes": {"@spider": "usps_collection_boxes", "spider:collection_time": "2023-09-04T08:25:30.667448"}, "geometry": {"coordinates": [-120.315479, 47.422006], "type": "Point"}, "id": "mV41EHnD9mICl0ADNR5hVkC58Ng=", "properties": {"@spider": "usps_collection_boxes", "addr:city": "WENATCHEE", "addr:country": "US", "addr:full": "401 WASHINGTON ST", "addr:postcode": "98801", "addr:state": "WA", "amenity": "post_box", "brand": "United States Postal Service", "brand:wikidata": "Q668687", "collection_times": "Mo-Fr 14:30; Sa 14:00", "name": "USPS COLLECTION BOX - BLUE BOX", "note": "ON 12/24 AND 12/31, THIS BOX MAY BE COLLECTED AS EARLY AS 12 NOON.", "nsi_id": "unitedstatespostalservice-a77078", "operator": "United States Postal Service", "operator:short": "USPS", "operator:type": "public", "operator:wikidata": "Q668687", "ref": "9880100017"}, "type": "Feature"}
{"dataset_attributes": {"@spider": "usps_collection_boxes", "spider:collection_time": "2023-09-04T08:25:30.667448"}, "geometry": {"coordinates": [-120.314777, 47.426947], "type": "Point"}, "id": "ijkJ21OZiXkg43K3cOgpoDDLJ6M=", "properties": {"@spider": "usps_collection_boxes", "addr:city": "WENATCHEE", "addr:country": "US", "addr:full": "201 N MISSION ST", "addr:postcode": "98801", "addr:state": "WA", "amenity": "post_box", "brand": "United States Postal Service", "brand:wikidata": "Q668687", "collection_times": "Mo-Sa 11:00", "name": "USPS COLLECTION BOX - BLUE BOX", "nsi_id": "unitedstatespostalservice-a77078", "operator": "United States Postal Service", "operator:short": "USPS", "operator:type": "public", "operator:wikidata": "Q668687", "ref": "9880100020"}, "type": "Feature"}
{"dataset_attributes": {"@spider": "usps_collection_boxes", "spider:collection_time": "2023-09-04T08:25:30.667448"}, "geometry": {"coordinates": [-120.318831, 47.431507], "type": "Point"}, "id": "-b6W4dECZ1qAXNxL6XbHVdsdyx8=", "properties": {"@spider": "usps_collection_boxes", "addr:city": "WENATCHEE", "addr:country": "US", "addr:full": "600 N MISSION ST", "addr:postcode": "98801", "addr:state": "WA", "amenity": "post_box", "brand": "United States Postal Service", "brand:wikidata": "Q668687", "collection_times": "Mo-Sa 11:00", "name": "USPS COLLECTION BOX - BLUE BOX", "nsi_id": "unitedstatespostalservice-a77078", "operator": "United States Postal Service", "operator:short": "USPS", "operator:type": "public", "operator:wikidata": "Q668687", "ref": "9880100021"}, "type": "Feature"}
{"dataset_attributes": {"@spider": "usps_collection_boxes", "spider:collection_time": "2023-09-04T08:25:30.667448"}, "geometry": {"coordinates": [-120.33352, 47.468086], "type": "Point"}, "id": "ukei4KoKh1P6aV79OngMxaIaTOY=", "properties": {"@spider": "usps_collection_boxes", "addr:city": "WENATCHEE", "addr:country": "US", "addr:full": "147 EASY WAY", "addr:postcode": "98801", "addr:state": "WA", "amenity": "post_box", "brand": "United States Postal Service", "brand:wikidata": "Q668687", "collection_times": "Mo-Sa 10:00", "name": "USPS COLLECTION BOX - BLUE BOX", "nsi_id": "unitedstatespostalservice-a77078", "operator": "United States Postal Service", "operator:short": "USPS", "operator:type": "public", "operator:wikidata": "Q668687", "ref": "9880100025"}, "type": "Feature"}
{"dataset_attributes": {"@spider": "usps_collection_boxes", "spider:collection_time": "2023-09-04T08:25:30.667448"}, "geometry": {"coordinates": [-120.326942, 47.439789], "type": "Point"}, "id": "9SuA415W-fIhI5oJMIZaXJEYUbA=", "properties": {"@spider": "usps_collection_boxes", "addr:city": "WENATCHEE", "addr:country": "US", "addr:full": "1300 N MILLER ST", "addr:postcode": "98801", "addr:state": "WA", "amenity": "post_box", "brand": "United States Postal Service", "brand:wikidata": "Q668687", "collection_times": "Mo-Sa 11:00", "name": "USPS COLLECTION BOX - BLUE BOX", "nsi_id": "unitedstatespostalservice-a77078", "operator": "United States Postal Service", "operator:short": "USPS", "operator:type": "public", "operator:wikidata": "Q668687", "ref": "9880100028"}, "type": "Feature"}
{"dataset_attributes": {"@spider": "usps_collection_boxes", "spider:collection_time": "2023-09-04T08:25:30.667448"}, "geometry": {"coordinates": [-120.326412, 47.438163], "type": "Point"}, "id": "y01bN85O9oUZATtBc8EpKqcttP0=", "properties": {"@spider": "usps_collection_boxes", "addr:city": "WENATCHEE", "addr:country": "US", "addr:full": "1128 N MILLER ST", "addr:postcode": "98801", "addr:state": "WA", "amenity": "post_box", "brand": "United States Postal Service", "brand:wikidata": "Q668687", "collection_times": "Mo-Sa 12:00", "name": "USPS COLLECTION BOX - BLUE BOX", "nsi_id": "unitedstatespostalservice-a77078", "operator": "United States Postal Service", "operator:short": "USPS", "operator:type": "public", "operator:wikidata": "Q668687", "ref": "9880100029"}, "type": "Feature"}
{"dataset_attributes": {"@spider": "usps_collection_boxes", "spider:collection_time": "2023-09-04T08:25:30.667448"}, "geometry": {"coordinates": [-120.321785, 47.43072], "type": "Point"}, "id": "HsRpyww5HjZpIJdCmabFhmUFrFg=", "properties": {"@spider": "usps_collection_boxes", "addr:city": "WENATCHEE", "addr:country": "US", "addr:full": "615 N EMERSON AVE", "addr:postcode": "98801", "addr:state": "WA", "amenity": "post_box", "brand": "United States Postal Service", "brand:wikidata": "Q668687", "collection_times": "Mo-Sa 10:00", "name": "USPS COLLECTION BOX - BLUE BOX", "nsi_id": "unitedstatespostalservice-a77078", "operator": "United States Postal Service", "operator:short": "USPS", "operator:type": "public", "operator:wikidata": "Q668687", "ref": "9880100030"}, "type": "Feature"}
{"dataset_attributes": {"@spider": "usps_collection_boxes", "spider:collection_time": "2023-09-04T08:25:30.667448"}, "geometry": {"coordinates": [-120.324363, 47.430838], "type": "Point"}, "id": "oLEid9droQHq4fTjz1HUc6lhNWU=", "properties": {"@spider": "usps_collection_boxes", "addr:city": "WENATCHEE", "addr:country": "US", "addr:full": "501 N MILLER ST", "addr:postcode": "98801", "addr:state": "WA", "amenity": "post_box", "brand": "United States Postal Service", "brand:wikidata": "Q668687", "collection_times": "Mo-Sa 11:00", "name": "USPS COLLECTION BOX - BLUE BOX", "nsi_id": "unitedstatespostalservice-a77078", "operator": "United States Postal Service", "operator:short": "USPS", "operator:type": "public", "operator:wikidata": "Q668687", "ref": "9880100031"}, "type": "Feature"}
{"dataset_attributes": {"@spider": "usps_collection_boxes", "spider:collection_time": "2023-09-04T08:25:30.667448"}, "geometry": {"coordinates": [-120.346055, 47.429877], "type": "Point"}, "id": "ALZr2M95kqSwCwxzWIfm6XaBTds=", "properties": {"@spider": "usps_collection_boxes", "addr:city": "WENATCHEE", "addr:country": "US", "addr:full": "509 N WESTERN AVE", "addr:postcode": "98801", "addr:state": "WA", "amenity": "post_box", "brand": "United States Postal Service", "brand:wikidata": "Q668687", "collection_times": "Mo-Sa 11:00", "name": "USPS COLLECTION BOX - BLUE BOX", "nsi_id": "unitedstatespostalservice-a77078", "operator": "United States Postal Service", "operator:short": "USPS", "operator:type": "public", "operator:wikidata": "Q668687", "ref": "9880100033"}, "type": "Feature"}
{"dataset_attributes": {"@spider": "usps_collection_boxes", "spider:collection_time": "2023-09-04T08:25:30.667448"}, "geometry": {"coordinates": [-120.317735, 47.418725], "type": "Point"}, "id": "JTVfGuDyA1wFiyZXw0aw-lCUX0Y=", "properties": {"@spider": "usps_collection_boxes", "addr:city": "WENATCHEE", "addr:country": "US", "addr:full": "600 ORONDO AVE", "addr:postcode": "98801", "addr:state": "WA", "amenity": "post_box", "brand": "United States Postal Service", "brand:wikidata": "Q668687", "collection_times": "Mo-Sa 10:00", "name": "USPS COLLECTION BOX - BLUE BOX", "nsi_id": "unitedstatespostalservice-a77078", "operator": "United States Postal Service", "operator:short": "USPS", "operator:type": "public", "operator:wikidata": "Q668687", "ref": "9880100040"}, "type": "Feature"}
{"dataset_attributes": {"@spider": "usps_collection_boxes", "spider:collection_time": "2023-09-04T08:25:30.667448"}, "geometry": {"coordinates": [-120.32289, 47.407616], "type": "Point"}, "id": "levRrn2zC9mK-fnyKx-HcEYf26E=", "properties": {"@spider": "usps_collection_boxes", "addr:city": "WENATCHEE", "addr:country": "US", "addr:full": "933 RED APPLE RD", "addr:postcode": "98801", "addr:state": "WA", "amenity": "post_box", "brand": "United States Postal Service", "brand:wikidata": "Q668687", "collection_times": "Mo-Sa 11:00", "name": "USPS COLLECTION BOX - BLUE BOX", "nsi_id": "unitedstatespostalservice-a77078", "operator": "United States Postal Service", "operator:short": "USPS", "operator:type": "public", "operator:wikidata": "Q668687", "ref": "9880100041"}, "type": "Feature"}
{"dataset_attributes": {"@spider": "usps_collection_boxes", "spider:collection_time": "2023-09-04T08:25:30.667448"}, "geometry": {"coordinates": [-120.310935, 47.424021], "type": "Point"}, "id": "fmO3qvPFEefJnC11s-r1lMjiPiA=", "properties": {"@spider": "usps_collection_boxes", "addr:city": "WENATCHEE", "addr:country": "US", "addr:full": "21 S WENATCHEE AVE", "addr:postcode": "98801", "addr:state": "WA", "amenity": "post_box", "brand": "United States Postal Service", "brand:wikidata": "Q668687", "collection_times": "Mo-Sa 11:00", "name": "USPS COLLECTION BOX - BLUE BOX", "nsi_id": "unitedstatespostalservice-a77078", "operator": "United States Postal Service", "operator:short": "USPS", "operator:type": "public", "operator:wikidata": "Q668687", "ref": "9880100043"}, "type": "Feature"}
{"dataset_attributes": {"@spider": "usps_collection_boxes", "spider:collection_time": "2023-09-04T08:25:30.667448"}, "geometry": {"coordinates": [-120.311952, 47.425296], "type": "Point"}, "id": "OzA77hShxCcnWwYvKc9__Pi5Oao=", "properties": {"@spider": "usps_collection_boxes", "addr:city": "WENATCHEE", "addr:country": "US", "addr:full": "19 N WENATCHEE AVE", "addr:postcode": "98801", "addr:state": "WA", "amenity": "post_box", "brand": "United States Postal Service", "brand:wikidata": "Q668687", "collection_times": "Mo-Sa 11:00", "name": "USPS COLLECTION BOX - BLUE BOX", "nsi_id": "unitedstatespostalservice-a77078", "operator": "United States Postal Service", "operator:short": "USPS", "operator:type": "public", "operator:wikidata": "Q668687", "ref": "9880100044"}, "type": "Feature"}
{"dataset_attributes": {"@spider": "usps_collection_boxes", "spider:collection_time": "2023-09-04T08:25:30.667448"}, "geometry": {"coordinates": [-120.320435, 47.431816], "type": "Point"}, "id": "ObxRWi1RtQlfl0CGaMYNM7WOqMI=", "properties": {"@spider": "usps_collection_boxes", "addr:city": "WENATCHEE", "addr:country": "US", "addr:full": "701 N CHELAN AVE", "addr:postcode": "98801", "addr:state": "WA", "amenity": "post_box", "brand": "United States Postal Service", "brand:wikidata": "Q668687", "collection_times": "Mo-Sa 11:00", "name": "USPS COLLECTION BOX - BLUE BOX", "nsi_id": "unitedstatespostalservice-a77078", "operator": "United States Postal Service", "operator:short": "USPS", "operator:type": "public", "operator:wikidata": "Q668687", "ref": "9880100046"}, "type": "Feature"}
{"dataset_attributes": {"@spider": "usps_collection_boxes", "spider:collection_time": "2023-09-04T08:25:30.667448"}, "geometry": {"coordinates": [-120.314341, 47.424505], "type": "Point"}, "id": "tlqTuiRhZC6ouYVSYzjtxdlf2pM=", "properties": {"@spider": "usps_collection_boxes", "addr:city": "WENATCHEE", "addr:country": "US", "addr:full": "27 N CHELAN AVE", "addr:postcode": "98801", "addr:state": "WA", "amenity": "post_box", "brand": "United States Postal Service", "brand:wikidata": "Q668687", "collection_times": "Mo-Sa 12:00", "name": "USPS COLLECTION BOX - BLUE BOX", "nsi_id": "unitedstatespostalservice-a77078", "operator": "United States Postal Service", "operator:short": "USPS", "operator:type": "public", "operator:wikidata": "Q668687", "ref": "9880100048"}, "type": "Feature"}
{"dataset_attributes": {"@spider": "usps_collection_boxes", "spider:collection_time": "2023-09-04T08:25:30.667448"}, "geometry": {"coordinates": [-120.312141, 47.421849], "type": "Point"}, "id": "KpRJrFpGymELc3d1jDXlkagJvKY=", "properties": {"@spider": "usps_collection_boxes", "addr:city": "WENATCHEE", "addr:country": "US", "addr:full": "129 S CHELAN AVE", "addr:postcode": "98801", "addr:state": "WA", "amenity": "post_box", "brand": "United States Postal Service", "brand:wikidata": "Q668687", "collection_times": "Mo-Sa 12:00", "name": "USPS COLLECTION BOX - BLUE BOX", "nsi_id": "unitedstatespostalservice-a77078", "operator": "United States Postal Service", "operator:short": "USPS", "operator:type": "public", "operator:wikidata": "Q668687", "ref": "9880100049"}, "type": "Feature"}
{"dataset_attributes": {"@spider": "usps_collection_boxes", "spider:collection_time": "2023-09-04T08:25:30.667448"}, "geometry": {"coordinates": [-120.32778, 47.442366], "type": "Point"}, "id": "n-k8Gc98c35USwKu0Vmccww3-PE=", "properties": {"@spider": "usps_collection_boxes", "addr:city": "WENATCHEE", "addr:country": "US", "addr:full": "1050 MAPLE ST", "addr:postcode": "98801", "addr:state": "WA", "amenity": "post_box", "brand": "United States Postal Service", "brand:wikidata": "Q668687", "collection_times": "Mo-Fr 16:30; Sa 14:00", "name": "USPS COLLECTION BOX - BLUE BOX", "note": "ON 12/24 AND 12/31, THIS BOX MAY BE COLLECTED AS EARLY AS 12 NOON.", "nsi_id": "unitedstatespostalservice-a77078", "operator": "United States Postal Service", "operator:short": "USPS", "operator:type": "public", "operator:wikidata": "Q668687", "ref": "9880100050"}, "type": "Feature"}
{"dataset_attributes": {"@spider": "usps_collection_boxes", "spider:collection_time": "2023-09-04T08:25:30.667448"}, "geometry": {"coordinates": [-120.32778, 47.442366], "type": "Point"}, "id": "2yXcw7b-jAc0MaveDj2WYYp26Jw=", "properties": {"@spider": "usps_collection_boxes", "addr:city": "WENATCHEE", "addr:country": "US", "addr:full": "1050 MAPLE ST", "addr:postcode": "98801", "addr:state": "WA", "amenity": "post_box", "brand": "United States Postal Service", "brand:wikidata": "Q668687", "collection_times": "Mo-Fr 16:30; Sa 13:00", "name": "USPS COLLECTION BOX - PO LOBBY", "note": "ON 12/24 AND 12/31, THIS BOX MAY BE COLLECTED AS EARLY AS 12 NOON.", "nsi_id": "unitedstatespostalservice-a77078", "operator": "United States Postal Service", "operator:short": "USPS", "operator:type": "public", "operator:wikidata": "Q668687", "ref": "9880100054"}, "type": "Feature"}
{"dataset_attributes": {"@spider": "usps_collection_boxes", "spider:collection_time": "2023-09-04T08:25:30.667448"}, "geometry": {"coordinates": [-120.329863, 47.44679], "type": "Point"}, "id": "YP8goKqaJ4tPONcMP-JCkxBMN6U=", "properties": {"@spider": "usps_collection_boxes", "addr:city": "WENATCHEE", "addr:country": "US", "addr:full": "1616 N WENATCHEE AVE", "addr:postcode": "98801", "addr:state": "WA", "amenity": "post_box", "brand": "United States Postal Service", "brand:wikidata": "Q668687", "collection_times": "Mo-Sa 11:00", "name": "USPS COLLECTION BOX - BLUE BOX", "nsi_id": "unitedstatespostalservice-a77078", "operator": "United States Postal Service", "operator:short": "USPS", "operator:type": "public", "operator:wikidata": "Q668687", "ref": "9880100058"}, "type": "Feature"}
{"dataset_attributes": {"@spider": "usps_collection_boxes", "spider:collection_time": "2023-09-04T08:25:30.667448"}, "geometry": {"coordinates": [-120.335228, 47.470391], "type": "Point"}, "id": "4TpG-xDyVB-23Xw168r76P1BTCY=", "properties": {"@spider": "usps_collection_boxes", "addr:city": "WENATCHEE", "addr:country": "US", "addr:full": "201 EASY ST", "addr:postcode": "98801", "addr:state": "WA", "amenity": "post_box", "brand": "United States Postal Service", "brand:wikidata": "Q668687", "collection_times": "Mo-Sa 14:00", "name": "USPS COLLECTION BOX - BLUE BOX", "note": "ON 12/24 AND 12/31, THIS BOX MAY BE COLLECTED AS EARLY AS 12 NOON.", "nsi_id": "unitedstatespostalservice-a77078", "operator": "United States Postal Service", "operator:short": "USPS", "operator:type": "public", "operator:wikidata": "Q668687", "ref": "9880100059"}, "type": "Feature"}
{"dataset_attributes": {"@spider": "usps_collection_boxes", "spider:collection_time": "2023-09-04T08:25:30.667448"}, "geometry": {"coordinates": [-120.33013, 47.47234], "type": "Point"}, "id": "pPfNWgGuXorBvhSBX3AO6ZxPqHM=", "properties": {"@spider": "usps_collection_boxes", "addr:city": "WENATCHEE", "addr:country": "US", "addr:full": "3075 OHME RD", "addr:postcode": "98801", "addr:state": "WA", "amenity": "post_box", "brand": "United States Postal Service", "brand:wikidata": "Q668687", "collection_times": "Mo-Sa 16:30", "name": "USPS COLLECTION BOX - BLUE BOX", "note": "ON 12/24 AND 12/31, THIS BOX MAY BE COLLECTED AS EARLY AS 12 NOON.", "nsi_id": "unitedstatespostalservice-a77078", "operator": "United States Postal Service", "operator:short": "USPS", "operator:type": "public", "operator:wikidata": "Q668687", "ref": "9880100061"}, "type": "Feature"}
{"dataset_attributes": {"@spider": "usps_collection_boxes", "spider:collection_time": "2023-09-04T08:25:30.667448"}, "geometry": {"coordinates": [-120.333946, 47.465003], "type": "Point"}, "id": "2xHpdHjlQvB3e7QcfkJgIZKv38o=", "properties": {"@spider": "usps_collection_boxes", "addr:city": "WENATCHEE", "addr:country": "US", "addr:full": "2605 CHESTER KIMM RD", "addr:postcode": "98801", "addr:state": "WA", "amenity": "post_box", "brand": "United States Postal Service", "brand:wikidata": "Q668687", "collection_times": "Mo-Sa 11:00", "name": "USPS COLLECTION BOX - BLUE BOX", "nsi_id": "unitedstatespostalservice-a77078", "operator": "United States Postal Service", "operator:short": "USPS", "operator:type": "public", "operator:wikidata": "Q668687", "ref": "9880100065"}, "type": "Feature"}
{"dataset_attributes": {"@spider": "usps_collection_boxes", "spider:collection_time": "2023-09-04T08:25:30.667448"}, "geometry": {"coordinates": [-120.327863139, 47.442363504], "type": "Point"}, "id": "Do7LQhQW3JTxa8TcuPCHz-UlGiM=", "properties": {"@spider": "usps_collection_boxes", "addr:city": "WENATCHEE", "addr:country": "US", "addr:full": "1050 MAPLE ST", "addr:postcode": "98801", "addr:state": "WA", "amenity": "post_box", "brand": "United States Postal Service", "brand:wikidata": "Q668687", "collection_times": "Mo-Fr 17:00; Sa 13:00", "name": "USPS COLLECTION BOX - PO LOBBY", "note": "ON 12/24 AND 12/31, THIS BOX MAY BE COLLECTED AS EARLY AS 12 NOON.", "nsi_id": "unitedstatespostalservice-a77078", "operator": "United States Postal Service", "operator:short": "USPS", "operator:type": "public", "operator:wikidata": "Q668687", "ref": "9880100069"}, "type": "Feature"}
{"dataset_attributes": {"@spider": "usps_collection_boxes", "spider:collection_time": "2023-09-04T08:25:30.667448"}, "geometry": {"coordinates": [-120.297627, 47.462543], "type": "Point"}, "id": "zswqtGG2NdXW7160Z4sFQspD0Zc=", "properties": {"@spider": "usps_collection_boxes", "addr:city": "EAST WENATCHEE", "addr:country": "US", "addr:full": "3330 SUNSET HWY", "addr:postcode": "98802", "addr:state": "WA", "amenity": "post_box", "brand": "United States Postal Service", "brand:wikidata": "Q668687", "collection_times": "Mo-Sa 14:00", "name": "USPS COLLECTION BOX - BLUE BOX", "note": "ON 12/24 AND 12/31, THIS BOX MAY BE COLLECTED AS EARLY AS 12 NOON.", "nsi_id": "unitedstatespostalservice-a77078", "operator": "United States Postal Service", "operator:short": "USPS", "operator:type": "public", "operator:wikidata": "Q668687", "ref": "9880200000"}, "type": "Feature"}
{"dataset_attributes": {"@spider": "usps_collection_boxes", "spider:collection_time": "2023-09-04T08:25:30.667448"}, "geometry": {"coordinates": [-120.283935, 47.41829], "type": "Point"}, "id": "8GOEklskQSDjMld-CH12VTl3FSc=", "properties": {"@spider": "usps_collection_boxes", "addr:city": "EAST WENATCHEE", "addr:country": "US", "addr:full": "450 9TH ST NE", "addr:postcode": "98802", "addr:state": "WA", "amenity": "post_box", "brand": "United States Postal Service", "brand:wikidata": "Q668687", "collection_times": "Mo-Sa 11:00", "name": "USPS COLLECTION BOX - BLUE BOX", "nsi_id": "unitedstatespostalservice-a77078", "operator": "United States Postal Service", "operator:short": "USPS", "operator:type": "public", "operator:wikidata": "Q668687", "ref": "9880200002"}, "type": "Feature"}
{"dataset_attributes": {"@spider": "usps_collection_boxes", "spider:collection_time": "2023-09-04T08:25:30.667448"}, "geometry": {"coordinates": [-120.28674, 47.4176], "type": "Point"}, "id": "X_oCEUbNhHzDAocCIbqDhde0S68=", "properties": {"@spider": "usps_collection_boxes", "addr:city": "EAST WENATCHEE", "addr:country": "US", "addr:full": "1688 GRANT RD", "addr:postcode": "98802", "addr:state": "WA", "amenity": "post_box", "brand": "United States Postal Service", "brand:wikidata": "Q668687", "collection_times": "Mo-Sa 10:00", "name": "USPS COLLECTION BOX - BLUE BOX", "nsi_id": "unitedstatespostalservice-a77078", "operator": "United States Postal Service", "operator:short": "USPS", "operator:type": "public", "operator:wikidata": "Q668687", "ref": "9880200004"}, "type": "Feature"}
{"dataset_attributes": {"@spider": "usps_collection_boxes", "spider:collection_time": "2023-09-04T08:25:30.667448"}, "geometry": {"coordinates": [-120.204562, 47.402127], "type": "Point"}, "id": "0WjIvkeO_kC2g-QGhM-zNFscX38=", "properties": {"@spider": "usps_collection_boxes", "addr:city": "EAST WENATCHEE", "addr:country": "US", "addr:full": "315 VALLEY MALL PKWY", "addr:postcode": "98802", "addr:state": "WA", "amenity": "post_box", "brand": "United States Postal Service", "brand:wikidata": "Q668687", "collection_times": "Mo-Sa 11:00", "name": "USPS COLLECTION BOX - BLUE BOX", "nsi_id": "unitedstatespostalservice-a77078", "operator": "United States Postal Service", "operator:short": "USPS", "operator:type": "public", "operator:wikidata": "Q668687", "ref": "9880200005"}, "type": "Feature"}
{"dataset_attributes": {"@spider": "usps_collection_boxes", "spider:collection_time": "2023-09-04T08:25:30.667448"}, "geometry": {"coordinates": [-120.288072, 47.407765], "type": "Point"}, "id": "2kRiRqc1jNTI6dy-s_AzAy2zQmk=", "properties": {"@spider": "usps_collection_boxes", "addr:city": "EAST WENATCHEE", "addr:country": "US", "addr:full": "199 VALLEY MALL PKWY", "addr:postcode": "98802", "addr:state": "WA", "amenity": "post_box", "brand": "United States Postal Service", "brand:wikidata": "Q668687", "collection_times": "Mo-Sa 11:00", "name": "USPS COLLECTION BOX - BLUE BOX", "nsi_id": "unitedstatespostalservice-a77078", "operator": "United States Postal Service", "operator:short": "USPS", "operator:type": "public", "operator:wikidata": "Q668687", "ref": "9880200007"}, "type": "Feature"}
{"dataset_attributes": {"@spider": "usps_collection_boxes", "spider:collection_time": "2023-09-04T08:25:30.667448"}, "geometry": {"coordinates": [-120.289716, 47.411658], "type": "Point"}, "id": "C5dDnn--1I9lmztiJhzooxNTEME=", "properties": {"@spider": "usps_collection_boxes", "addr:city": "EAST WENATCHEE", "addr:country": "US", "addr:full": "511 VALLEY MALL PKWY", "addr:postcode": "98802", "addr:state": "WA", "amenity": "post_box", "brand": "United States Postal Service", "brand:wikidata": "Q668687", "collection_times": "Mo-Sa 11:00", "name": "USPS COLLECTION BOX - BLUE BOX", "nsi_id": "unitedstatespostalservice-a77078", "operator": "United States Postal Service", "operator:short": "USPS", "operator:type": "public", "operator:wikidata": "Q668687", "ref": "9880200009"}, "type": "Feature"}
{"dataset_attributes": {"@spider": "usps_collection_boxes", "spider:collection_time": "2023-09-04T08:25:30.667448"}, "geometry": {"coordinates": [-120.292155, 47.412953], "type": "Point"}, "id": "hPCjMBk4yp0Gi9_feyYtj6CvewE=", "properties": {"@spider": "usps_collection_boxes", "addr:city": "EAST WENATCHEE", "addr:country": "US", "addr:full": "630 VALLEY MALL PKWY", "addr:postcode": "98802", "addr:state": "WA", "amenity": "post_box", "brand": "United States Postal Service", "brand:wikidata": "Q668687", "collection_times": "Mo-Sa 11:00", "name": "USPS COLLECTION BOX - BLUE BOX", "nsi_id": "unitedstatespostalservice-a77078", "operator": "United States Postal Service", "operator:short": "USPS", "operator:type": "public", "operator:wikidata": "Q668687", "ref": "9880200010"}, "type": "Feature"}
{"dataset_attributes": {"@spider": "usps_collection_boxes", "spider:collection_time": "2023-09-04T08:25:30.667448"}, "geometry": {"coordinates": [-120.293721, 47.415784], "type": "Point"}, "id": "8m-4mmR7s7VqH4vNiGmpmRHsLJo=", "properties": {"@spider": "usps_collection_boxes", "addr:city": "EAST WENATCHEE", "addr:country": "US", "addr:full": "900 VALLEY MALL PKWY", "addr:postcode": "98802", "addr:state": "WA", "amenity": "post_box", "brand": "United States Postal Service", "brand:wikidata": "Q668687", "collection_times": "Mo-Sa 10:00", "name": "USPS COLLECTION BOX - BLUE BOX", "nsi_id": "unitedstatespostalservice-a77078", "operator": "United States Postal Service", "operator:short": "USPS", "operator:type": "public", "operator:wikidata": "Q668687", "ref": "9880200012"}, "type": "Feature"}
{"dataset_attributes": {"@spider": "usps_collection_boxes", "spider:collection_time": "2023-09-04T08:25:30.667448"}, "geometry": {"coordinates": [-120.280755, 47.40568], "type": "Point"}, "id": "kUZUQiF1xIKueryU_yFO6ma31Wg=", "properties": {"@spider": "usps_collection_boxes", "addr:city": "EAST WENATCHEE", "addr:country": "US", "addr:full": "500 GRANT RD", "addr:postcode": "98802", "addr:state": "WA", "amenity": "post_box", "brand": "United States Postal Service", "brand:wikidata": "Q668687", "collection_times": "Mo-Sa 11:00", "name": "USPS COLLECTION BOX - BLUE BOX", "nsi_id": "unitedstatespostalservice-a77078", "operator": "United States Postal Service", "operator:short": "USPS", "operator:type": "public", "operator:wikidata": "Q668687", "ref": "9880200013"}, "type": "Feature"}
{"dataset_attributes": {"@spider": "usps_collection_boxes", "spider:collection_time": "2023-09-04T08:25:30.667448"}, "geometry": {"coordinates": [-120.281407, 47.406854], "type": "Point"}, "id": "B2sfbK2oL3QnxrxZm38pP6Uq1YY=", "properties": {"@spider": "usps_collection_boxes", "addr:city": "EAST WENATCHEE", "addr:country": "US", "addr:full": "501 GRANT RD", "addr:postcode": "98802", "addr:state": "WA", "amenity": "post_box", "brand": "United States Postal Service", "brand:wikidata": "Q668687", "collection_times": "Mo-Sa 12:00", "name": "USPS COLLECTION BOX - BLUE BOX", "nsi_id": "unitedstatespostalservice-a77078", "operator": "United States Postal Service", "operator:short": "USPS", "operator:type": "public", "operator:wikidata": "Q668687", "ref": "9880200015"}, "type": "Feature"}
{"dataset_attributes": {"@spider": "usps_collection_boxes", "spider:collection_time": "2023-09-04T08:25:30.667448"}, "geometry": {"coordinates": [-120.288929, 47.407173], "type": "Point"}, "id": "s8HiruO_MNPeOkhPR2nEJs19oIE=", "properties": {"@spider": "usps_collection_boxes", "addr:city": "EAST WENATCHEE", "addr:country": "US", "addr:full": "200 VALLEY MALL PKWY", "addr:postcode": "98802", "addr:state": "WA", "amenity": "post_box", "brand": "United States Postal Service", "brand:wikidata": "Q668687", "collection_times": "Mo-Sa 11:00", "name": "USPS COLLECTION BOX - BLUE BOX", "nsi_id": "unitedstatespostalservice-a77078", "operator": "United States Postal Service", "operator:short": "USPS", "operator:type": "public", "operator:wikidata": "Q668687", "ref": "9880200016"}, "type": "Feature"}
{"dataset_attributes": {"@spider": "usps_collection_boxes", "spider:collection_time": "2023-09-04T08:25:30.667448"}, "geometry": {"coordinates": [-120.285309, 47.405485], "type": "Point"}, "id": "QCadJWloZbgonHuqM20o-q7VnJ8=", "properties": {"@spider": "usps_collection_boxes", "addr:city": "EAST WENATCHEE", "addr:country": "US", "addr:full": "230 GRANT RD", "addr:postcode": "98802", "addr:state": "WA", "amenity": "post_box", "brand": "United States Postal Service", "brand:wikidata": "Q668687", "collection_times": "Mo-Sa 11:00", "name": "USPS COLLECTION BOX - BLUE BOX", "nsi_id": "unitedstatespostalservice-a77078", "operator": "United States Postal Service", "operator:short": "USPS", "operator:type": "public", "operator:wikidata": "Q668687", "ref": "9880200017"}, "type": "Feature"}
{"dataset_attributes": {"@spider": "usps_collection_boxes", "spider:collection_time": "2023-09-04T08:25:30.667448"}, "geometry": {"coordinates": [-120.356416, 47.730858], "type": "Point"}, "id": "tx_XdKpMpBZ0uJTsCrHKdPuzrvE=", "properties": {"@spider": "usps_collection_boxes", "addr:city": "ARDENVOIR", "addr:country": "US", "addr:full": "8855 ENTIAT RIVER RD", "addr:postcode": "98811", "addr:state": "WA", "amenity": "post_box", "brand": "United States Postal Service", "brand:wikidata": "Q668687", "collection_times": "Mo-Fr 13:00; Sa 09:00", "name": "USPS COLLECTION BOX - PO LOBBY", "note": "ON 12/24 AND 12/31, THIS BOX MAY BE COLLECTED AS EARLY AS 12 NOON.", "nsi_id": "unitedstatespostalservice-a77078", "operator": "United States Postal Service", "operator:short": "USPS", "operator:type": "public", "operator:wikidata": "Q668687", "ref": "9881100000"}, "type": "Feature"}
{"dataset_attributes": {"@spider": "usps_collection_boxes", "spider:collection_time": "2023-09-04T08:25:30.667448"}, "geometry": {"coordinates": [-120.362364318, 47.732146146], "type": "Point"}, "id": "YCgeKWiCgoweOpf3ZhjQgZfvEOk=", "properties": {"@spider": "usps_collection_boxes", "addr:city": "ARDENVOIR", "addr:country": "US", "addr:full": "8855 ENTIAT RIVER RD", "addr:postcode": "98811", "addr:state": "WA", "amenity": "post_box", "brand": "United States Postal Service", "brand:wikidata": "Q668687", "collection_times": "Mo-Fr 13:30", "name": "USPS COLLECTION BOX - PO LOBBY", "note": "ON 12/24 AND 12/31, THIS BOX MAY BE COLLECTED AS EARLY AS 12 NOON.", "nsi_id": "unitedstatespostalservice-a77078", "operator": "United States Postal Service", "operator:short": "USPS", "operator:type": "public", "operator:wikidata": "Q668687", "ref": "9881100002"}, "type": "Feature"}
{"dataset_attributes": {"@spider": "usps_collection_boxes", "spider:collection_time": "2023-09-04T08:25:30.667448"}, "geometry": {"coordinates": [-119.786841, 48.09935], "type": "Point"}, "id": "GIB53nYeccMZEbwzWfTivhypK6k=", "properties": {"@spider": "usps_collection_boxes", "addr:city": "BREWSTER", "addr:country": "US", "addr:full": "109 N 7TH ST", "addr:postcode": "98812", "addr:state": "WA", "amenity": "post_box", "brand": "United States Postal Service", "brand:wikidata": "Q668687", "collection_times": "Mo-Fr 15:05; Sa 10:45", "name": "USPS COLLECTION BOX - PO LOBBY", "note": "ON 12/24 AND 12/31, THIS BOX MAY BE COLLECTED AS EARLY AS 12 NOON.", "nsi_id": "unitedstatespostalservice-a77078", "operator": "United States Postal Service", "operator:short": "USPS", "operator:type": "public", "operator:wikidata": "Q668687", "ref": "9881200001"}, "type": "Feature"}
{"dataset_attributes": {"@spider": "usps_collection_boxes", "spider:collection_time": "2023-09-04T08:25:30.667448"}, "geometry": {"coordinates": [-119.786841, 48.09935], "type": "Point"}, "id": "7_rAOiOq8DXdBgCd8Q-ax81weY4=", "properties": {"@spider": "usps_collection_boxes", "addr:city": "BREWSTER", "addr:country": "US", "addr:full": "109 N 7TH ST", "addr:postcode": "98812", "addr:state": "WA", "amenity": "post_box", "brand": "United States Postal Service", "brand:wikidata": "Q668687", "collection_times": "Mo-Fr 15:05; Sa 10:45", "name": "USPS COLLECTION BOX - PO LOBBY", "note": "ON 12/24 AND 12/31, THIS BOX MAY BE COLLECTED AS EARLY AS 12 NOON.", "nsi_id": "unitedstatespostalservice-a77078", "operator": "United States Postal Service", "operator:short": "USPS", "operator:type": "public", "operator:wikidata": "Q668687", "ref": "9881200002"}, "type": "Feature"}
{"dataset_attributes": {"@spider": "usps_collection_boxes", "spider:collection_time": "2023-09-04T08:25:30.667448"}, "geometry": {"coordinates": [-119.786841, 48.09935], "type": "Point"}, "id": "Y5cFxM7CY11h3heYTNUvKNcAcqY=", "properties": {"@spider": "usps_collection_boxes", "addr:city": "BREWSTER", "addr:country": "US", "addr:full": "109 N 7TH ST", "addr:postcode": "98812", "addr:state": "WA", "amenity": "post_box", "brand": "United States Postal Service", "brand:wikidata": "Q668687", "collection_times": "Mo-Fr 15:05; Sa 10:45", "name": "USPS COLLECTION BOX - BLUE BOX", "note": "ON 12/24 AND 12/31, THIS BOX MAY BE COLLECTED AS EARLY AS 12 NOON.", "nsi_id": "unitedstatespostalservice-a77078", "operator": "United States Postal Service", "operator:short": "USPS", "operator:type": "public", "operator:wikidata": "Q668687", "ref": "9881200003"}, "type": "Feature"}
{"dataset_attributes": {"@spider": "usps_collection_boxes", "spider:collection_time": "2023-09-04T08:25:30.667448"}, "geometry": {"coordinates": [-119.786854135, 48.100184665], "type": "Point"}, "id": "0UYaHxCAUk5j74nggUXp-1yJvz8=", "properties": {"@spider": "usps_collection_boxes", "addr:city": "BREWSTER", "addr:country": "US", "addr:full": "109 N 7TH ST", "addr:postcode": "98812", "addr:state": "WA", "amenity": "post_box", "brand": "United States Postal Service", "brand:wikidata": "Q668687", "collection_times": "Mo-Fr 16:30", "name": "USPS COLLECTION BOX - PO LOBBY", "note": "ON 12/24 AND 12/31, THIS BOX MAY BE COLLECTED AS EARLY AS 12 NOON.", "nsi_id": "unitedstatespostalservice-a77078", "operator": "United States Postal Service", "operator:short": "USPS", "operator:type": "public", "operator:wikidata": "Q668687", "ref": "9881200004"}, "type": "Feature"}
{"dataset_attributes": {"@spider": "usps_collection_boxes", "spider:collection_time": "2023-09-04T08:25:30.667448"}, "geometry": {"coordinates": [-119.676329, 48.011008], "type": "Point"}, "id": "KaKaQnRERvEZkXUDzetRVES-KFE=", "properties": {"@spider": "usps_collection_boxes", "addr:city": "BRIDGEPORT", "addr:country": "US", "addr:full": "1011 COLUMBIA AVE", "addr:postcode": "98813", "addr:state": "WA", "amenity": "post_box", "brand": "United States Postal Service", "brand:wikidata": "Q668687", "collection_times": "Mo-Fr 14:20; Sa 10:30", "name": "USPS COLLECTION BOX - PO LOBBY", "note": "ON 12/24 AND 12/31, THIS BOX MAY BE COLLECTED AS EARLY AS 12 NOON.", "nsi_id": "unitedstatespostalservice-a77078", "operator": "United States Postal Service", "operator:short": "USPS", "operator:type": "public", "operator:wikidata": "Q668687", "ref": "9881300000"}, "type": "Feature"}
{"dataset_attributes": {"@spider": "usps_collection_boxes", "spider:collection_time": "2023-09-04T08:25:30.667448"}, "geometry": {"coordinates": [-119.676436, 48.011035], "type": "Point"}, "id": "BmI8xEdab4tC1xA8VvmXWOJR02Q=", "properties": {"@spider": "usps_collection_boxes", "addr:city": "BRIDGEPORT", "addr:country": "US", "addr:full": "1011 COLUMBIA AVE", "addr:postcode": "98813", "addr:state": "WA", "amenity": "post_box", "brand": "United States Postal Service", "brand:wikidata": "Q668687", "collection_times": "Mo-Fr 14:20; Sa 10:30", "name": "USPS COLLECTION BOX - BLUE BOX", "note": "ON 12/24 AND 12/31, THIS BOX MAY BE COLLECTED AS EARLY AS 12 NOON.", "nsi_id": "unitedstatespostalservice-a77078", "operator": "United States Postal Service", "operator:short": "USPS", "operator:type": "public", "operator:wikidata": "Q668687", "ref": "9881300002"}, "type": "Feature"}
{"dataset_attributes": {"@spider": "usps_collection_boxes", "spider:collection_time": "2023-09-04T08:25:30.667448"}, "geometry": {"coordinates": [-119.675926379, 48.010761554], "type": "Point"}, "id": "EpTAd-_Yr58BBmLFgQ-z_7uhEAg=", "properties": {"@spider": "usps_collection_boxes", "addr:city": "BRIDGEPORT", "addr:country": "US", "addr:full": "1011 COLUMBIA AVE", "addr:postcode": "98813", "addr:state": "WA", "amenity": "post_box", "brand": "United States Postal Service", "brand:wikidata": "Q668687", "collection_times": "Mo-Fr 15:45", "name": "USPS COLLECTION BOX - PO LOBBY", "note": "ON 12/24 AND 12/31, THIS BOX MAY BE COLLECTED AS EARLY AS 12 NOON.", "nsi_id": "unitedstatespostalservice-a77078", "operator": "United States Postal Service", "operator:short": "USPS", "operator:type": "public", "operator:wikidata": "Q668687", "ref": "9881300003"}, "type": "Feature"}
{"dataset_attributes": {"@spider": "usps_collection_boxes", "spider:collection_time": "2023-09-04T08:25:30.667448"}, "geometry": {"coordinates": [-120.114857, 48.250628], "type": "Point"}, "id": "i_LCa8o_euWa0dHouIIDwHEzITw=", "properties": {"@spider": "usps_collection_boxes", "addr:city": "CARLTON", "addr:country": "US", "addr:full": "2274 US HIGHWAY 153", "addr:postcode": "98814", "addr:state": "WA", "amenity": "post_box", "brand": "United States Postal Service", "brand:wikidata": "Q668687", "collection_times": "Mo-Fr 11:30; Sa 10:30", "name": "USPS COLLECTION BOX - PO LOBBY", "nsi_id": "unitedstatespostalservice-a77078", "operator": "United States Postal Service", "operator:short": "USPS", "operator:type": "public", "operator:wikidata": "Q668687", "ref": "9881400000"}, "type": "Feature"}
{"dataset_attributes": {"@spider": "usps_collection_boxes", "spider:collection_time": "2023-09-04T08:25:30.667448"}, "geometry": {"coordinates": [-120.114808, 48.250716], "type": "Point"}, "id": "WWztbabBf9GJUScVYZxvz_CJg0s=", "properties": {"@spider": "usps_collection_boxes", "addr:city": "CARLTON", "addr:country": "US", "addr:full": "2274 US HIGHWAY 153", "addr:postcode": "98814", "addr:state": "WA", "amenity": "post_box", "brand": "United States Postal Service", "brand:wikidata": "Q668687", "collection_times": "Mo-Fr 11:30; Sa 10:30", "name": "USPS COLLECTION BOX - PO LOBBY", "nsi_id": "unitedstatespostalservice-a77078", "operator": "United States Postal Service", "operator:short": "USPS", "operator:type": "public", "operator:wikidata": "Q668687", "ref": "9881400001"}, "type": "Feature"}
{"dataset_attributes": {"@spider": "usps_collection_boxes", "spider:collection_time": "2023-09-04T08:25:30.667448"}, "geometry": {"coordinates": [-120.114792595, 48.25069329], "type": "Point"}, "id": "cWG4WZh2D4T0xpSeG2ptXciFU_I=", "properties": {"@spider": "usps_collection_boxes", "addr:city": "CARLTON", "addr:country": "US", "addr:full": "2274 US HIGHWAY 153", "addr:postcode": "98814", "addr:state": "WA", "amenity": "post_box", "brand": "United States Postal Service", "brand:wikidata": "Q668687", "collection_times": "Mo-Fr 11:45; Sa 10:30", "name": "USPS COLLECTION BOX - PO LOBBY", "nsi_id": "unitedstatespostalservice-a77078", "operator": "United States Postal Service", "operator:short": "USPS", "operator:type": "public", "operator:wikidata": "Q668687", "ref": "9881400002"}, "type": "Feature"}
{"dataset_attributes": {"@spider": "usps_collection_boxes", "spider:collection_time": "2023-09-04T08:25:30.667448"}, "geometry": {"coordinates": [-120.468413, 47.522971], "type": "Point"}, "id": "UnEEb1T0hiGUVGQvHAo7zYv3e38=", "properties": {"@spider": "usps_collection_boxes", "addr:city": "CASHMERE", "addr:country": "US", "addr:full": "121 ELBERTA AVE", "addr:postcode": "98815", "addr:state": "WA", "amenity": "post_box", "brand": "United States Postal Service", "brand:wikidata": "Q668687", "collection_times": "Mo-Fr 14:50; Sa 09:00", "name": "USPS COLLECTION BOX - BLUE BOX", "note": "ON 12/24 AND 12/31, THIS BOX MAY BE COLLECTED AS EARLY AS 12 NOON.", "nsi_id": "unitedstatespostalservice-a77078", "operator": "United States Postal Service", "operator:short": "USPS", "operator:type": "public", "operator:wikidata": "Q668687", "ref": "9881500001"}, "type": "Feature"}
{"dataset_attributes": {"@spider": "usps_collection_boxes", "spider:collection_time": "2023-09-04T08:25:30.667448"}, "geometry": {"coordinates": [-120.468086, 47.522896], "type": "Point"}, "id": "LZMOnf9WRulTyolWNDsxUtP61W4=", "properties": {"@spider": "usps_collection_boxes", "addr:city": "CASHMERE", "addr:country": "US", "addr:full": "121 ELBERTA AVE", "addr:postcode": "98815", "addr:state": "WA", "amenity": "post_box", "brand": "United States Postal Service", "brand:wikidata": "Q668687", "collection_times": "Mo-Fr 14:50; Sa 09:00", "name": "USPS COLLECTION BOX - PO LOBBY", "note": "ON 12/24 AND 12/31, THIS BOX MAY BE COLLECTED AS EARLY AS 12 NOON.", "nsi_id": "unitedstatespostalservice-a77078", "operator": "United States Postal Service", "operator:short": "USPS", "operator:type": "public", "operator:wikidata": "Q668687", "ref": "9881500005"}, "type": "Feature"}
{"dataset_attributes": {"@spider": "usps_collection_boxes", "spider:collection_time": "2023-09-04T08:25:30.667448"}, "geometry": {"coordinates": [-120.468051, 47.522811457], "type": "Point"}, "id": "aR6qdD2cD7Na-Rh1_bKC1agdjuw=", "properties": {"@spider": "usps_collection_boxes", "addr:city": "CASHMERE", "addr:country": "US", "addr:full": "121 ELBERTA AVE", "addr:postcode": "98815", "addr:state": "WA", "amenity": "post_box", "brand": "United States Postal Service", "brand:wikidata": "Q668687", "collection_times": "Mo-Fr 15:00", "name": "USPS COLLECTION BOX - PO LOBBY", "note": "ON 12/24 AND 12/31, THIS BOX MAY BE COLLECTED AS EARLY AS 12 NOON.", "nsi_id": "unitedstatespostalservice-a77078", "operator": "United States Postal Service", "operator:short": "USPS", "operator:type": "public", "operator:wikidata": "Q668687", "ref": "9881500006"}, "type": "Feature"}
{"dataset_attributes": {"@spider": "usps_collection_boxes", "spider:collection_time": "2023-09-04T08:25:30.667448"}, "geometry": {"coordinates": [-120.018175, 47.840822], "type": "Point"}, "id": "pYC99ARQOY6NupMrN3Bm1QGBP18=", "properties": {"@spider": "usps_collection_boxes", "addr:city": "CHELAN", "addr:country": "US", "addr:full": "144 E JOHNSON AVE", "addr:postcode": "98816", "addr:state": "WA", "amenity": "post_box", "brand": "United States Postal Service", "brand:wikidata": "Q668687", "collection_times": "Mo-Fr 15:45; Sa 14:00", "name": "USPS COLLECTION BOX - BLUE BOX", "note": "ON 12/24 AND 12/31, THIS BOX MAY BE COLLECTED AS EARLY AS 12 NOON.", "nsi_id": "unitedstatespostalservice-a77078", "operator": "United States Postal Service", "operator:short": "USPS", "operator:type": "public", "operator:wikidata": "Q668687", "ref": "9881600000"}, "type": "Feature"}
{"dataset_attributes": {"@spider": "usps_collection_boxes", "spider:collection_time": "2023-09-04T08:25:30.667448"}, "geometry": {"coordinates": [-120.018187, 47.840849], "type": "Point"}, "id": "iqWFHupTaRxDqC6RD4RRDJ9rP_o=", "properties": {"@spider": "usps_collection_boxes", "addr:city": "CHELAN", "addr:country": "US", "addr:full": "144 E JOHNSON AVE", "addr:postcode": "98816", "addr:state": "WA", "amenity": "post_box", "brand": "United States Postal Service", "brand:wikidata": "Q668687", "collection_times": "Mo-Fr 15:45; Sa 14:00", "name": "USPS COLLECTION BOX - PO LOBBY", "note": "ON 12/24 AND 12/31, THIS BOX MAY BE COLLECTED AS EARLY AS 12 NOON.", "nsi_id": "unitedstatespostalservice-a77078", "operator": "United States Postal Service", "operator:short": "USPS", "operator:type": "public", "operator:wikidata": "Q668687", "ref": "9881600001"}, "type": "Feature"}
{"dataset_attributes": {"@spider": "usps_collection_boxes", "spider:collection_time": "2023-09-04T08:25:30.667448"}, "geometry": {"coordinates": [-120.020529, 47.841829], "type": "Point"}, "id": "AzIriRIA2Ays59znnW5r195X8ss=", "properties": {"@spider": "usps_collection_boxes", "addr:city": "CHELAN", "addr:country": "US", "addr:full": "106 W MANSON HWY", "addr:postcode": "98816", "addr:state": "WA", "amenity": "post_box", "brand": "United States Postal Service", "brand:wikidata": "Q668687", "collection_times": "Mo-Fr 15:00; Sa 10:15", "name": "USPS COLLECTION BOX - BLUE BOX", "note": "ON 12/24 AND 12/31, THIS BOX MAY BE COLLECTED AS EARLY AS 12 NOON.", "nsi_id": "unitedstatespostalservice-a77078", "operator": "United States Postal Service", "operator:short": "USPS", "operator:type": "public", "operator:wikidata": "Q668687", "ref": "9881600002"}, "type": "Feature"}
{"dataset_attributes": {"@spider": "usps_collection_boxes", "spider:collection_time": "2023-09-04T08:25:30.667448"}, "geometry": {"coordinates": [-120.017181557, 47.8407795], "type": "Point"}, "id": "BZqOYWqRHIn_ELEZV5_fHnChnD8=", "properties": {"@spider": "usps_collection_boxes", "addr:city": "CHELAN", "addr:country": "US", "addr:full": "144 E JOHNSON AVE", "addr:postcode": "98816", "addr:state": "WA", "amenity": "post_box", "brand": "United States Postal Service", "brand:wikidata": "Q668687", "collection_times": "Mo-Fr 17:00", "name": "USPS COLLECTION BOX - PO LOBBY", "note": "ON 12/24 AND 12/31, THIS BOX MAY BE COLLECTED AS EARLY AS 12 NOON.", "nsi_id": "unitedstatespostalservice-a77078", "operator": "United States Postal Service", "operator:short": "USPS", "operator:type": "public", "operator:wikidata": "Q668687", "ref": "9881600003"}, "type": "Feature"}
{"dataset_attributes": {"@spider": "usps_collection_boxes", "spider:collection_time": "2023-09-04T08:25:30.667448"}, "geometry": {"coordinates": [-119.984738902, 47.800788959], "type": "Point"}, "id": "hmqt2BUpk7rup08iJChF5wu9CLQ=", "properties": {"@spider": "usps_collection_boxes", "addr:city": "CHELAN FALLS", "addr:country": "US", "addr:full": "67 CHESTNUT ST", "addr:postcode": "98817", "addr:state": "WA", "amenity": "post_box", "brand": "United States Postal Service", "brand:wikidata": "Q668687", "collection_times": "Mo-Fr 14:30; Sa 11:00", "name": "USPS COLLECTION BOX - BLUE BOX", "note": "ON 12/24 AND 12/31, THIS BOX MAY BE COLLECTED AS EARLY AS 12 NOON.", "nsi_id": "unitedstatespostalservice-a77078", "operator": "United States Postal Service", "operator:short": "USPS", "operator:type": "public", "operator:wikidata": "Q668687", "ref": "9881700000"}, "type": "Feature"}
{"dataset_attributes": {"@spider": "usps_collection_boxes", "spider:collection_time": "2023-09-04T08:25:30.667448"}, "geometry": {"coordinates": [-119.985302, 47.80098], "type": "Point"}, "id": "9XciE9Py8RIvEKaVf9Z0KEAUV2Q=", "properties": {"@spider": "usps_collection_boxes", "addr:city": "CHELAN FALLS", "addr:country": "US", "addr:full": "67 CHESTNUT ST", "addr:postcode": "98817", "addr:state": "WA", "amenity": "post_box", "brand": "United States Postal Service", "brand:wikidata": "Q668687", "collection_times": "Mo-Fr 14:40; Sa 11:00", "name": "USPS COLLECTION BOX - PO LOBBY", "note": "ON 12/24 AND 12/31, THIS BOX MAY BE COLLECTED AS EARLY AS 12 NOON.", "nsi_id": "unitedstatespostalservice-a77078", "operator": "United States Postal Service", "operator:short": "USPS", "operator:type": "public", "operator:wikidata": "Q668687", "ref": "9881700001"}, "type": "Feature"}
{"dataset_attributes": {"@spider": "usps_collection_boxes", "spider:collection_time": "2023-09-04T08:25:30.667448"}, "geometry": {"coordinates": [-119.984740873, 47.800786926], "type": "Point"}, "id": "vsJj1Uj2952FrWwn5rUSTqu0OFU=", "properties": {"@spider": "usps_collection_boxes", "addr:city": "CHELAN FALLS", "addr:country": "US", "addr:full": "67 CHESTNUT ST", "addr:postcode": "98817", "addr:state": "WA", "amenity": "post_box", "brand": "United States Postal Service", "brand:wikidata": "Q668687", "collection_times": "Mo-Fr 16:00; Sa 11:30", "name": "USPS COLLECTION BOX - PO LOBBY", "note": "ON 12/24 AND 12/31, THIS BOX MAY BE COLLECTED AS EARLY AS 12 NOON.", "nsi_id": "unitedstatespostalservice-a77078", "operator": "United States Postal Service", "operator:short": "USPS", "operator:type": "public", "operator:wikidata": "Q668687", "ref": "9881700002"}, "type": "Feature"}
{"dataset_attributes": {"@spider": "usps_collection_boxes", "spider:collection_time": "2023-09-04T08:25:30.667448"}, "geometry": {"coordinates": [-119.7518800198, 48.5592599951], "type": "Point"}, "id": "cx2SqOmD0msag9-AOihw2k7VTcc=", "properties": {"@spider": "usps_collection_boxes", "addr:city": "CONCONULLY", "addr:country": "US", "addr:full": "221 N LOTTIE AVE", "addr:postcode": "98819", "addr:state": "WA", "amenity": "post_box", "brand": "United States Postal Service", "brand:wikidata": "Q668687", "collection_times": "Mo-Sa 11:45", "name": "USPS COLLECTION BOX - BLUE BOX", "nsi_id": "unitedstatespostalservice-a77078", "operator": "United States Postal Service", "operator:short": "USPS", "operator:type": "public", "operator:wikidata": "Q668687", "ref": "9881900000"}, "type": "Feature"}
{"dataset_attributes": {"@spider": "usps_collection_boxes", "spider:collection_time": "2023-09-04T08:25:30.667448"}, "geometry": {"coordinates": [-119.7518800198, 48.5592599951], "type": "Point"}, "id": "DQoEmUEW6H70MK1qhzeVAV-469E=", "properties": {"@spider": "usps_collection_boxes", "addr:city": "CONCONULLY", "addr:country": "US", "addr:full": "221 N LOTTIE AVE", "addr:postcode": "98819", "addr:state": "WA", "amenity": "post_box", "brand": "United States Postal Service", "brand:wikidata": "Q668687", "collection_times": "Mo-Sa 11:45", "name": "USPS COLLECTION BOX - PO LOBBY", "nsi_id": "unitedstatespostalservice-a77078", "operator": "United States Postal Service", "operator:short": "USPS", "operator:type": "public", "operator:wikidata": "Q668687", "ref": "9881900001"}, "type": "Feature"}
{"dataset_attributes": {"@spider": "usps_collection_boxes", "spider:collection_time": "2023-09-04T08:25:30.667448"}, "geometry": {"coordinates": [-119.7518800198, 48.5592599951], "type": "Point"}, "id": "lPbW0QYwyS1Uw0pnjoml7EZfWXc=", "properties": {"@spider": "usps_collection_boxes", "addr:city": "CONCONULLY", "addr:country": "US", "addr:full": "221 N LOTTIE AVE", "addr:postcode": "98819", "addr:state": "WA", "amenity": "post_box", "brand": "United States Postal Service", "brand:wikidata": "Q668687", "collection_times": "Mo-Sa 12:15", "name": "USPS COLLECTION BOX - PO LOBBY", "note": "ON 12/24 AND 12/31, THIS BOX MAY BE COLLECTED AS EARLY AS 12 NOON.", "nsi_id": "unitedstatespostalservice-a77078", "operator": "United States Postal Service", "operator:short": "USPS", "operator:type": "public", "operator:wikidata": "Q668687", "ref": "9881900002"}, "type": "Feature"}
{"dataset_attributes": {"@spider": "usps_collection_boxes", "spider:collection_time": "2023-09-04T08:25:30.667448"}, "geometry": {"coordinates": [-120.56109, 47.541267], "type": "Point"}, "id": "iVqTfFWzKUP5nrNNzh555NPP418=", "properties": {"@spider": "usps_collection_boxes", "addr:city": "DRYDEN", "addr:country": "US", "addr:full": "6828 DRYDEN AVE", "addr:postcode": "98821", "addr:state": "WA", "amenity": "post_box", "brand": "United States Postal Service", "brand:wikidata": "Q668687", "collection_times": "Mo-Fr 16:30; Sa 09:30", "name": "USPS COLLECTION BOX - BLUE BOX", "note": "ON 12/24 AND 12/31, THIS BOX MAY BE COLLECTED AS EARLY AS 12 NOON.", "nsi_id": "unitedstatespostalservice-a77078", "operator": "United States Postal Service", "operator:short": "USPS", "operator:type": "public", "operator:wikidata": "Q668687", "ref": "9882100000"}, "type": "Feature"}
{"dataset_attributes": {"@spider": "usps_collection_boxes", "spider:collection_time": "2023-09-04T08:25:30.667448"}, "geometry": {"coordinates": [-120.561051, 47.541177], "type": "Point"}, "id": "epSVCqQDneiLULRV_KQNA3RMcBs=", "properties": {"@spider": "usps_collection_boxes", "addr:city": "DRYDEN", "addr:country": "US", "addr:full": "6828 DRYDEN AVE", "addr:postcode": "98821", "addr:state": "WA", "amenity": "post_box", "brand": "United States Postal Service", "brand:wikidata": "Q668687", "collection_times": "Mo-Fr 16:30; Sa 09:30", "name": "USPS COLLECTION BOX - PO LOBBY", "note": "ON 12/24 AND 12/31, THIS BOX MAY BE COLLECTED AS EARLY AS 12 NOON.", "nsi_id": "unitedstatespostalservice-a77078", "operator": "United States Postal Service", "operator:short": "USPS", "operator:type": "public", "operator:wikidata": "Q668687", "ref": "9882100001"}, "type": "Feature"}
{"dataset_attributes": {"@spider": "usps_collection_boxes", "spider:collection_time": "2023-09-04T08:25:30.667448"}, "geometry": {"coordinates": [-120.561092218, 47.541357], "type": "Point"}, "id": "n_j1xoWwCYfCnJRUYoH3eqmItzQ=", "properties": {"@spider": "usps_collection_boxes", "addr:city": "DRYDEN", "addr:country": "US", "addr:full": "6828 DRYDEN AVE", "addr:postcode": "98821", "addr:state": "WA", "amenity": "post_box", "brand": "United States Postal Service", "brand:wikidata": "Q668687", "collection_times": "Mo-Fr 16:45", "name": "USPS COLLECTION BOX - PO LOBBY", "note": "ON 12/24 AND 12/31, THIS BOX MAY BE COLLECTED AS EARLY AS 12 NOON.", "nsi_id": "unitedstatespostalservice-a77078", "operator": "United States Postal Service", "operator:short": "USPS", "operator:type": "public", "operator:wikidata": "Q668687", "ref": "9882100002"}, "type": "Feature"}
{"dataset_attributes": {"@spider": "usps_collection_boxes", "spider:collection_time": "2023-09-04T08:25:30.667448"}, "geometry": {"coordinates": [-120.209319, 47.676906], "type": "Point"}, "id": "oWh3uXm0IdLDkL9E5hDZ4dFytiY=", "properties": {"@spider": "usps_collection_boxes", "addr:city": "ENTIAT", "addr:country": "US", "addr:full": "14108 KINZEL ST", "addr:postcode": "98822", "addr:state": "WA", "amenity": "post_box", "brand": "United States Postal Service", "brand:wikidata": "Q668687", "collection_times": "Mo-Fr 14:50; Sa 09:00", "name": "USPS COLLECTION BOX - BLUE BOX", "note": "ON 12/24 AND 12/31, THIS BOX MAY BE COLLECTED AS EARLY AS 12 NOON.", "nsi_id": "unitedstatespostalservice-a77078", "operator": "United States Postal Service", "operator:short": "USPS", "operator:type": "public", "operator:wikidata": "Q668687", "ref": "9882200000"}, "type": "Feature"}
{"dataset_attributes": {"@spider": "usps_collection_boxes", "spider:collection_time": "2023-09-04T08:25:30.667448"}, "geometry": {"coordinates": [-120.209279, 47.676831], "type": "Point"}, "id": "RlvcRFrLEwJs-Yz5DSYwljcBZMU=", "properties": {"@spider": "usps_collection_boxes", "addr:city": "ENTIAT", "addr:country": "US", "addr:full": "14108 KINZEL ST", "addr:postcode": "98822", "addr:state": "WA", "amenity": "post_box", "brand": "United States Postal Service", "brand:wikidata": "Q668687", "collection_times": "Mo-Fr 14:50; Sa 09:00", "name": "USPS COLLECTION BOX - PO LOBBY", "note": "ON 12/24 AND 12/31, THIS BOX MAY BE COLLECTED AS EARLY AS 12 NOON.", "nsi_id": "unitedstatespostalservice-a77078", "operator": "United States Postal Service", "operator:short": "USPS", "operator:type": "public", "operator:wikidata": "Q668687", "ref": "9882200001"}, "type": "Feature"}
{"dataset_attributes": {"@spider": "usps_collection_boxes", "spider:collection_time": "2023-09-04T08:25:30.667448"}, "geometry": {"coordinates": [-120.209411266, 47.676456283], "type": "Point"}, "id": "MNAA5TCn5wbIQPp7gwv9hAi85BI=", "properties": {"@spider": "usps_collection_boxes", "addr:city": "ENTIAT", "addr:country": "US", "addr:full": "14108 KINZEL ST", "addr:postcode": "98822", "addr:state": "WA", "amenity": "post_box", "brand": "United States Postal Service", "brand:wikidata": "Q668687", "collection_times": "Mo-Fr 17:00", "name": "USPS COLLECTION BOX - PO LOBBY", "note": "ON 12/24 AND 12/31, THIS BOX MAY BE COLLECTED AS EARLY AS 12 NOON.", "nsi_id": "unitedstatespostalservice-a77078", "operator": "United States Postal Service", "operator:short": "USPS", "operator:type": "public", "operator:wikidata": "Q668687", "ref": "9882200002"}, "type": "Feature"}
{"dataset_attributes": {"@spider": "usps_collection_boxes", "spider:collection_time": "2023-09-04T08:25:30.667448"}, "geometry": {"coordinates": [-119.5496862225, 47.3207560391], "type": "Point"}, "id": "FOd0uwQ1jucQ3dR-Z15u8L_rDZ0=", "properties": {"@spider": "usps_collection_boxes", "addr:city": "EPHRATA", "addr:country": "US", "addr:full": "50 ALDER ST NW", "addr:postcode": "98823", "addr:state": "WA", "amenity": "post_box", "brand": "United States Postal Service", "brand:wikidata": "Q668687", "collection_times": "Mo-Fr 15:00; Sa 14:00", "name": "USPS COLLECTION BOX - BLUE BOX", "note": "ON 12/24 AND 12/31, THIS BOX MAY BE COLLECTED AS EARLY AS 12 NOON.", "nsi_id": "unitedstatespostalservice-a77078", "operator": "United States Postal Service", "operator:short": "USPS", "operator:type": "public", "operator:wikidata": "Q668687", "ref": "9882300004"}, "type": "Feature"}
{"dataset_attributes": {"@spider": "usps_collection_boxes", "spider:collection_time": "2023-09-04T08:25:30.667448"}, "geometry": {"coordinates": [-119.5585130339, 47.3094979894], "type": "Point"}, "id": "fTjvjchZDndCfKCofmZTXE2Nat0=", "properties": {"@spider": "usps_collection_boxes", "addr:city": "EPHRATA", "addr:country": "US", "addr:full": "1150 BASIN ST SW", "addr:postcode": "98823", "addr:state": "WA", "amenity": "post_box", "brand": "United States Postal Service", "brand:wikidata": "Q668687", "collection_times": "Mo-Fr 15:00; Sa 14:00", "name": "USPS COLLECTION BOX - BLUE BOX", "note": "ON 12/24 AND 12/31, THIS BOX MAY BE COLLECTED AS EARLY AS 12 NOON.", "nsi_id": "unitedstatespostalservice-a77078", "operator": "United States Postal Service", "operator:short": "USPS", "operator:type": "public", "operator:wikidata": "Q668687", "ref": "9882300006"}, "type": "Feature"}
{"dataset_attributes": {"@spider": "usps_collection_boxes", "spider:collection_time": "2023-09-04T08:25:30.667448"}, "geometry": {"coordinates": [-119.54966, 47.32146], "type": "Point"}, "id": "hPzpov_XxNvMIhzdbgrBsRoyVo8=", "properties": {"@spider": "usps_collection_boxes", "addr:city": "EPHRATA", "addr:country": "US", "addr:full": "119 1ST AVE NW", "addr:postcode": "98823", "addr:state": "WA", "amenity": "post_box", "brand": "United States Postal Service", "brand:wikidata": "Q668687", "collection_times": "Mo-Fr 15:05; Sa 14:45", "name": "USPS COLLECTION BOX - PO LOBBY", "note": "ON 12/24 AND 12/31, THIS BOX MAY BE COLLECTED AS EARLY AS 12 NOON.", "nsi_id": "unitedstatespostalservice-a77078", "operator": "United States Postal Service", "operator:short": "USPS", "operator:type": "public", "operator:wikidata": "Q668687", "ref": "9882300007"}, "type": "Feature"}
{"dataset_attributes": {"@spider": "usps_collection_boxes", "spider:collection_time": "2023-09-04T08:25:30.667448"}, "geometry": {"coordinates": [-119.549794658, 47.321281874], "type": "Point"}, "id": "I57xrjLfKpAEzCgxVe6DVCImST8=", "properties": {"@spider": "usps_collection_boxes", "addr:city": "EPHRATA", "addr:country": "US", "addr:full": "119 1ST AVE NW", "addr:postcode": "98823", "addr:state": "WA", "amenity": "post_box", "brand": "United States Postal Service", "brand:wikidata": "Q668687", "collection_times": "Mo-Fr 17:00", "name": "USPS COLLECTION BOX - PO LOBBY", "note": "ON 12/24 AND 12/31, THIS BOX MAY BE COLLECTED AS EARLY AS 12 NOON.", "nsi_id": "unitedstatespostalservice-a77078", "operator": "United States Postal Service", "operator:short": "USPS", "operator:type": "public", "operator:wikidata": "Q668687", "ref": "9882300008"}, "type": "Feature"}
{"dataset_attributes": {"@spider": "usps_collection_boxes", "spider:collection_time": "2023-09-04T08:25:30.667448"}, "geometry": {"coordinates": [-120.659975, 47.596985], "type": "Point"}, "id": "Aqp51CfurUV6a3aNQBlHiJhFVLo=", "properties": {"@spider": "usps_collection_boxes", "addr:city": "LEAVENWORTH", "addr:country": "US", "addr:full": "960 US HIGHWAY 2", "addr:postcode": "98826", "addr:state": "WA", "amenity": "post_box", "brand": "United States Postal Service", "brand:wikidata": "Q668687", "collection_times": "Mo-Fr 14:15; Sa 10:30", "name": "USPS COLLECTION BOX - BLUE BOX", "note": "ON 12/24 AND 12/31, THIS BOX MAY BE COLLECTED AS EARLY AS 12 NOON.", "nsi_id": "unitedstatespostalservice-a77078", "operator": "United States Postal Service", "operator:short": "USPS", "operator:type": "public", "operator:wikidata": "Q668687", "ref": "9882600003"}, "type": "Feature"}
{"dataset_attributes": {"@spider": "usps_collection_boxes", "spider:collection_time": "2023-09-04T08:25:30.667448"}, "geometry": {"coordinates": [-120.659975, 47.596985], "type": "Point"}, "id": "IsqYZ20fdYj_S85ZtbfhU2F-Ugg=", "properties": {"@spider": "usps_collection_boxes", "addr:city": "LEAVENWORTH", "addr:country": "US", "addr:full": "960 US HIGHWAY 2", "addr:postcode": "98826", "addr:state": "WA", "amenity": "post_box", "brand": "United States Postal Service", "brand:wikidata": "Q668687", "collection_times": "Mo-Fr 14:15; Sa 11:00", "name": "USPS COLLECTION BOX - PO LOBBY", "note": "ON 12/24 AND 12/31, THIS BOX MAY BE COLLECTED AS EARLY AS 12 NOON.", "nsi_id": "unitedstatespostalservice-a77078", "operator": "United States Postal Service", "operator:short": "USPS", "operator:type": "public", "operator:wikidata": "Q668687", "ref": "9882600004"}, "type": "Feature"}
{"dataset_attributes": {"@spider": "usps_collection_boxes", "spider:collection_time": "2023-09-04T08:25:30.667448"}, "geometry": {"coordinates": [-120.659975, 47.596985], "type": "Point"}, "id": "j_QOSVoOUtNg3pleg0Y5QqGKuqY=", "properties": {"@spider": "usps_collection_boxes", "addr:city": "LEAVENWORTH", "addr:country": "US", "addr:full": "960 US HIGHWAY 2", "addr:postcode": "98826", "addr:state": "WA", "amenity": "post_box", "brand": "United States Postal Service", "brand:wikidata": "Q668687", "collection_times": "Mo-Fr 14:15; Sa 11:00", "name": "USPS COLLECTION BOX - PO LOBBY", "note": "ON 12/24 AND 12/31, THIS BOX MAY BE COLLECTED AS EARLY AS 12 NOON.", "nsi_id": "unitedstatespostalservice-a77078", "operator": "United States Postal Service", "operator:short": "USPS", "operator:type": "public", "operator:wikidata": "Q668687", "ref": "9882600005"}, "type": "Feature"}
{"dataset_attributes": {"@spider": "usps_collection_boxes", "spider:collection_time": "2023-09-04T08:25:30.667448"}, "geometry": {"coordinates": [-120.662492, 47.595105], "type": "Point"}, "id": "jeuMPlZvOH5Mx6JRpswp5RrUA8M=", "properties": {"@spider": "usps_collection_boxes", "addr:city": "LEAVENWORTH", "addr:country": "US", "addr:full": "735 FRONT ST", "addr:postcode": "98826", "addr:state": "WA", "amenity": "post_box", "brand": "United States Postal Service", "brand:wikidata": "Q668687", "collection_times": "Mo-Fr 13:30", "name": "USPS COLLECTION BOX - BLUE BOX", "note": "ON 12/24 AND 12/31, THIS BOX MAY BE COLLECTED AS EARLY AS 12 NOON.", "nsi_id": "unitedstatespostalservice-a77078", "operator": "United States Postal Service", "operator:short": "USPS", "operator:type": "public", "operator:wikidata": "Q668687", "ref": "9882600007"}, "type": "Feature"}
{"dataset_attributes": {"@spider": "usps_collection_boxes", "spider:collection_time": "2023-09-04T08:25:30.667448"}, "geometry": {"coordinates": [-120.659964755, 47.596974923], "type": "Point"}, "id": "qEgQrh3ngyCXCOUnjPHknKN898A=", "properties": {"@spider": "usps_collection_boxes", "addr:city": "LEAVENWORTH", "addr:country": "US", "addr:full": "960 US HIGHWAY 2", "addr:postcode": "98826", "addr:state": "WA", "amenity": "post_box", "brand": "United States Postal Service", "brand:wikidata": "Q668687", "collection_times": "Mo-Fr 14:15; Sa 11:00", "name": "USPS COLLECTION BOX - PO LOBBY", "note": "ON 12/24 AND 12/31, THIS BOX MAY BE COLLECTED AS EARLY AS 12 NOON.", "nsi_id": "unitedstatespostalservice-a77078", "operator": "United States Postal Service", "operator:short": "USPS", "operator:type": "public", "operator:wikidata": "Q668687", "ref": "9882600008"}, "type": "Feature"}
{"dataset_attributes": {"@spider": "usps_collection_boxes", "spider:collection_time": "2023-09-04T08:25:30.667448"}, "geometry": {"coordinates": [-119.635403, 48.821888], "type": "Point"}, "id": "NiIPcRGiiqo-plgVfKyiWGkzPGI=", "properties": {"@spider": "usps_collection_boxes", "addr:city": "LOOMIS", "addr:country": "US", "addr:full": "12 PALMER AVE", "addr:postcode": "98827", "addr:state": "WA", "amenity": "post_box", "brand": "United States Postal Service", "brand:wikidata": "Q668687", "collection_times": "Mo-Fr 13:20; Sa 12:30", "name": "USPS COLLECTION BOX - BLUE BOX", "note": "ON 12/24 AND 12/31, THIS BOX MAY BE COLLECTED AS EARLY AS 12 NOON.", "nsi_id": "unitedstatespostalservice-a77078", "operator": "United States Postal Service", "operator:short": "USPS", "operator:type": "public", "operator:wikidata": "Q668687", "ref": "9882700000"}, "type": "Feature"}
{"dataset_attributes": {"@spider": "usps_collection_boxes", "spider:collection_time": "2023-09-04T08:25:30.667448"}, "geometry": {"coordinates": [-119.635403, 48.821888], "type": "Point"}, "id": "hCrP8Sb9tdsJtiA-o9f6Ngv_B70=", "properties": {"@spider": "usps_collection_boxes", "addr:city": "LOOMIS", "addr:country": "US", "addr:full": "12 PALMER AVE", "addr:postcode": "98827", "addr:state": "WA", "amenity": "post_box", "brand": "United States Postal Service", "brand:wikidata": "Q668687", "collection_times": "Mo-Fr 13:20; Sa 12:30", "name": "USPS COLLECTION BOX - PO LOBBY", "note": "ON 12/24 AND 12/31, THIS BOX MAY BE COLLECTED AS EARLY AS 12 NOON.", "nsi_id": "unitedstatespostalservice-a77078", "operator": "United States Postal Service", "operator:short": "USPS", "operator:type": "public", "operator:wikidata": "Q668687", "ref": "9882700001"}, "type": "Feature"}
{"dataset_attributes": {"@spider": "usps_collection_boxes", "spider:collection_time": "2023-09-04T08:25:30.667448"}, "geometry": {"coordinates": [-119.6356005, 48.821947454], "type": "Point"}, "id": "sPoCpGMOXzRNcZz449ZQMvKT2og=", "properties": {"@spider": "usps_collection_boxes", "addr:city": "LOOMIS", "addr:country": "US", "addr:full": "12 PALMER AVE", "addr:postcode": "98827", "addr:state": "WA", "amenity": "post_box", "brand": "United States Postal Service", "brand:wikidata": "Q668687", "collection_times": "Mo-Fr 15:00", "name": "USPS COLLECTION BOX - PO LOBBY", "note": "ON 12/24 AND 12/31, THIS BOX MAY BE COLLECTED AS EARLY AS 12 NOON.", "nsi_id": "unitedstatespostalservice-a77078", "operator": "United States Postal Service", "operator:short": "USPS", "operator:type": "public", "operator:wikidata": "Q668687", "ref": "9882700002"}, "type": "Feature"}
{"dataset_attributes": {"@spider": "usps_collection_boxes", "spider:collection_time": "2023-09-04T08:25:30.667448"}, "geometry": {"coordinates": [-120.200997, 47.372267], "type": "Point"}, "id": "NB5GjW0tEGcnwzRdRYfGj3oh84I=", "properties": {"@spider": "usps_collection_boxes", "addr:city": "MALAGA", "addr:country": "US", "addr:full": "3851 MALAGA ALCOA HWY", "addr:postcode": "98828", "addr:state": "WA", "amenity": "post_box", "brand": "United States Postal Service", "brand:wikidata": "Q668687", "collection_times": "Mo-Fr 15:10; Sa 11:00", "name": "USPS COLLECTION BOX - BLUE BOX", "note": "ON 12/24 AND 12/31, THIS BOX MAY BE COLLECTED AS EARLY AS 12 NOON.", "nsi_id": "unitedstatespostalservice-a77078", "operator": "United States Postal Service", "operator:short": "USPS", "operator:type": "public", "operator:wikidata": "Q668687", "ref": "9882800000"}, "type": "Feature"}
{"dataset_attributes": {"@spider": "usps_collection_boxes", "spider:collection_time": "2023-09-04T08:25:30.667448"}, "geometry": {"coordinates": [-120.201515644, 47.372321536], "type": "Point"}, "id": "h2zlyCZHy8nYIK1206QIGZiIlRY=", "properties": {"@spider": "usps_collection_boxes", "addr:city": "MALAGA", "addr:country": "US", "addr:full": "3851 MALAGA ALCOA HWY", "addr:postcode": "98828", "addr:state": "WA", "amenity": "post_box", "brand": "United States Postal Service", "brand:wikidata": "Q668687", "collection_times": "Mo-Fr 15:00; Sa 11:00", "name": "USPS COLLECTION BOX - PO LOBBY", "note": "ON 12/24 AND 12/31, THIS BOX MAY BE COLLECTED AS EARLY AS 12 NOON.", "nsi_id": "unitedstatespostalservice-a77078", "operator": "United States Postal Service", "operator:short": "USPS", "operator:type": "public", "operator:wikidata": "Q668687", "ref": "9882800002"}, "type": "Feature"}
{"dataset_attributes": {"@spider": "usps_collection_boxes", "spider:collection_time": "2023-09-04T08:25:30.667448"}, "geometry": {"coordinates": [-119.70564, 48.282351], "type": "Point"}, "id": "KXfAPwc7FNhd4t185aF7vrsV9L8=", "properties": {"@spider": "usps_collection_boxes", "addr:city": "MALOTT", "addr:country": "US", "addr:full": "32 B AND O RD", "addr:postcode": "98829", "addr:state": "WA", "amenity": "post_box", "brand": "United States Postal Service", "brand:wikidata": "Q668687", "collection_times": "Mo-Fr 14:35; Sa 09:30", "name": "USPS COLLECTION BOX - BLUE BOX", "note": "ON 12/24 AND 12/31, THIS BOX MAY BE COLLECTED AS EARLY AS 12 NOON.", "nsi_id": "unitedstatespostalservice-a77078", "operator": "United States Postal Service", "operator:short": "USPS", "operator:type": "public", "operator:wikidata": "Q668687", "ref": "9882900000"}, "type": "Feature"}
{"dataset_attributes": {"@spider": "usps_collection_boxes", "spider:collection_time": "2023-09-04T08:25:30.667448"}, "geometry": {"coordinates": [-119.705789212, 48.282491776], "type": "Point"}, "id": "3ftVx9Fyud732C0m5FI72fcAF1k=", "properties": {"@spider": "usps_collection_boxes", "addr:city": "MALOTT", "addr:country": "US", "addr:full": "32 B AND O RD", "addr:postcode": "98829", "addr:state": "WA", "amenity": "post_box", "brand": "United States Postal Service", "brand:wikidata": "Q668687", "collection_times": "Mo-Fr 16:00; Sa 09:30", "name": "USPS COLLECTION BOX - PO LOBBY", "note": "ON 12/24 AND 12/31, THIS BOX MAY BE COLLECTED AS EARLY AS 12 NOON.", "nsi_id": "unitedstatespostalservice-a77078", "operator": "United States Postal Service", "operator:short": "USPS", "operator:type": "public", "operator:wikidata": "Q668687", "ref": "9882900002"}, "type": "Feature"}
{"dataset_attributes": {"@spider": "usps_collection_boxes", "spider:collection_time": "2023-09-04T08:25:30.667448"}, "geometry": {"coordinates": [-119.637473, 47.811705], "type": "Point"}, "id": "x-lULIRnqI22OdycMX_wMQeTQrE=", "properties": {"@spider": "usps_collection_boxes", "addr:city": "MANSFIELD", "addr:country": "US", "addr:full": "38 MAIN ST", "addr:postcode": "98830", "addr:state": "WA", "amenity": "post_box", "brand": "United States Postal Service", "brand:wikidata": "Q668687", "collection_times": "Mo-Fr 13:30; Sa 10:00", "name": "USPS COLLECTION BOX - PO LOBBY", "note": "ON 12/24 AND 12/31, THIS BOX MAY BE COLLECTED AS EARLY AS 12 NOON.", "nsi_id": "unitedstatespostalservice-a77078", "operator": "United States Postal Service", "operator:short": "USPS", "operator:type": "public", "operator:wikidata": "Q668687", "ref": "9883000001"}, "type": "Feature"}
{"dataset_attributes": {"@spider": "usps_collection_boxes", "spider:collection_time": "2023-09-04T08:25:30.667448"}, "geometry": {"coordinates": [-119.63785361, 47.811968006], "type": "Point"}, "id": "lrTuRp3XSQh9ExUh6qS3PR_0PAU=", "properties": {"@spider": "usps_collection_boxes", "addr:city": "MANSFIELD", "addr:country": "US", "addr:full": "38 MAIN ST", "addr:postcode": "98830", "addr:state": "WA", "amenity": "post_box", "brand": "United States Postal Service", "brand:wikidata": "Q668687", "collection_times": "Mo-Fr 14:15; Sa 10:00", "name": "USPS COLLECTION BOX - PO LOBBY", "note": "ON 12/24 AND 12/31, THIS BOX MAY BE COLLECTED AS EARLY AS 12 NOON.", "nsi_id": "unitedstatespostalservice-a77078", "operator": "United States Postal Service", "operator:short": "USPS", "operator:type": "public", "operator:wikidata": "Q668687", "ref": "9883000002"}, "type": "Feature"}
{"dataset_attributes": {"@spider": "usps_collection_boxes", "spider:collection_time": "2023-09-04T08:25:30.667448"}, "geometry": {"coordinates": [-120.15806, 47.884926], "type": "Point"}, "id": "ccqleJeU9pfODewt-WhyN0uEha0=", "properties": {"@spider": "usps_collection_boxes", "addr:city": "MANSON", "addr:country": "US", "addr:full": "85 WAPATO WAY", "addr:postcode": "98831", "addr:state": "WA", "amenity": "post_box", "brand": "United States Postal Service", "brand:wikidata": "Q668687", "collection_times": "Mo-Fr 16:20; Sa 10:00", "name": "USPS COLLECTION BOX - BLUE BOX", "note": "ON 12/24 AND 12/31, THIS BOX MAY BE COLLECTED AS EARLY AS 12 NOON.", "nsi_id": "unitedstatespostalservice-a77078", "operator": "United States Postal Service", "operator:short": "USPS", "operator:type": "public", "operator:wikidata": "Q668687", "ref": "9883100000"}, "type": "Feature"}
{"dataset_attributes": {"@spider": "usps_collection_boxes", "spider:collection_time": "2023-09-04T08:25:30.667448"}, "geometry": {"coordinates": [-120.15806, 47.884927], "type": "Point"}, "id": "E87hxhDsY6_CmS3ZTcczj6ro5HI=", "properties": {"@spider": "usps_collection_boxes", "addr:city": "MANSON", "addr:country": "US", "addr:full": "85 WAPATO WAY", "addr:postcode": "98831", "addr:state": "WA", "amenity": "post_box", "brand": "United States Postal Service", "brand:wikidata": "Q668687", "collection_times": "Mo-Fr 15:10; Sa 10:00", "name": "USPS COLLECTION BOX - PO LOBBY", "note": "ON 12/24 AND 12/31, THIS BOX MAY BE COLLECTED AS EARLY AS 12 NOON.", "nsi_id": "unitedstatespostalservice-a77078", "operator": "United States Postal Service", "operator:short": "USPS", "operator:type": "public", "operator:wikidata": "Q668687", "ref": "9883100001"}, "type": "Feature"}
{"dataset_attributes": {"@spider": "usps_collection_boxes", "spider:collection_time": "2023-09-04T08:25:30.667448"}, "geometry": {"coordinates": [-120.159969988, 47.885289769], "type": "Point"}, "id": "1QVzKDwSusIZcqkyrz7q8VMDtqg=", "properties": {"@spider": "usps_collection_boxes", "addr:city": "MANSON", "addr:country": "US", "addr:full": "85 W WAPATO WAY", "addr:postcode": "98831", "addr:state": "WA", "amenity": "post_box", "brand": "United States Postal Service", "brand:wikidata": "Q668687", "collection_times": "Mo-Fr 16:30", "name": "USPS COLLECTION BOX - PO LOBBY", "note": "ON 12/24 AND 12/31, THIS BOX MAY BE COLLECTED AS EARLY AS 12 NOON.", "nsi_id": "unitedstatespostalservice-a77078", "operator": "United States Postal Service", "operator:short": "USPS", "operator:type": "public", "operator:wikidata": "Q668687", "ref": "9883100002"}, "type": "Feature"}
{"dataset_attributes": {"@spider": "usps_collection_boxes", "spider:collection_time": "2023-09-04T08:25:30.667448"}, "geometry": {"coordinates": [-118.985057, 47.407215], "type": "Point"}, "id": "tBCxtjJbYJtbSdq2RXaHskVCRII=", "properties": {"@spider": "usps_collection_boxes", "addr:city": "MARLIN", "addr:country": "US", "addr:full": "174 N URQUHART AVE", "addr:postcode": "98832", "addr:state": "WA", "amenity": "post_box", "brand": "United States Postal Service", "brand:wikidata": "Q668687", "collection_times": "Mo-Fr 13:00; Sa 10:00", "name": "USPS COLLECTION BOX - BLUE BOX", "note": "ON 12/24 AND 12/31, THIS BOX MAY BE COLLECTED AS EARLY AS 12 NOON.", "nsi_id": "unitedstatespostalservice-a77078", "operator": "United States Postal Service", "operator:short": "USPS", "operator:type": "public", "operator:wikidata": "Q668687", "ref": "9883200000"}, "type": "Feature"}
{"dataset_attributes": {"@spider": "usps_collection_boxes", "spider:collection_time": "2023-09-04T08:25:30.667448"}, "geometry": {"coordinates": [-118.984996, 47.407249], "type": "Point"}, "id": "3tHJJ_076oMACej71zTPhsOEYz0=", "properties": {"@spider": "usps_collection_boxes", "addr:city": "MARLIN", "addr:country": "US", "addr:full": "174 N URQUHART AVE", "addr:postcode": "98832", "addr:state": "WA", "amenity": "post_box", "brand": "United States Postal Service", "brand:wikidata": "Q668687", "collection_times": "Mo-Fr 13:00; Sa 10:00", "name": "USPS COLLECTION BOX - PO LOBBY", "note": "ON 12/24 AND 12/31, THIS BOX MAY BE COLLECTED AS EARLY AS 12 NOON.", "nsi_id": "unitedstatespostalservice-a77078", "operator": "United States Postal Service", "operator:short": "USPS", "operator:type": "public", "operator:wikidata": "Q668687", "ref": "9883200001"}, "type": "Feature"}
{"dataset_attributes": {"@spider": "usps_collection_boxes", "spider:collection_time": "2023-09-04T08:25:30.667448"}, "geometry": {"coordinates": [-118.985064943, 47.407248275], "type": "Point"}, "id": "G-7PccYnVRjvikZxEs72ut7-nR0=", "properties": {"@spider": "usps_collection_boxes", "addr:city": "MARLIN", "addr:country": "US", "addr:full": "174 N URQUHART AVE", "addr:postcode": "98832", "addr:state": "WA", "amenity": "post_box", "brand": "United States Postal Service", "brand:wikidata": "Q668687", "collection_times": "Mo-Fr 13:30; Sa 10:30", "name": "USPS COLLECTION BOX - PO LOBBY", "note": "ON 12/24 AND 12/31, THIS BOX MAY BE COLLECTED AS EARLY AS 12 NOON.", "nsi_id": "unitedstatespostalservice-a77078", "operator": "United States Postal Service", "operator:short": "USPS", "operator:type": "public", "operator:wikidata": "Q668687", "ref": "9883200002"}, "type": "Feature"}
{"dataset_attributes": {"@spider": "usps_collection_boxes", "spider:collection_time": "2023-09-04T08:25:30.667448"}, "geometry": {"coordinates": [-120.003588, 48.128748], "type": "Point"}, "id": "UhZzO2EWsoPCmt0ASvXAMMLCW0g=", "properties": {"@spider": "usps_collection_boxes", "addr:city": "METHOW", "addr:country": "US", "addr:full": "34 MAIN ST", "addr:postcode": "98834", "addr:state": "WA", "amenity": "post_box", "brand": "United States Postal Service", "brand:wikidata": "Q668687", "collection_times": "Mo-Fr 16:00; Sa 10:00", "name": "USPS COLLECTION BOX - PO LOBBY", "note": "ON 12/24 AND 12/31, THIS BOX MAY BE COLLECTED AS EARLY AS 12 NOON.", "nsi_id": "unitedstatespostalservice-a77078", "operator": "United States Postal Service", "operator:short": "USPS", "operator:type": "public", "operator:wikidata": "Q668687", "ref": "9883400002"}, "type": "Feature"}
{"dataset_attributes": {"@spider": "usps_collection_boxes", "spider:collection_time": "2023-09-04T08:25:30.667448"}, "geometry": {"coordinates": [-120.003557401, 48.128760867], "type": "Point"}, "id": "I3kOsbG9cDIrqkJaZJvvZSnc-H0=", "properties": {"@spider": "usps_collection_boxes", "addr:city": "METHOW", "addr:country": "US", "addr:full": "34 MAIN ST", "addr:postcode": "98834", "addr:state": "WA", "amenity": "post_box", "brand": "United States Postal Service", "brand:wikidata": "Q668687", "collection_times": "Mo-Fr 16:00; Sa 09:45", "name": "USPS COLLECTION BOX - PO LOBBY", "note": "ON 12/24 AND 12/31, THIS BOX MAY BE COLLECTED AS EARLY AS 12 NOON.", "nsi_id": "unitedstatespostalservice-a77078", "operator": "United States Postal Service", "operator:short": "USPS", "operator:type": "public", "operator:wikidata": "Q668687", "ref": "9883400003"}, "type": "Feature"}
{"dataset_attributes": {"@spider": "usps_collection_boxes", "spider:collection_time": "2023-09-04T08:25:30.667448"}, "geometry": {"coordinates": [-120.415678, 47.487063], "type": "Point"}, "id": "cN46R010p3Wah5vbSlWY91e5bT4=", "properties": {"@spider": "usps_collection_boxes", "addr:city": "MONITOR", "addr:country": "US", "addr:full": "3160 MAIN ST", "addr:postcode": "98836", "addr:state": "WA", "amenity": "post_box", "brand": "United States Postal Service", "brand:wikidata": "Q668687", "collection_times": "Mo-Fr 15:00; Sa 08:30", "name": "USPS COLLECTION BOX - BLUE BOX", "note": "ON 12/24 AND 12/31, THIS BOX MAY BE COLLECTED AS EARLY AS 12 NOON.", "nsi_id": "unitedstatespostalservice-a77078", "operator": "United States Postal Service", "operator:short": "USPS", "operator:type": "public", "operator:wikidata": "Q668687", "ref": "9883600000"}, "type": "Feature"}
{"dataset_attributes": {"@spider": "usps_collection_boxes", "spider:collection_time": "2023-09-04T08:25:30.667448"}, "geometry": {"coordinates": [-120.41561, 47.487089], "type": "Point"}, "id": "2JwYUCca1Rf2pJAoeny3PT3H2SY=", "properties": {"@spider": "usps_collection_boxes", "addr:city": "MONITOR", "addr:country": "US", "addr:full": "3160 MAIN ST", "addr:postcode": "98836", "addr:state": "WA", "amenity": "post_box", "brand": "United States Postal Service", "brand:wikidata": "Q668687", "collection_times": "Mo-Fr 15:00; Sa 08:30", "name": "USPS COLLECTION BOX - PO LOBBY", "note": "ON 12/24 AND 12/31, THIS BOX MAY BE COLLECTED AS EARLY AS 12 NOON.", "nsi_id": "unitedstatespostalservice-a77078", "operator": "United States Postal Service", "operator:short": "USPS", "operator:type": "public", "operator:wikidata": "Q668687", "ref": "9883600001"}, "type": "Feature"}
{"dataset_attributes": {"@spider": "usps_collection_boxes", "spider:collection_time": "2023-09-04T08:25:30.667448"}, "geometry": {"coordinates": [-120.416913671, 47.487090511], "type": "Point"}, "id": "hyAz3i7Fwt_QNT-MxRoHReG17Lk=", "properties": {"@spider": "usps_collection_boxes", "addr:city": "MONITOR", "addr:country": "US", "addr:full": "3160 MAIN ST", "addr:postcode": "98836", "addr:state": "WA", "amenity": "post_box", "brand": "United States Postal Service", "brand:wikidata": "Q668687", "collection_times": "Mo-Fr 15:15", "name": "USPS COLLECTION BOX - PO LOBBY", "note": "ON 12/24 AND 12/31, THIS BOX MAY BE COLLECTED AS EARLY AS 12 NOON.", "nsi_id": "unitedstatespostalservice-a77078", "operator": "United States Postal Service", "operator:short": "USPS", "operator:type": "public", "operator:wikidata": "Q668687", "ref": "9883600002"}, "type": "Feature"}
{"dataset_attributes": {"@spider": "usps_collection_boxes", "spider:collection_time": "2023-09-04T08:25:30.667448"}, "geometry": {"coordinates": [-119.279612, 47.129356], "type": "Point"}, "id": "ZC_Uc8LJaqjIneO32ea7nvoTkss=", "properties": {"@spider": "usps_collection_boxes", "addr:city": "MOSES LAKE", "addr:country": "US", "addr:full": "223 W 3RD AVE", "addr:postcode": "98837", "addr:state": "WA", "amenity": "post_box", "brand": "United States Postal Service", "brand:wikidata": "Q668687", "collection_times": "Mo-Fr 16:15; Sa 16:00", "name": "USPS COLLECTION BOX - BLUE BOX", "note": "ON 12/24 AND 12/31, THIS BOX MAY BE COLLECTED AS EARLY AS 12 NOON.", "nsi_id": "unitedstatespostalservice-a77078", "operator": "United States Postal Service", "operator:short": "USPS", "operator:type": "public", "operator:wikidata": "Q668687", "ref": "9883700000"}, "type": "Feature"}
{"dataset_attributes": {"@spider": "usps_collection_boxes", "spider:collection_time": "2023-09-04T08:25:30.667448"}, "geometry": {"coordinates": [-119.286601, 47.125781], "type": "Point"}, "id": "wbJYXvXBhYWGNjJR57DrGVe7snQ=", "properties": {"@spider": "usps_collection_boxes", "addr:city": "MOSES LAKE", "addr:country": "US", "addr:full": "801 W 3RD AVE", "addr:postcode": "98837", "addr:state": "WA", "amenity": "post_box", "brand": "United States Postal Service", "brand:wikidata": "Q668687", "collection_times": "Mo-Sa 10:00", "name": "USPS COLLECTION BOX - BLUE BOX", "nsi_id": "unitedstatespostalservice-a77078", "operator": "United States Postal Service", "operator:short": "USPS", "operator:type": "public", "operator:wikidata": "Q668687", "ref": "9883700006"}, "type": "Feature"}
{"dataset_attributes": {"@spider": "usps_collection_boxes", "spider:collection_time": "2023-09-04T08:25:30.667448"}, "geometry": {"coordinates": [-119.261835, 47.114181], "type": "Point"}, "id": "E9pP0-AQF26CvUFRQY5VB4sMsuA=", "properties": {"@spider": "usps_collection_boxes", "addr:city": "MOSES LAKE", "addr:country": "US", "addr:full": "1400 S PIONEER WAY", "addr:postcode": "98837", "addr:state": "WA", "amenity": "post_box", "brand": "United States Postal Service", "brand:wikidata": "Q668687", "collection_times": "Mo-Sa 10:00", "name": "USPS COLLECTION BOX - BLUE BOX", "nsi_id": "unitedstatespostalservice-a77078", "operator": "United States Postal Service", "operator:short": "USPS", "operator:type": "public", "operator:wikidata": "Q668687", "ref": "9883700008"}, "type": "Feature"}
{"dataset_attributes": {"@spider": "usps_collection_boxes", "spider:collection_time": "2023-09-04T08:25:30.667448"}, "geometry": {"coordinates": [-119.273879, 47.12993], "type": "Point"}, "id": "WEqrIMUjWvuIILDTTLl44EYslmw=", "properties": {"@spider": "usps_collection_boxes", "addr:city": "MOSES LAKE", "addr:country": "US", "addr:full": "321 S BALSAM ST", "addr:postcode": "98837", "addr:state": "WA", "amenity": "post_box", "brand": "United States Postal Service", "brand:wikidata": "Q668687", "collection_times": "Mo-Sa 10:00", "name": "USPS COLLECTION BOX - BLUE BOX", "nsi_id": "unitedstatespostalservice-a77078", "operator": "United States Postal Service", "operator:short": "USPS", "operator:type": "public", "operator:wikidata": "Q668687", "ref": "9883700010"}, "type": "Feature"}
{"dataset_attributes": {"@spider": "usps_collection_boxes", "spider:collection_time": "2023-09-04T08:25:30.667448"}, "geometry": {"coordinates": [-119.267009, 47.121603], "type": "Point"}, "id": "7I2QjPh_qZ5HdfB42nZsW-qZmz0=", "properties": {"@spider": "usps_collection_boxes", "addr:city": "MOSES LAKE", "addr:country": "US", "addr:full": "900 S JUNIPER DR", "addr:postcode": "98837", "addr:state": "WA", "amenity": "post_box", "brand": "United States Postal Service", "brand:wikidata": "Q668687", "collection_times": "Mo-Sa 10:30", "name": "USPS COLLECTION BOX - BLUE BOX", "nsi_id": "unitedstatespostalservice-a77078", "operator": "United States Postal Service", "operator:short": "USPS", "operator:type": "public", "operator:wikidata": "Q668687", "ref": "9883700012"}, "type": "Feature"}
{"dataset_attributes": {"@spider": "usps_collection_boxes", "spider:collection_time": "2023-09-04T08:25:30.667448"}, "geometry": {"coordinates": [-119.31334, 47.103531], "type": "Point"}, "id": "sk7Gn3bTTb7hSJT5684rVyQOH7Y=", "properties": {"@spider": "usps_collection_boxes", "addr:city": "MOSES LAKE", "addr:country": "US", "addr:full": "2908 W BROADWAY AVE", "addr:postcode": "98837", "addr:state": "WA", "amenity": "post_box", "brand": "United States Postal Service", "brand:wikidata": "Q668687", "collection_times": "Mo-Fr 15:30; Sa 15:00", "name": "USPS COLLECTION BOX - BLUE BOX", "note": "ON 12/24 AND 12/31, THIS BOX MAY BE COLLECTED AS EARLY AS 12 NOON.", "nsi_id": "unitedstatespostalservice-a77078", "operator": "United States Postal Service", "operator:short": "USPS", "operator:type": "public", "operator:wikidata": "Q668687", "ref": "9883700013"}, "type": "Feature"}
{"dataset_attributes": {"@spider": "usps_collection_boxes", "spider:collection_time": "2023-09-04T08:25:30.667448"}, "geometry": {"coordinates": [-119.273195, 47.127385], "type": "Point"}, "id": "_59zrtjT4QdIwqPAo2ETkeAD9q4=", "properties": {"@spider": "usps_collection_boxes", "addr:city": "MOSES LAKE", "addr:country": "US", "addr:full": "5053 AIRWAY DR NE", "addr:postcode": "98837", "addr:state": "WA", "amenity": "post_box", "brand": "United States Postal Service", "brand:wikidata": "Q668687", "collection_times": "Mo-Sa 11:00", "name": "USPS COLLECTION BOX - BLUE BOX", "nsi_id": "unitedstatespostalservice-a77078", "operator": "United States Postal Service", "operator:short": "USPS", "operator:type": "public", "operator:wikidata": "Q668687", "ref": "9883700017"}, "type": "Feature"}
{"dataset_attributes": {"@spider": "usps_collection_boxes", "spider:collection_time": "2023-09-04T08:25:30.667448"}, "geometry": {"coordinates": [-119.277294, 47.13768], "type": "Point"}, "id": "LDVE6O3VvShbu6mHi_3nbporSqU=", "properties": {"@spider": "usps_collection_boxes", "addr:city": "MOSES LAKE", "addr:country": "US", "addr:full": "711 N STRATFORD RD", "addr:postcode": "98837", "addr:state": "WA", "amenity": "post_box", "brand": "United States Postal Service", "brand:wikidata": "Q668687", "collection_times": "Mo-Sa 09:00", "name": "USPS COLLECTION BOX - BLUE BOX", "nsi_id": "unitedstatespostalservice-a77078", "operator": "United States Postal Service", "operator:short": "USPS", "operator:type": "public", "operator:wikidata": "Q668687", "ref": "9883700018"}, "type": "Feature"}
{"dataset_attributes": {"@spider": "usps_collection_boxes", "spider:collection_time": "2023-09-04T08:25:30.667448"}, "geometry": {"coordinates": [-119.279576, 47.129407], "type": "Point"}, "id": "juzLx-qJbSSKNxHWGTtSAnuu5Mg=", "properties": {"@spider": "usps_collection_boxes", "addr:city": "MOSES LAKE", "addr:country": "US", "addr:full": "223 W 3RD AVE", "addr:postcode": "98837", "addr:state": "WA", "amenity": "post_box", "brand": "United States Postal Service", "brand:wikidata": "Q668687", "collection_times": "Mo-Fr 16:15; Sa 16:00", "name": "USPS COLLECTION BOX - PO LOBBY", "note": "ON 12/24 AND 12/31, THIS BOX MAY BE COLLECTED AS EARLY AS 12 NOON.", "nsi_id": "unitedstatespostalservice-a77078", "operator": "United States Postal Service", "operator:short": "USPS", "operator:type": "public", "operator:wikidata": "Q668687", "ref": "9883700019"}, "type": "Feature"}
{"dataset_attributes": {"@spider": "usps_collection_boxes", "spider:collection_time": "2023-09-04T08:25:30.667448"}, "geometry": {"coordinates": [-119.279576, 47.129407], "type": "Point"}, "id": "fftTOYUbn28AJAIL_lBeBJ43fhg=", "properties": {"@spider": "usps_collection_boxes", "addr:city": "MOSES LAKE", "addr:country": "US", "addr:full": "223 W 3RD AVE", "addr:postcode": "98837", "addr:state": "WA", "amenity": "post_box", "brand": "United States Postal Service", "brand:wikidata": "Q668687", "collection_times": "Mo-Fr 16:15; Sa 16:00", "name": "USPS COLLECTION BOX - PO LOBBY", "note": "ON 12/24 AND 12/31, THIS BOX MAY BE COLLECTED AS EARLY AS 12 NOON.", "nsi_id": "unitedstatespostalservice-a77078", "operator": "United States Postal Service", "operator:short": "USPS", "operator:type": "public", "operator:wikidata": "Q668687", "ref": "9883700020"}, "type": "Feature"}
{"dataset_attributes": {"@spider": "usps_collection_boxes", "spider:collection_time": "2023-09-04T08:25:30.667448"}, "geometry": {"coordinates": [-119.280179004, 47.129080979], "type": "Point"}, "id": "mWWsqtYIAnR8_8F0o0Nl0-RnQpo=", "properties": {"@spider": "usps_collection_boxes", "addr:city": "MOSES LAKE", "addr:country": "US", "addr:full": "223 W 3RD AVE", "addr:postcode": "98837", "addr:state": "WA", "amenity": "post_box", "brand": "United States Postal Service", "brand:wikidata": "Q668687", "collection_times": "Mo-Fr 17:00; Sa 14:00", "name": "USPS COLLECTION BOX - PO LOBBY", "note": "ON 12/24 AND 12/31, THIS BOX MAY BE COLLECTED AS EARLY AS 12 NOON.", "nsi_id": "unitedstatespostalservice-a77078", "operator": "United States Postal Service", "operator:short": "USPS", "operator:type": "public", "operator:wikidata": "Q668687", "ref": "9883700023"}, "type": "Feature"}
{"dataset_attributes": {"@spider": "usps_collection_boxes", "spider:collection_time": "2023-09-04T08:25:30.667448"}, "geometry": {"coordinates": [-119.579731, 48.364613], "type": "Point"}, "id": "bESMnwWWnWDUDPT2HoIXUZm3D9U=", "properties": {"@spider": "usps_collection_boxes", "addr:city": "OKANOGAN", "addr:country": "US", "addr:full": "212 2ND AVE N", "addr:postcode": "98840", "addr:state": "WA", "amenity": "post_box", "brand": "United States Postal Service", "brand:wikidata": "Q668687", "collection_times": "Mo-Fr 14:20; Sa 13:00", "name": "USPS COLLECTION BOX - BLUE BOX", "note": "ON 12/24 AND 12/31, THIS BOX MAY BE COLLECTED AS EARLY AS 12 NOON.", "nsi_id": "unitedstatespostalservice-a77078", "operator": "United States Postal Service", "operator:short": "USPS", "operator:type": "public", "operator:wikidata": "Q668687", "ref": "9884000000"}, "type": "Feature"}
{"dataset_attributes": {"@spider": "usps_collection_boxes", "spider:collection_time": "2023-09-04T08:25:30.667448"}, "geometry": {"coordinates": [-119.579828, 48.364579], "type": "Point"}, "id": "Dk37kw7eibxbeUnhqGjfYtvbTng=", "properties": {"@spider": "usps_collection_boxes", "addr:city": "OKANOGAN", "addr:country": "US", "addr:full": "212 2ND AVE N", "addr:postcode": "98840", "addr:state": "WA", "amenity": "post_box", "brand": "United States Postal Service", "brand:wikidata": "Q668687", "collection_times": "Mo-Fr 14:20; Sa 13:00", "name": "USPS COLLECTION BOX - PO LOBBY", "note": "ON 12/24 AND 12/31, THIS BOX MAY BE COLLECTED AS EARLY AS 12 NOON.", "nsi_id": "unitedstatespostalservice-a77078", "operator": "United States Postal Service", "operator:short": "USPS", "operator:type": "public", "operator:wikidata": "Q668687", "ref": "9884000002"}, "type": "Feature"}
{"dataset_attributes": {"@spider": "usps_collection_boxes", "spider:collection_time": "2023-09-04T08:25:30.667448"}, "geometry": {"coordinates": [-119.579828, 48.364579], "type": "Point"}, "id": "Dj747zJ6JRMOQihb4RnY-jQjgzk=", "properties": {"@spider": "usps_collection_boxes", "addr:city": "OKANOGAN", "addr:country": "US", "addr:full": "212 2ND AVE N", "addr:postcode": "98840", "addr:state": "WA", "amenity": "post_box", "brand": "United States Postal Service", "brand:wikidata": "Q668687", "collection_times": "Mo-Fr 14:20; Sa 13:00", "name": "USPS COLLECTION BOX - PO LOBBY", "note": "ON 12/24 AND 12/31, THIS BOX MAY BE COLLECTED AS EARLY AS 12 NOON.", "nsi_id": "unitedstatespostalservice-a77078", "operator": "United States Postal Service", "operator:short": "USPS", "operator:type": "public", "operator:wikidata": "Q668687", "ref": "9884000003"}, "type": "Feature"}
{"dataset_attributes": {"@spider": "usps_collection_boxes", "spider:collection_time": "2023-09-04T08:25:30.667448"}, "geometry": {"coordinates": [-119.579624866, 48.364700575], "type": "Point"}, "id": "Eqa3995o6dUIu59qQ8uEZhSuww0=", "properties": {"@spider": "usps_collection_boxes", "addr:city": "OKANOGAN", "addr:country": "US", "addr:full": "212 2ND AVE N", "addr:postcode": "98840", "addr:state": "WA", "amenity": "post_box", "brand": "United States Postal Service", "brand:wikidata": "Q668687", "collection_times": "Mo-Fr 15:45", "name": "USPS COLLECTION BOX - PO LOBBY", "note": "ON 12/24 AND 12/31, THIS BOX MAY BE COLLECTED AS EARLY AS 12 NOON.", "nsi_id": "unitedstatespostalservice-a77078", "operator": "United States Postal Service", "operator:short": "USPS", "operator:type": "public", "operator:wikidata": "Q668687", "ref": "9884000004"}, "type": "Feature"}
{"dataset_attributes": {"@spider": "usps_collection_boxes", "spider:collection_time": "2023-09-04T08:25:30.667448"}, "geometry": {"coordinates": [-119.528489, 48.409524], "type": "Point"}, "id": "qkDNQSe_z42ssSuRixHNiTV7lco=", "properties": {"@spider": "usps_collection_boxes", "addr:city": "OMAK", "addr:country": "US", "addr:full": "104 S MAIN ST", "addr:postcode": "98841", "addr:state": "WA", "amenity": "post_box", "brand": "United States Postal Service", "brand:wikidata": "Q668687", "collection_times": "Mo-Sa 14:50", "name": "USPS COLLECTION BOX - BLUE BOX", "note": "ON 12/24 AND 12/31, THIS BOX MAY BE COLLECTED AS EARLY AS 12 NOON.", "nsi_id": "unitedstatespostalservice-a77078", "operator": "United States Postal Service", "operator:short": "USPS", "operator:type": "public", "operator:wikidata": "Q668687", "ref": "9884100001"}, "type": "Feature"}
{"dataset_attributes": {"@spider": "usps_collection_boxes", "spider:collection_time": "2023-09-04T08:25:30.667448"}, "geometry": {"coordinates": [-119.528489, 48.409524], "type": "Point"}, "id": "R4ejc3qQO6lhP2iyEoteS_muOJY=", "properties": {"@spider": "usps_collection_boxes", "addr:city": "OMAK", "addr:country": "US", "addr:full": "104 S MAIN ST", "addr:postcode": "98841", "addr:state": "WA", "amenity": "post_box", "brand": "United States Postal Service", "brand:wikidata": "Q668687", "collection_times": "Mo-Sa 14:50", "name": "USPS COLLECTION BOX - PO LOBBY", "note": "ON 12/24 AND 12/31, THIS BOX MAY BE COLLECTED AS EARLY AS 12 NOON.", "nsi_id": "unitedstatespostalservice-a77078", "operator": "United States Postal Service", "operator:short": "USPS", "operator:type": "public", "operator:wikidata": "Q668687", "ref": "9884100005"}, "type": "Feature"}
{"dataset_attributes": {"@spider": "usps_collection_boxes", "spider:collection_time": "2023-09-04T08:25:30.667448"}, "geometry": {"coordinates": [-119.528489, 48.409524], "type": "Point"}, "id": "xuk_DfV5TxAS-MYH3joI3gF7gb0=", "properties": {"@spider": "usps_collection_boxes", "addr:city": "OMAK", "addr:country": "US", "addr:full": "104 S MAIN ST", "addr:postcode": "98841", "addr:state": "WA", "amenity": "post_box", "brand": "United States Postal Service", "brand:wikidata": "Q668687", "collection_times": "Mo-Sa 14:50", "name": "USPS COLLECTION BOX - PO LOBBY", "note": "ON 12/24 AND 12/31, THIS BOX MAY BE COLLECTED AS EARLY AS 12 NOON.", "nsi_id": "unitedstatespostalservice-a77078", "operator": "United States Postal Service", "operator:short": "USPS", "operator:type": "public", "operator:wikidata": "Q668687", "ref": "9884100006"}, "type": "Feature"}
{"dataset_attributes": {"@spider": "usps_collection_boxes", "spider:collection_time": "2023-09-04T08:25:30.667448"}, "geometry": {"coordinates": [-119.528532364, 48.409290671], "type": "Point"}, "id": "YhCXygfzAECaG4CBaBJvNP2F_6s=", "properties": {"@spider": "usps_collection_boxes", "addr:city": "OMAK", "addr:country": "US", "addr:full": "104 S MAIN ST", "addr:postcode": "98841", "addr:state": "WA", "amenity": "post_box", "brand": "United States Postal Service", "brand:wikidata": "Q668687", "collection_times": "Mo-Fr 16:15", "name": "USPS COLLECTION BOX - PO LOBBY", "note": "ON 12/24 AND 12/31, THIS BOX MAY BE COLLECTED AS EARLY AS 12 NOON.", "nsi_id": "unitedstatespostalservice-a77078", "operator": "United States Postal Service", "operator:short": "USPS", "operator:type": "public", "operator:wikidata": "Q668687", "ref": "9884100008"}, "type": "Feature"}
{"dataset_attributes": {"@spider": "usps_collection_boxes", "spider:collection_time": "2023-09-04T08:25:30.667448"}, "geometry": {"coordinates": [-120.226984, 47.625062], "type": "Point"}, "id": "SD05-XBP1DtVr2URmagFE57RHkI=", "properties": {"@spider": "usps_collection_boxes", "addr:city": "ORONDO", "addr:country": "US", "addr:full": "14003 STATE ROUTE 2", "addr:postcode": "98843", "addr:state": "WA", "amenity": "post_box", "brand": "United States Postal Service", "brand:wikidata": "Q668687", "collection_times": "Mo-Fr 14:40; Sa 09:30", "name": "USPS COLLECTION BOX - BLUE BOX", "note": "ON 12/24 AND 12/31, THIS BOX MAY BE COLLECTED AS EARLY AS 12 NOON.", "nsi_id": "unitedstatespostalservice-a77078", "operator": "United States Postal Service", "operator:short": "USPS", "operator:type": "public", "operator:wikidata": "Q668687", "ref": "9884300001"}, "type": "Feature"}
{"dataset_attributes": {"@spider": "usps_collection_boxes", "spider:collection_time": "2023-09-04T08:25:30.667448"}, "geometry": {"coordinates": [-120.226984, 47.625062], "type": "Point"}, "id": "vt32KlSPBs_RV-7dYUdD3ooyXcg=", "properties": {"@spider": "usps_collection_boxes", "addr:city": "ORONDO", "addr:country": "US", "addr:full": "14003 STATE ROUTE 2", "addr:postcode": "98843", "addr:state": "WA", "amenity": "post_box", "brand": "United States Postal Service", "brand:wikidata": "Q668687", "collection_times": "Mo-Fr 14:40; Sa 09:30", "name": "USPS COLLECTION BOX - PO LOBBY", "note": "ON 12/24 AND 12/31, THIS BOX MAY BE COLLECTED AS EARLY AS 12 NOON.", "nsi_id": "unitedstatespostalservice-a77078", "operator": "United States Postal Service", "operator:short": "USPS", "operator:type": "public", "operator:wikidata": "Q668687", "ref": "9884300002"}, "type": "Feature"}
{"dataset_attributes": {"@spider": "usps_collection_boxes", "spider:collection_time": "2023-09-04T08:25:30.667448"}, "geometry": {"coordinates": [-120.226987926, 47.625056234], "type": "Point"}, "id": "PeObOoAqPWQY3CIDhx0Fw_6I_M4=", "properties": {"@spider": "usps_collection_boxes", "addr:city": "ORONDO", "addr:country": "US", "addr:full": "14003 STATE ROUTE 2", "addr:postcode": "98843", "addr:state": "WA", "amenity": "post_box", "brand": "United States Postal Service", "brand:wikidata": "Q668687", "collection_times": "Mo-Fr 14:30", "name": "USPS COLLECTION BOX - PO LOBBY", "note": "ON 12/24 AND 12/31, THIS BOX MAY BE COLLECTED AS EARLY AS 12 NOON.", "nsi_id": "unitedstatespostalservice-a77078", "operator": "United States Postal Service", "operator:short": "USPS", "operator:type": "public", "operator:wikidata": "Q668687", "ref": "9884300003"}, "type": "Feature"}
{"dataset_attributes": {"@spider": "usps_collection_boxes", "spider:collection_time": "2023-09-04T08:25:30.667448"}, "geometry": {"coordinates": [-119.438461, 48.936706], "type": "Point"}, "id": "I98PNML8Tk8x1wrGnc74ETSunbA=", "properties": {"@spider": "usps_collection_boxes", "addr:city": "OROVILLE", "addr:country": "US", "addr:full": "1234 IRONWOOD ST", "addr:postcode": "98844", "addr:state": "WA", "amenity": "post_box", "brand": "United States Postal Service", "brand:wikidata": "Q668687", "collection_times": "Mo-Fr 13:30; Sa 11:30", "name": "USPS COLLECTION BOX - BLUE BOX", "note": "ON 12/24 AND 12/31, THIS BOX MAY BE COLLECTED AS EARLY AS 12 NOON.", "nsi_id": "unitedstatespostalservice-a77078", "operator": "United States Postal Service", "operator:short": "USPS", "operator:type": "public", "operator:wikidata": "Q668687", "ref": "9884400000"}, "type": "Feature"}
{"dataset_attributes": {"@spider": "usps_collection_boxes", "spider:collection_time": "2023-09-04T08:25:30.667448"}, "geometry": {"coordinates": [-119.438461, 48.936706], "type": "Point"}, "id": "zDBmrEnPN5ZsQ3nvakD0HrEMryo=", "properties": {"@spider": "usps_collection_boxes", "addr:city": "OROVILLE", "addr:country": "US", "addr:full": "1234 IRONWOOD ST", "addr:postcode": "98844", "addr:state": "WA", "amenity": "post_box", "brand": "United States Postal Service", "brand:wikidata": "Q668687", "collection_times": "Mo-Fr 13:30; Sa 11:30", "name": "USPS COLLECTION BOX - PO LOBBY", "note": "ON 12/24 AND 12/31, THIS BOX MAY BE COLLECTED AS EARLY AS 12 NOON.", "nsi_id": "unitedstatespostalservice-a77078", "operator": "United States Postal Service", "operator:short": "USPS", "operator:type": "public", "operator:wikidata": "Q668687", "ref": "9884400002"}, "type": "Feature"}
{"dataset_attributes": {"@spider": "usps_collection_boxes", "spider:collection_time": "2023-09-04T08:25:30.667448"}, "geometry": {"coordinates": [-119.438461, 48.936706], "type": "Point"}, "id": "MdZYG6EpwaYQarbgrRfUL1zh8So=", "properties": {"@spider": "usps_collection_boxes", "addr:city": "OROVILLE", "addr:country": "US", "addr:full": "1234 IRONWOOD ST", "addr:postcode": "98844", "addr:state": "WA", "amenity": "post_box", "brand": "United States Postal Service", "brand:wikidata": "Q668687", "collection_times": "Mo-Fr 13:30; Sa 11:30", "name": "USPS COLLECTION BOX - PO LOBBY", "note": "ON 12/24 AND 12/31, THIS BOX MAY BE COLLECTED AS EARLY AS 12 NOON.", "nsi_id": "unitedstatespostalservice-a77078", "operator": "United States Postal Service", "operator:short": "USPS", "operator:type": "public", "operator:wikidata": "Q668687", "ref": "9884400004"}, "type": "Feature"}
{"dataset_attributes": {"@spider": "usps_collection_boxes", "spider:collection_time": "2023-09-04T08:25:30.667448"}, "geometry": {"coordinates": [-119.438464014, 48.936700703], "type": "Point"}, "id": "jAkdKqmdFYPpFGF6CMIbOFGL-l0=", "properties": {"@spider": "usps_collection_boxes", "addr:city": "OROVILLE", "addr:country": "US", "addr:full": "1234 IRONWOOD ST", "addr:postcode": "98844", "addr:state": "WA", "amenity": "post_box", "brand": "United States Postal Service", "brand:wikidata": "Q668687", "collection_times": "Mo-Fr 15:30", "name": "USPS COLLECTION BOX - PO LOBBY", "note": "ON 12/24 AND 12/31, THIS BOX MAY BE COLLECTED AS EARLY AS 12 NOON.", "nsi_id": "unitedstatespostalservice-a77078", "operator": "United States Postal Service", "operator:short": "USPS", "operator:type": "public", "operator:wikidata": "Q668687", "ref": "9884400007"}, "type": "Feature"}
{"dataset_attributes": {"@spider": "usps_collection_boxes", "spider:collection_time": "2023-09-04T08:25:30.667448"}, "geometry": {"coordinates": [-119.901217, 48.053243], "type": "Point"}, "id": "S5w0iRkGyv9_Ct8FqB1oTOcdto0=", "properties": {"@spider": "usps_collection_boxes", "addr:city": "PATEROS", "addr:country": "US", "addr:full": "170 PATEROS MALL", "addr:postcode": "98846", "addr:state": "WA", "amenity": "post_box", "brand": "United States Postal Service", "brand:wikidata": "Q668687", "collection_times": "Mo-Fr 16:00; Sa 09:30", "name": "USPS COLLECTION BOX - BLUE BOX", "note": "ON 12/24 AND 12/31, THIS BOX MAY BE COLLECTED AS EARLY AS 12 NOON.", "nsi_id": "unitedstatespostalservice-a77078", "operator": "United States Postal Service", "operator:short": "USPS", "operator:type": "public", "operator:wikidata": "Q668687", "ref": "9884600001"}, "type": "Feature"}
{"dataset_attributes": {"@spider": "usps_collection_boxes", "spider:collection_time": "2023-09-04T08:25:30.667448"}, "geometry": {"coordinates": [-119.901217, 48.053243], "type": "Point"}, "id": "EZELF3vdMUs3EgNngHUo24c2D80=", "properties": {"@spider": "usps_collection_boxes", "addr:city": "PATEROS", "addr:country": "US", "addr:full": "170 PATEROS MALL", "addr:postcode": "98846", "addr:state": "WA", "amenity": "post_box", "brand": "United States Postal Service", "brand:wikidata": "Q668687", "collection_times": "Mo-Fr 16:00; Sa 09:30", "name": "USPS COLLECTION BOX - PO LOBBY", "note": "ON 12/24 AND 12/31, THIS BOX MAY BE COLLECTED AS EARLY AS 12 NOON.", "nsi_id": "unitedstatespostalservice-a77078", "operator": "United States Postal Service", "operator:short": "USPS", "operator:type": "public", "operator:wikidata": "Q668687", "ref": "9884600002"}, "type": "Feature"}
{"dataset_attributes": {"@spider": "usps_collection_boxes", "spider:collection_time": "2023-09-04T08:25:30.667448"}, "geometry": {"coordinates": [-119.901172476, 48.053179771], "type": "Point"}, "id": "Hnl05bQFZWEL67DEm4jPYpkuQVk=", "properties": {"@spider": "usps_collection_boxes", "addr:city": "PATEROS", "addr:country": "US", "addr:full": "170 PATEROS MALL", "addr:postcode": "98846", "addr:state": "WA", "amenity": "post_box", "brand": "United States Postal Service", "brand:wikidata": "Q668687", "collection_times": "Mo-Fr 16:00", "name": "USPS COLLECTION BOX - PO LOBBY", "note": "ON 12/24 AND 12/31, THIS BOX MAY BE COLLECTED AS EARLY AS 12 NOON.", "nsi_id": "unitedstatespostalservice-a77078", "operator": "United States Postal Service", "operator:short": "USPS", "operator:type": "public", "operator:wikidata": "Q668687", "ref": "9884600003"}, "type": "Feature"}
{"dataset_attributes": {"@spider": "usps_collection_boxes", "spider:collection_time": "2023-09-04T08:25:30.667448"}, "geometry": {"coordinates": [-120.605828, 47.573364], "type": "Point"}, "id": "xzp4bcX7VHkrsSBbGmiTGfySJZU=", "properties": {"@spider": "usps_collection_boxes", "addr:city": "PESHASTIN", "addr:country": "US", "addr:full": "10168 MAIN ST", "addr:postcode": "98847", "addr:state": "WA", "amenity": "post_box", "brand": "United States Postal Service", "brand:wikidata": "Q668687", "collection_times": "Mo-Fr 14:15; Sa 10:00", "name": "USPS COLLECTION BOX - BLUE BOX", "note": "ON 12/24 AND 12/31, THIS BOX MAY BE COLLECTED AS EARLY AS 12 NOON.", "nsi_id": "unitedstatespostalservice-a77078", "operator": "United States Postal Service", "operator:short": "USPS", "operator:type": "public", "operator:wikidata": "Q668687", "ref": "9884700000"}, "type": "Feature"}
{"dataset_attributes": {"@spider": "usps_collection_boxes", "spider:collection_time": "2023-09-04T08:25:30.667448"}, "geometry": {"coordinates": [-120.60594, 47.573398], "type": "Point"}, "id": "o95ul2WLhz2AWEK0wFd7YjhIaK8=", "properties": {"@spider": "usps_collection_boxes", "addr:city": "PESHASTIN", "addr:country": "US", "addr:full": "10168 MAIN ST", "addr:postcode": "98847", "addr:state": "WA", "amenity": "post_box", "brand": "United States Postal Service", "brand:wikidata": "Q668687", "collection_times": "Mo-Fr 14:25; Sa 10:00", "name": "USPS COLLECTION BOX - PO LOBBY", "note": "ON 12/24 AND 12/31, THIS BOX MAY BE COLLECTED AS EARLY AS 12 NOON.", "nsi_id": "unitedstatespostalservice-a77078", "operator": "United States Postal Service", "operator:short": "USPS", "operator:type": "public", "operator:wikidata": "Q668687", "ref": "9884700002"}, "type": "Feature"}
{"dataset_attributes": {"@spider": "usps_collection_boxes", "spider:collection_time": "2023-09-04T08:25:30.667448"}, "geometry": {"coordinates": [-120.605587341, 47.573255252], "type": "Point"}, "id": "UeQuDdS2MlbC4Macxk5-NbG584k=", "properties": {"@spider": "usps_collection_boxes", "addr:city": "PESHASTIN", "addr:country": "US", "addr:full": "10168 MAIN ST", "addr:postcode": "98847", "addr:state": "WA", "amenity": "post_box", "brand": "United States Postal Service", "brand:wikidata": "Q668687", "collection_times": "Mo-Fr 16:30", "name": "USPS COLLECTION BOX - PO LOBBY", "note": "ON 12/24 AND 12/31, THIS BOX MAY BE COLLECTED AS EARLY AS 12 NOON.", "nsi_id": "unitedstatespostalservice-a77078", "operator": "United States Postal Service", "operator:short": "USPS", "operator:type": "public", "operator:wikidata": "Q668687", "ref": "9884700003"}, "type": "Feature"}
{"dataset_attributes": {"@spider": "usps_collection_boxes", "spider:collection_time": "2023-09-04T08:25:30.667448"}, "geometry": {"coordinates": [-119.854547, 47.235151], "type": "Point"}, "id": "SKVn9sF37RnKkA3Hwl7UtliOXnA=", "properties": {"@spider": "usps_collection_boxes", "addr:city": "QUINCY", "addr:country": "US", "addr:full": "20 C ST SW", "addr:postcode": "98848", "addr:state": "WA", "amenity": "post_box", "brand": "United States Postal Service", "brand:wikidata": "Q668687", "collection_times": "Mo-Fr 15:35; Sa 15:30", "name": "USPS COLLECTION BOX - PO LOBBY", "note": "ON 12/24 AND 12/31, THIS BOX MAY BE COLLECTED AS EARLY AS 12 NOON.", "nsi_id": "unitedstatespostalservice-a77078", "operator": "United States Postal Service", "operator:short": "USPS", "operator:type": "public", "operator:wikidata": "Q668687", "ref": "9884800000"}, "type": "Feature"}
{"dataset_attributes": {"@spider": "usps_collection_boxes", "spider:collection_time": "2023-09-04T08:25:30.667448"}, "geometry": {"coordinates": [-119.854630132, 47.235138602], "type": "Point"}, "id": "UUAcDaoZuKdK03GzAZqqJsXxMWM=", "properties": {"@spider": "usps_collection_boxes", "addr:city": "QUINCY", "addr:country": "US", "addr:full": "20 C ST SW", "addr:postcode": "98848", "addr:state": "WA", "amenity": "post_box", "brand": "United States Postal Service", "brand:wikidata": "Q668687", "collection_times": "Mo-Fr 17:00", "name": "USPS COLLECTION BOX - PO LOBBY", "note": "ON 12/24 AND 12/31, THIS BOX MAY BE COLLECTED AS EARLY AS 12 NOON.", "nsi_id": "unitedstatespostalservice-a77078", "operator": "United States Postal Service", "operator:short": "USPS", "operator:type": "public", "operator:wikidata": "Q668687", "ref": "9884800002"}, "type": "Feature"}
{"dataset_attributes": {"@spider": "usps_collection_boxes", "spider:collection_time": "2023-09-04T08:25:30.667448"}, "geometry": {"coordinates": [-119.505192, 48.498917], "type": "Point"}, "id": "aaHmpHuusN8kCSyw-7l8amtSlgM=", "properties": {"@spider": "usps_collection_boxes", "addr:city": "RIVERSIDE", "addr:country": "US", "addr:full": "407 KENDALL ST", "addr:postcode": "98849", "addr:state": "WA", "amenity": "post_box", "brand": "United States Postal Service", "brand:wikidata": "Q668687", "collection_times": "Mo-Fr 14:35; Sa 10:00", "name": "USPS COLLECTION BOX - BLUE BOX", "note": "ON 12/24 AND 12/31, THIS BOX MAY BE COLLECTED AS EARLY AS 12 NOON.", "nsi_id": "unitedstatespostalservice-a77078", "operator": "United States Postal Service", "operator:short": "USPS", "operator:type": "public", "operator:wikidata": "Q668687", "ref": "9884900000"}, "type": "Feature"}
{"dataset_attributes": {"@spider": "usps_collection_boxes", "spider:collection_time": "2023-09-04T08:25:30.667448"}, "geometry": {"coordinates": [-119.505161, 48.499008], "type": "Point"}, "id": "HFz48sTc3phxmm2nERtHb-2hrqg=", "properties": {"@spider": "usps_collection_boxes", "addr:city": "RIVERSIDE", "addr:country": "US", "addr:full": "407 KENDALL ST", "addr:postcode": "98849", "addr:state": "WA", "amenity": "post_box", "brand": "United States Postal Service", "brand:wikidata": "Q668687", "collection_times": "Mo-Fr 14:35; Sa 10:00", "name": "USPS COLLECTION BOX - PO LOBBY", "note": "ON 12/24 AND 12/31, THIS BOX MAY BE COLLECTED AS EARLY AS 12 NOON.", "nsi_id": "unitedstatespostalservice-a77078", "operator": "United States Postal Service", "operator:short": "USPS", "operator:type": "public", "operator:wikidata": "Q668687", "ref": "9884900001"}, "type": "Feature"}
{"dataset_attributes": {"@spider": "usps_collection_boxes", "spider:collection_time": "2023-09-04T08:25:30.667448"}, "geometry": {"coordinates": [-119.505161, 48.499008], "type": "Point"}, "id": "QWXXIlRNDM4hbFObCHvoV55IM4s=", "properties": {"@spider": "usps_collection_boxes", "addr:city": "RIVERSIDE", "addr:country": "US", "addr:full": "407 KENDALL ST", "addr:postcode": "98849", "addr:state": "WA", "amenity": "post_box", "brand": "United States Postal Service", "brand:wikidata": "Q668687", "collection_times": "Mo-Fr 14:35; Sa 10:00", "name": "USPS COLLECTION BOX - PO LOBBY", "note": "ON 12/24 AND 12/31, THIS BOX MAY BE COLLECTED AS EARLY AS 12 NOON.", "nsi_id": "unitedstatespostalservice-a77078", "operator": "United States Postal Service", "operator:short": "USPS", "operator:type": "public", "operator:wikidata": "Q668687", "ref": "9884900002"}, "type": "Feature"}
{"dataset_attributes": {"@spider": "usps_collection_boxes", "spider:collection_time": "2023-09-04T08:25:30.667448"}, "geometry": {"coordinates": [-119.505222882, 48.499388047], "type": "Point"}, "id": "GuLL_vHoja3ZvBQV9ij1Hd3uRmc=", "properties": {"@spider": "usps_collection_boxes", "addr:city": "RIVERSIDE", "addr:country": "US", "addr:full": "407 KENDALL ST", "addr:postcode": "98849", "addr:state": "WA", "amenity": "post_box", "brand": "United States Postal Service", "brand:wikidata": "Q668687", "collection_times": "Mo-Fr 16:30; Sa 10:15", "name": "USPS COLLECTION BOX - PO LOBBY", "note": "ON 12/24 AND 12/31, THIS BOX MAY BE COLLECTED AS EARLY AS 12 NOON.", "nsi_id": "unitedstatespostalservice-a77078", "operator": "United States Postal Service", "operator:short": "USPS", "operator:type": "public", "operator:wikidata": "Q668687", "ref": "9884900003"}, "type": "Feature"}
{"dataset_attributes": {"@spider": "usps_collection_boxes", "spider:collection_time": "2023-09-04T08:25:30.667448"}, "geometry": {"coordinates": [-120.142703, 47.374873], "type": "Point"}, "id": "pASJOCAq6u90WmpsyGQJqtkH65k=", "properties": {"@spider": "usps_collection_boxes", "addr:city": "ROCK ISLAND", "addr:country": "US", "addr:full": "224 ROCK ISLAND DR", "addr:postcode": "98850", "addr:state": "WA", "amenity": "post_box", "brand": "United States Postal Service", "brand:wikidata": "Q668687", "collection_times": "Mo-Fr 16:05; Sa 09:00", "name": "USPS COLLECTION BOX - BLUE BOX", "note": "ON 12/24 AND 12/31, THIS BOX MAY BE COLLECTED AS EARLY AS 12 NOON.", "nsi_id": "unitedstatespostalservice-a77078", "operator": "United States Postal Service", "operator:short": "USPS", "operator:type": "public", "operator:wikidata": "Q668687", "ref": "9885000000"}, "type": "Feature"}
{"dataset_attributes": {"@spider": "usps_collection_boxes", "spider:collection_time": "2023-09-04T08:25:30.667448"}, "geometry": {"coordinates": [-120.1428259817, 47.3746439849], "type": "Point"}, "id": "oMKEGvI9I6l6oFuNzgQMTGYX0xw=", "properties": {"@spider": "usps_collection_boxes", "addr:city": "ROCK ISLAND", "addr:country": "US", "addr:full": "224 ROCK ISLAND DR", "addr:postcode": "98850", "addr:state": "WA", "amenity": "post_box", "brand": "United States Postal Service", "brand:wikidata": "Q668687", "collection_times": "Mo-Fr 16:05; Sa 09:00", "name": "USPS COLLECTION BOX - PO LOBBY", "note": "ON 12/24 AND 12/31, THIS BOX MAY BE COLLECTED AS EARLY AS 12 NOON.", "nsi_id": "unitedstatespostalservice-a77078", "operator": "United States Postal Service", "operator:short": "USPS", "operator:type": "public", "operator:wikidata": "Q668687", "ref": "9885000002"}, "type": "Feature"}
{"dataset_attributes": {"@spider": "usps_collection_boxes", "spider:collection_time": "2023-09-04T08:25:30.667448"}, "geometry": {"coordinates": [-120.1428259817, 47.3746439849], "type": "Point"}, "id": "nX7sTiR8FAaHFMcczW4Yu5pNy9Q=", "properties": {"@spider": "usps_collection_boxes", "addr:city": "ROCK ISLAND", "addr:country": "US", "addr:full": "224 ROCK ISLAND DR", "addr:postcode": "98850", "addr:state": "WA", "amenity": "post_box", "brand": "United States Postal Service", "brand:wikidata": "Q668687", "collection_times": "Mo-Fr 16:15", "name": "USPS COLLECTION BOX - PO LOBBY", "note": "ON 12/24 AND 12/31, THIS BOX MAY BE COLLECTED AS EARLY AS 12 NOON.", "nsi_id": "unitedstatespostalservice-a77078", "operator": "United States Postal Service", "operator:short": "USPS", "operator:type": "public", "operator:wikidata": "Q668687", "ref": "9885000004"}, "type": "Feature"}
{"dataset_attributes": {"@spider": "usps_collection_boxes", "spider:collection_time": "2023-09-04T08:25:30.667448"}, "geometry": {"coordinates": [-119.490534, 47.383188], "type": "Point"}, "id": "3a3oIgVau2ABUa4M-pR8xVVz6uw=", "properties": {"@spider": "usps_collection_boxes", "addr:city": "SOAP LAKE", "addr:country": "US", "addr:full": "511 S DIVISION ST", "addr:postcode": "98851", "addr:state": "WA", "amenity": "post_box", "brand": "United States Postal Service", "brand:wikidata": "Q668687", "collection_times": "Mo-Fr 14:40; Sa 10:00", "name": "USPS COLLECTION BOX - BLUE BOX", "note": "ON 12/24 AND 12/31, THIS BOX MAY BE COLLECTED AS EARLY AS 12 NOON.", "nsi_id": "unitedstatespostalservice-a77078", "operator": "United States Postal Service", "operator:short": "USPS", "operator:type": "public", "operator:wikidata": "Q668687", "ref": "9885100000"}, "type": "Feature"}
{"dataset_attributes": {"@spider": "usps_collection_boxes", "spider:collection_time": "2023-09-04T08:25:30.667448"}, "geometry": {"coordinates": [-119.490494, 47.383191], "type": "Point"}, "id": "1AzNb_KErW9JReVG3aaqu6QG3QE=", "properties": {"@spider": "usps_collection_boxes", "addr:city": "SOAP LAKE", "addr:country": "US", "addr:full": "511 S DIVISION ST", "addr:postcode": "98851", "addr:state": "WA", "amenity": "post_box", "brand": "United States Postal Service", "brand:wikidata": "Q668687", "collection_times": "Mo-Fr 14:40; Sa 10:00", "name": "USPS COLLECTION BOX - PO LOBBY", "note": "ON 12/24 AND 12/31, THIS BOX MAY BE COLLECTED AS EARLY AS 12 NOON.", "nsi_id": "unitedstatespostalservice-a77078", "operator": "United States Postal Service", "operator:short": "USPS", "operator:type": "public", "operator:wikidata": "Q668687", "ref": "9885100001"}, "type": "Feature"}
{"dataset_attributes": {"@spider": "usps_collection_boxes", "spider:collection_time": "2023-09-04T08:25:30.667448"}, "geometry": {"coordinates": [-119.490542566, 47.38419], "type": "Point"}, "id": "A8bAb-AHHhDcVK_mpvWyn-Brm9w=", "properties": {"@spider": "usps_collection_boxes", "addr:city": "SOAP LAKE", "addr:country": "US", "addr:full": "511 S DIVISION ST", "addr:postcode": "98851", "addr:state": "WA", "amenity": "post_box", "brand": "United States Postal Service", "brand:wikidata": "Q668687", "collection_times": "Mo-Fr 16:45", "name": "USPS COLLECTION BOX - PO LOBBY", "note": "ON 12/24 AND 12/31, THIS BOX MAY BE COLLECTED AS EARLY AS 12 NOON.", "nsi_id": "unitedstatespostalservice-a77078", "operator": "United States Postal Service", "operator:short": "USPS", "operator:type": "public", "operator:wikidata": "Q668687", "ref": "9885100002"}, "type": "Feature"}
{"dataset_attributes": {"@spider": "usps_collection_boxes", "spider:collection_time": "2023-09-04T08:25:30.667448"}, "geometry": {"coordinates": [-120.7053121, 48.3405448], "type": "Point"}, "id": "sDCz8r0UhRjxDZa0OZ_HlsEl50E=", "properties": {"@spider": "usps_collection_boxes", "addr:country": "US", "addr:full": "31B DEFACTO LN", "addr:postcode": "98852", "addr:state": "WA", "amenity": "post_box", "brand": "United States Postal Service", "brand:wikidata": "Q668687", "collection_times": "Mo-Fr 12:15", "name": "USPS COLLECTION BOX - BLUE BOX", "note": "ON 12/24 AND 12/31, THIS BOX MAY BE COLLECTED AS EARLY AS 12 NOON.", "nsi_id": "unitedstatespostalservice-a77078", "operator": "United States Postal Service", "operator:short": "USPS", "operator:type": "public", "operator:wikidata": "Q668687", "ref": "9885200001"}, "type": "Feature"}
{"dataset_attributes": {"@spider": "usps_collection_boxes", "spider:collection_time": "2023-09-04T08:25:30.667448"}, "geometry": {"coordinates": [-120.7052044, 48.3402816], "type": "Point"}, "id": "uy_bF468_mCOxJPFRgdEvFkSrCY=", "properties": {"@spider": "usps_collection_boxes", "addr:city": "STEHEKIN", "addr:country": "US", "addr:full": "31 DEFACTO LN", "addr:postcode": "98852", "addr:state": "WA", "amenity": "post_box", "brand": "United States Postal Service", "brand:wikidata": "Q668687", "collection_times": "Mo-Fr 12:15", "name": "USPS COLLECTION BOX - PO LOBBY", "note": "ON 12/24 AND 12/31, THIS BOX MAY BE COLLECTED AS EARLY AS 12 NOON.", "nsi_id": "unitedstatespostalservice-a77078", "operator": "United States Postal Service", "operator:short": "USPS", "operator:type": "public", "operator:wikidata": "Q668687", "ref": "9885200002"}, "type": "Feature"}
{"dataset_attributes": {"@spider": "usps_collection_boxes", "spider:collection_time": "2023-09-04T08:25:30.667448"}, "geometry": {"coordinates": [-119.280293, 47.426137], "type": "Point"}, "id": "lUswzQ-uDeo4YPD-gIwedY5O2QI=", "properties": {"@spider": "usps_collection_boxes", "addr:city": "STRATFORD", "addr:country": "US", "addr:full": "9800 ROAD 23 NE", "addr:postcode": "98853", "addr:state": "WA", "amenity": "post_box", "brand": "United States Postal Service", "brand:wikidata": "Q668687", "collection_times": "Mo-Sa 11:00", "name": "USPS COLLECTION BOX - PO LOBBY", "nsi_id": "unitedstatespostalservice-a77078", "operator": "United States Postal Service", "operator:short": "USPS", "operator:type": "public", "operator:wikidata": "Q668687", "ref": "9885300000"}, "type": "Feature"}
{"dataset_attributes": {"@spider": "usps_collection_boxes", "spider:collection_time": "2023-09-04T08:25:30.667448"}, "geometry": {"coordinates": [-119.28033, 47.426105], "type": "Point"}, "id": "qpedzIcRUPLeAuDzMnnFzl2YrMY=", "properties": {"@spider": "usps_collection_boxes", "addr:city": "STRATFORD", "addr:country": "US", "addr:full": "9800 ROAD 23 NE", "addr:postcode": "98853", "addr:state": "WA", "amenity": "post_box", "brand": "United States Postal Service", "brand:wikidata": "Q668687", "collection_times": "Mo-Sa 11:00", "name": "USPS COLLECTION BOX - BLUE BOX", "nsi_id": "unitedstatespostalservice-a77078", "operator": "United States Postal Service", "operator:short": "USPS", "operator:type": "public", "operator:wikidata": "Q668687", "ref": "9885300001"}, "type": "Feature"}
{"dataset_attributes": {"@spider": "usps_collection_boxes", "spider:collection_time": "2023-09-04T08:25:30.667448"}, "geometry": {"coordinates": [-119.281216054, 47.426034413], "type": "Point"}, "id": "omImksFi3zw9vR3IN4lbyRPjNz8=", "properties": {"@spider": "usps_collection_boxes", "addr:city": "STRATFORD", "addr:country": "US", "addr:full": "9800 ROAD 23 NE", "addr:postcode": "98853", "addr:state": "WA", "amenity": "post_box", "brand": "United States Postal Service", "brand:wikidata": "Q668687", "collection_times": "Mo-Sa 11:30", "name": "USPS COLLECTION BOX - PO LOBBY", "nsi_id": "unitedstatespostalservice-a77078", "operator": "United States Postal Service", "operator:short": "USPS", "operator:type": "public", "operator:wikidata": "Q668687", "ref": "9885300002"}, "type": "Feature"}
{"dataset_attributes": {"@spider": "usps_collection_boxes", "spider:collection_time": "2023-09-04T08:25:30.667448"}, "geometry": {"coordinates": [-119.44088, 48.70378], "type": "Point"}, "id": "EUZgmE0PZsSKaJqA5AjFLqTVwT4=", "properties": {"@spider": "usps_collection_boxes", "addr:city": "TONASKET", "addr:country": "US", "addr:full": "15 W 5TH ST", "addr:postcode": "98855", "addr:state": "WA", "amenity": "post_box", "brand": "United States Postal Service", "brand:wikidata": "Q668687", "collection_times": "Mo-Fr 14:00; Sa 11:00", "name": "USPS COLLECTION BOX - BLUE BOX", "note": "ON 12/24 AND 12/31, THIS BOX MAY BE COLLECTED AS EARLY AS 12 NOON.", "nsi_id": "unitedstatespostalservice-a77078", "operator": "United States Postal Service", "operator:short": "USPS", "operator:type": "public", "operator:wikidata": "Q668687", "ref": "9885500001"}, "type": "Feature"}
{"dataset_attributes": {"@spider": "usps_collection_boxes", "spider:collection_time": "2023-09-04T08:25:30.667448"}, "geometry": {"coordinates": [-119.44088, 48.70378], "type": "Point"}, "id": "KSfwGebH5oUaW4UK5ke_vj5gY3s=", "properties": {"@spider": "usps_collection_boxes", "addr:city": "TONASKET", "addr:country": "US", "addr:full": "15 W 5TH ST", "addr:postcode": "98855", "addr:state": "WA", "amenity": "post_box", "brand": "United States Postal Service", "brand:wikidata": "Q668687", "collection_times": "Mo-Fr 14:00; Sa 11:00", "name": "USPS COLLECTION BOX - PO LOBBY", "note": "ON 12/24 AND 12/31, THIS BOX MAY BE COLLECTED AS EARLY AS 12 NOON.", "nsi_id": "unitedstatespostalservice-a77078", "operator": "United States Postal Service", "operator:short": "USPS", "operator:type": "public", "operator:wikidata": "Q668687", "ref": "9885500002"}, "type": "Feature"}
{"dataset_attributes": {"@spider": "usps_collection_boxes", "spider:collection_time": "2023-09-04T08:25:30.667448"}, "geometry": {"coordinates": [-119.440862867, 48.703720495], "type": "Point"}, "id": "gWZFApHLyDTGQ95OFsSj8xSORHk=", "properties": {"@spider": "usps_collection_boxes", "addr:city": "TONASKET", "addr:country": "US", "addr:full": "15 W 5TH ST", "addr:postcode": "98855", "addr:state": "WA", "amenity": "post_box", "brand": "United States Postal Service", "brand:wikidata": "Q668687", "collection_times": "Mo-Fr 16:00", "name": "USPS COLLECTION BOX - PO LOBBY", "note": "ON 12/24 AND 12/31, THIS BOX MAY BE COLLECTED AS EARLY AS 12 NOON.", "nsi_id": "unitedstatespostalservice-a77078", "operator": "United States Postal Service", "operator:short": "USPS", "operator:type": "public", "operator:wikidata": "Q668687", "ref": "9885500003"}, "type": "Feature"}
{"dataset_attributes": {"@spider": "usps_collection_boxes", "spider:collection_time": "2023-09-04T08:25:30.667448"}, "geometry": {"coordinates": [-120.121349, 48.364248], "type": "Point"}, "id": "_8d_XtNddQThyuhpJFyiN81gYOE=", "properties": {"@spider": "usps_collection_boxes", "addr:city": "TWISP", "addr:country": "US", "addr:full": "205 GLOVER ST", "addr:postcode": "98856", "addr:state": "WA", "amenity": "post_box", "brand": "United States Postal Service", "brand:wikidata": "Q668687", "collection_times": "Mo-Fr 12:40; Sa 11:00", "name": "USPS COLLECTION BOX - BLUE BOX", "note": "ON 12/24 AND 12/31, THIS BOX MAY BE COLLECTED AS EARLY AS 12 NOON.", "nsi_id": "unitedstatespostalservice-a77078", "operator": "United States Postal Service", "operator:short": "USPS", "operator:type": "public", "operator:wikidata": "Q668687", "ref": "9885600000"}, "type": "Feature"}
{"dataset_attributes": {"@spider": "usps_collection_boxes", "spider:collection_time": "2023-09-04T08:25:30.667448"}, "geometry": {"coordinates": [-120.121309, 48.364331], "type": "Point"}, "id": "L8sm5nJ9Es9bDFu28d6UWxlacFI=", "properties": {"@spider": "usps_collection_boxes", "addr:city": "TWISP", "addr:country": "US", "addr:full": "205 GLOVER ST", "addr:postcode": "98856", "addr:state": "WA", "amenity": "post_box", "brand": "United States Postal Service", "brand:wikidata": "Q668687", "collection_times": "Mo-Fr 12:40; Sa 11:00", "name": "USPS COLLECTION BOX - PO LOBBY", "note": "ON 12/24 AND 12/31, THIS BOX MAY BE COLLECTED AS EARLY AS 12 NOON.", "nsi_id": "unitedstatespostalservice-a77078", "operator": "United States Postal Service", "operator:short": "USPS", "operator:type": "public", "operator:wikidata": "Q668687", "ref": "9885600002"}, "type": "Feature"}
{"dataset_attributes": {"@spider": "usps_collection_boxes", "spider:collection_time": "2023-09-04T08:25:30.667448"}, "geometry": {"coordinates": [-120.121309, 48.364331], "type": "Point"}, "id": "h2kvnwd5ir6qAljGOf-EEuwBr10=", "properties": {"@spider": "usps_collection_boxes", "addr:city": "TWISP", "addr:country": "US", "addr:full": "205 GLOVER ST", "addr:postcode": "98856", "addr:state": "WA", "amenity": "post_box", "brand": "United States Postal Service", "brand:wikidata": "Q668687", "collection_times": "Mo-Fr 12:40; Sa 11:00", "name": "USPS COLLECTION BOX - PO LOBBY", "note": "ON 12/24 AND 12/31, THIS BOX MAY BE COLLECTED AS EARLY AS 12 NOON.", "nsi_id": "unitedstatespostalservice-a77078", "operator": "United States Postal Service", "operator:short": "USPS", "operator:type": "public", "operator:wikidata": "Q668687", "ref": "9885600003"}, "type": "Feature"}
{"dataset_attributes": {"@spider": "usps_collection_boxes", "spider:collection_time": "2023-09-04T08:25:30.667448"}, "geometry": {"coordinates": [-120.121354319, 48.363984], "type": "Point"}, "id": "w8IvvZjqjhQRptLynPTdvFtNsmE=", "properties": {"@spider": "usps_collection_boxes", "addr:city": "TWISP", "addr:country": "US", "addr:full": "205 GLOVER ST", "addr:postcode": "98856", "addr:state": "WA", "amenity": "post_box", "brand": "United States Postal Service", "brand:wikidata": "Q668687", "collection_times": "Mo-Fr 16:15", "name": "USPS COLLECTION BOX - PO LOBBY", "note": "ON 12/24 AND 12/31, THIS BOX MAY BE COLLECTED AS EARLY AS 12 NOON.", "nsi_id": "unitedstatespostalservice-a77078", "operator": "United States Postal Service", "operator:short": "USPS", "operator:type": "public", "operator:wikidata": "Q668687", "ref": "9885600004"}, "type": "Feature"}
{"dataset_attributes": {"@spider": "usps_collection_boxes", "spider:collection_time": "2023-09-04T08:25:30.667448"}, "geometry": {"coordinates": [-119.039047, 46.969676], "type": "Point"}, "id": "znIbOdS8xtdGcKCp4CHXTcA37LQ=", "properties": {"@spider": "usps_collection_boxes", "addr:city": "WARDEN", "addr:country": "US", "addr:full": "201 E 1ST ST", "addr:postcode": "98857", "addr:state": "WA", "amenity": "post_box", "brand": "United States Postal Service", "brand:wikidata": "Q668687", "collection_times": "Mo-Fr 12:00; Sa 10:00", "name": "USPS COLLECTION BOX - BLUE BOX", "nsi_id": "unitedstatespostalservice-a77078", "operator": "United States Postal Service", "operator:short": "USPS", "operator:type": "public", "operator:wikidata": "Q668687", "ref": "9885700000"}, "type": "Feature"}
{"dataset_attributes": {"@spider": "usps_collection_boxes", "spider:collection_time": "2023-09-04T08:25:30.667448"}, "geometry": {"coordinates": [-119.039047, 46.969676], "type": "Point"}, "id": "ScB0r_0bBLCxpPcWc4wAJfQ5Now=", "properties": {"@spider": "usps_collection_boxes", "addr:city": "WARDEN", "addr:country": "US", "addr:full": "201 E 1ST ST", "addr:postcode": "98857", "addr:state": "WA", "amenity": "post_box", "brand": "United States Postal Service", "brand:wikidata": "Q668687", "collection_times": "Mo-Fr 12:00; Sa 10:00", "name": "USPS COLLECTION BOX - PO LOBBY", "nsi_id": "unitedstatespostalservice-a77078", "operator": "United States Postal Service", "operator:short": "USPS", "operator:type": "public", "operator:wikidata": "Q668687", "ref": "9885700002"}, "type": "Feature"}
{"dataset_attributes": {"@spider": "usps_collection_boxes", "spider:collection_time": "2023-09-04T08:25:30.667448"}, "geometry": {"coordinates": [-119.038760193, 46.96964754], "type": "Point"}, "id": "4yt4mZsKpRykX4YJmRPxohXp588=", "properties": {"@spider": "usps_collection_boxes", "addr:city": "WARDEN", "addr:country": "US", "addr:full": "201 E 1ST ST", "addr:postcode": "98857", "addr:state": "WA", "amenity": "post_box", "brand": "United States Postal Service", "brand:wikidata": "Q668687", "collection_times": "Mo-Fr 17:00", "name": "USPS COLLECTION BOX - PO LOBBY", "note": "ON 12/24 AND 12/31, THIS BOX MAY BE COLLECTED AS EARLY AS 12 NOON.", "nsi_id": "unitedstatespostalservice-a77078", "operator": "United States Postal Service", "operator:short": "USPS", "operator:type": "public", "operator:wikidata": "Q668687", "ref": "9885700003"}, "type": "Feature"}
{"dataset_attributes": {"@spider": "usps_collection_boxes", "spider:collection_time": "2023-09-04T08:25:30.667448"}, "geometry": {"coordinates": [-120.0703759957, 47.6475730015], "type": "Point"}, "id": "H3voYk_56Eywbba4mCyZXq6ZEUM=", "properties": {"@spider": "usps_collection_boxes", "addr:city": "WATERVILLE", "addr:country": "US", "addr:full": "113 E LOCUST ST", "addr:postcode": "98858", "addr:state": "WA", "amenity": "post_box", "brand": "United States Postal Service", "brand:wikidata": "Q668687", "collection_times": "Mo-Fr 14:10; Sa 09:00", "name": "USPS COLLECTION BOX - BLUE BOX", "note": "ON 12/24 AND 12/31, THIS BOX MAY BE COLLECTED AS EARLY AS 12 NOON.", "nsi_id": "unitedstatespostalservice-a77078", "operator": "United States Postal Service", "operator:short": "USPS", "operator:type": "public", "operator:wikidata": "Q668687", "ref": "9885800000"}, "type": "Feature"}
{"dataset_attributes": {"@spider": "usps_collection_boxes", "spider:collection_time": "2023-09-04T08:25:30.667448"}, "geometry": {"coordinates": [-120.071267, 47.647347], "type": "Point"}, "id": "c0xys3csqbpxCqYL1AeXNaOC9Bk=", "properties": {"@spider": "usps_collection_boxes", "addr:city": "WATERVILLE", "addr:country": "US", "addr:full": "113 E LOCUST ST", "addr:postcode": "98858", "addr:state": "WA", "amenity": "post_box", "brand": "United States Postal Service", "brand:wikidata": "Q668687", "collection_times": "Mo-Fr 16:00; Sa 09:00", "name": "USPS COLLECTION BOX - PO LOBBY", "note": "ON 12/24 AND 12/31, THIS BOX MAY BE COLLECTED AS EARLY AS 12 NOON.", "nsi_id": "unitedstatespostalservice-a77078", "operator": "United States Postal Service", "operator:short": "USPS", "operator:type": "public", "operator:wikidata": "Q668687", "ref": "9885800001"}, "type": "Feature"}
{"dataset_attributes": {"@spider": "usps_collection_boxes", "spider:collection_time": "2023-09-04T08:25:30.667448"}, "geometry": {"coordinates": [-120.071267, 47.647347], "type": "Point"}, "id": "fXDbxyF0Y5pll8l34drG8mANIeY=", "properties": {"@spider": "usps_collection_boxes", "addr:city": "WATERVILLE", "addr:country": "US", "addr:full": "113 E LOCUST ST", "addr:postcode": "98858", "addr:state": "WA", "amenity": "post_box", "brand": "United States Postal Service", "brand:wikidata": "Q668687", "collection_times": "Mo-Fr 16:00; Sa 09:00", "name": "USPS COLLECTION BOX - PO LOBBY", "note": "ON 12/24 AND 12/31, THIS BOX MAY BE COLLECTED AS EARLY AS 12 NOON.", "nsi_id": "unitedstatespostalservice-a77078", "operator": "United States Postal Service", "operator:short": "USPS", "operator:type": "public", "operator:wikidata": "Q668687", "ref": "9885800002"}, "type": "Feature"}
{"dataset_attributes": {"@spider": "usps_collection_boxes", "spider:collection_time": "2023-09-04T08:25:30.667448"}, "geometry": {"coordinates": [-120.070349832, 47.647362519], "type": "Point"}, "id": "YtPz4Bl1a-gTq6NYRRRopEO_mbU=", "properties": {"@spider": "usps_collection_boxes", "addr:city": "WATERVILLE", "addr:country": "US", "addr:full": "113 E LOCUST ST", "addr:postcode": "98858", "addr:state": "WA", "amenity": "post_box", "brand": "United States Postal Service", "brand:wikidata": "Q668687", "collection_times": "Mo-Fr 14:00", "name": "USPS COLLECTION BOX - PO LOBBY", "note": "ON 12/24 AND 12/31, THIS BOX MAY BE COLLECTED AS EARLY AS 12 NOON.", "nsi_id": "unitedstatespostalservice-a77078", "operator": "United States Postal Service", "operator:short": "USPS", "operator:type": "public", "operator:wikidata": "Q668687", "ref": "9885800003"}, "type": "Feature"}
{"dataset_attributes": {"@spider": "usps_collection_boxes", "spider:collection_time": "2023-09-04T08:25:30.667448"}, "geometry": {"coordinates": [-119.0086657374, 48.7314048847], "type": "Point"}, "id": "fCG8PWBT_F71kEY-jfda-GXkoI8=", "properties": {"@spider": "usps_collection_boxes", "addr:city": "WAUCONDA", "addr:country": "US", "addr:full": "40 TORODA CREEK RD", "addr:postcode": "98859", "addr:state": "WA", "amenity": "post_box", "brand": "United States Postal Service", "brand:wikidata": "Q668687", "collection_times": "Mo-Fr 13:00; Sa 12:30", "name": "USPS COLLECTION BOX - BLUE BOX", "note": "ON 12/24 AND 12/31, THIS BOX MAY BE COLLECTED AS EARLY AS 12 NOON.", "nsi_id": "unitedstatespostalservice-a77078", "operator": "United States Postal Service", "operator:short": "USPS", "operator:type": "public", "operator:wikidata": "Q668687", "ref": "9885900000"}, "type": "Feature"}
{"dataset_attributes": {"@spider": "usps_collection_boxes", "spider:collection_time": "2023-09-04T08:25:30.667448"}, "geometry": {"coordinates": [-119.0086657374, 48.7314048847], "type": "Point"}, "id": "5KL06Nl9FlbUclr1o9uws1FTbf0=", "properties": {"@spider": "usps_collection_boxes", "addr:city": "WAUCONDA", "addr:country": "US", "addr:full": "40 TORODA CREEK RD", "addr:postcode": "98859", "addr:state": "WA", "amenity": "post_box", "brand": "United States Postal Service", "brand:wikidata": "Q668687", "collection_times": "Mo-Fr 13:00; Sa 12:30", "name": "USPS COLLECTION BOX - PO LOBBY", "note": "ON 12/24 AND 12/31, THIS BOX MAY BE COLLECTED AS EARLY AS 12 NOON.", "nsi_id": "unitedstatespostalservice-a77078", "operator": "United States Postal Service", "operator:short": "USPS", "operator:type": "public", "operator:wikidata": "Q668687", "ref": "9885900001"}, "type": "Feature"}
{"dataset_attributes": {"@spider": "usps_collection_boxes", "spider:collection_time": "2023-09-04T08:25:30.667448"}, "geometry": {"coordinates": [-119.0086657374, 48.7314048847], "type": "Point"}, "id": "6vM7cPZl_K7HqSWcNeTTbcYMpd4=", "properties": {"@spider": "usps_collection_boxes", "addr:city": "WAUCONDA", "addr:country": "US", "addr:full": "40 TORODA CREEK RD", "addr:postcode": "98859", "addr:state": "WA", "amenity": "post_box", "brand": "United States Postal Service", "brand:wikidata": "Q668687", "collection_times": "Mo-Fr 15:00; Sa 12:15", "name": "USPS COLLECTION BOX - PO LOBBY", "note": "ON 12/24 AND 12/31, THIS BOX MAY BE COLLECTED AS EARLY AS 12 NOON.", "nsi_id": "unitedstatespostalservice-a77078", "operator": "United States Postal Service", "operator:short": "USPS", "operator:type": "public", "operator:wikidata": "Q668687", "ref": "9885900002"}, "type": "Feature"}
{"dataset_attributes": {"@spider": "usps_collection_boxes", "spider:collection_time": "2023-09-04T08:25:30.667448"}, "geometry": {"coordinates": [-119.121304, 47.422153], "type": "Point"}, "id": "BcXxKKiOg92GvSpUNCWGjHEpgMs=", "properties": {"@spider": "usps_collection_boxes", "addr:city": "WILSON CREEK", "addr:country": "US", "addr:full": "223 RAILROAD ST", "addr:postcode": "98860", "addr:state": "WA", "amenity": "post_box", "brand": "United States Postal Service", "brand:wikidata": "Q668687", "collection_times": "Mo-Fr 14:05; Sa 08:30", "name": "USPS COLLECTION BOX - BLUE BOX", "note": "ON 12/24 AND 12/31, THIS BOX MAY BE COLLECTED AS EARLY AS 12 NOON.", "nsi_id": "unitedstatespostalservice-a77078", "operator": "United States Postal Service", "operator:short": "USPS", "operator:type": "public", "operator:wikidata": "Q668687", "ref": "9886000000"}, "type": "Feature"}
{"dataset_attributes": {"@spider": "usps_collection_boxes", "spider:collection_time": "2023-09-04T08:25:30.667448"}, "geometry": {"coordinates": [-119.121389, 47.422125], "type": "Point"}, "id": "1nmyp3UKfdjB3_ylePAqADbwBGI=", "properties": {"@spider": "usps_collection_boxes", "addr:city": "WILSON CREEK", "addr:country": "US", "addr:full": "223 RAILROAD ST", "addr:postcode": "98860", "addr:state": "WA", "amenity": "post_box", "brand": "United States Postal Service", "brand:wikidata": "Q668687", "collection_times": "Mo-Fr 14:05; Sa 08:30", "name": "USPS COLLECTION BOX - PO LOBBY", "note": "ON 12/24 AND 12/31, THIS BOX MAY BE COLLECTED AS EARLY AS 12 NOON.", "nsi_id": "unitedstatespostalservice-a77078", "operator": "United States Postal Service", "operator:short": "USPS", "operator:type": "public", "operator:wikidata": "Q668687", "ref": "9886000001"}, "type": "Feature"}
{"dataset_attributes": {"@spider": "usps_collection_boxes", "spider:collection_time": "2023-09-04T08:25:30.667448"}, "geometry": {"coordinates": [-119.121389, 47.422125], "type": "Point"}, "id": "4c-4_C5ArQBH2Ql-oWi9E8sfpM4=", "properties": {"@spider": "usps_collection_boxes", "addr:city": "WILSON CREEK", "addr:country": "US", "addr:full": "223 RAILROAD ST", "addr:postcode": "98860", "addr:state": "WA", "amenity": "post_box", "brand": "United States Postal Service", "brand:wikidata": "Q668687", "collection_times": "Mo-Fr 14:05; Sa 08:30", "name": "USPS COLLECTION BOX - PO LOBBY", "note": "ON 12/24 AND 12/31, THIS BOX MAY BE COLLECTED AS EARLY AS 12 NOON.", "nsi_id": "unitedstatespostalservice-a77078", "operator": "United States Postal Service", "operator:short": "USPS", "operator:type": "public", "operator:wikidata": "Q668687", "ref": "9886000002"}, "type": "Feature"}
{"dataset_attributes": {"@spider": "usps_collection_boxes", "spider:collection_time": "2023-09-04T08:25:30.667448"}, "geometry": {"coordinates": [-119.121334871, 47.422198522], "type": "Point"}, "id": "93q1yIysdNPKia00gpmFfLos5MI=", "properties": {"@spider": "usps_collection_boxes", "addr:city": "WILSON CREEK", "addr:country": "US", "addr:full": "223 RAILROAD ST", "addr:postcode": "98860", "addr:state": "WA", "amenity": "post_box", "brand": "United States Postal Service", "brand:wikidata": "Q668687", "collection_times": "Mo-Fr 12:30; Sa 08:30", "name": "USPS COLLECTION BOX - PO LOBBY", "note": "ON 12/24 AND 12/31, THIS BOX MAY BE COLLECTED AS EARLY AS 12 NOON.", "nsi_id": "unitedstatespostalservice-a77078", "operator": "United States Postal Service", "operator:short": "USPS", "operator:type": "public", "operator:wikidata": "Q668687", "ref": "9886000003"}, "type": "Feature"}
{"dataset_attributes": {"@spider": "usps_collection_boxes", "spider:collection_time": "2023-09-04T08:25:30.667448"}, "geometry": {"coordinates": [-120.173299, 48.463327], "type": "Point"}, "id": "IU9tjHhxYUm-phCTBBZqjtBO0NM=", "properties": {"@spider": "usps_collection_boxes", "addr:city": "WINTHROP", "addr:country": "US", "addr:full": "1110 STATE ROUTE 20", "addr:postcode": "98862", "addr:state": "WA", "amenity": "post_box", "brand": "United States Postal Service", "brand:wikidata": "Q668687", "collection_times": "Mo-Fr 12:30; Sa 11:00", "name": "USPS COLLECTION BOX - BLUE BOX", "note": "ON 12/24 AND 12/31, THIS BOX MAY BE COLLECTED AS EARLY AS 12 NOON.", "nsi_id": "unitedstatespostalservice-a77078", "operator": "United States Postal Service", "operator:short": "USPS", "operator:type": "public", "operator:wikidata": "Q668687", "ref": "9886200000"}, "type": "Feature"}
{"dataset_attributes": {"@spider": "usps_collection_boxes", "spider:collection_time": "2023-09-04T08:25:30.667448"}, "geometry": {"coordinates": [-120.173299, 48.463327], "type": "Point"}, "id": "J_Y6ak6Z6XGi1ojZzmxc04EcrzI=", "properties": {"@spider": "usps_collection_boxes", "addr:city": "WINTHROP", "addr:country": "US", "addr:full": "1110 STATE ROUTE 20", "addr:postcode": "98862", "addr:state": "WA", "amenity": "post_box", "brand": "United States Postal Service", "brand:wikidata": "Q668687", "collection_times": "Mo-Fr 12:30; Sa 11:00", "name": "USPS COLLECTION BOX - PO LOBBY", "note": "ON 12/24 AND 12/31, THIS BOX MAY BE COLLECTED AS EARLY AS 12 NOON.", "nsi_id": "unitedstatespostalservice-a77078", "operator": "United States Postal Service", "operator:short": "USPS", "operator:type": "public", "operator:wikidata": "Q668687", "ref": "9886200001"}, "type": "Feature"}
{"dataset_attributes": {"@spider": "usps_collection_boxes", "spider:collection_time": "2023-09-04T08:25:30.667448"}, "geometry": {"coordinates": [-120.185206, 48.477841], "type": "Point"}, "id": "S480NXJVjVlenh68eBEg4WtIIKQ=", "properties": {"@spider": "usps_collection_boxes", "addr:city": "WINTHROP", "addr:country": "US", "addr:full": "206 RIVERSIDE AVE", "addr:postcode": "98862", "addr:state": "WA", "amenity": "post_box", "brand": "United States Postal Service", "brand:wikidata": "Q668687", "collection_times": "Mo-Fr 12:30", "name": "USPS COLLECTION BOX - BLUE BOX", "note": "ON 12/24 AND 12/31, THIS BOX MAY BE COLLECTED AS EARLY AS 12 NOON.", "nsi_id": "unitedstatespostalservice-a77078", "operator": "United States Postal Service", "operator:short": "USPS", "operator:type": "public", "operator:wikidata": "Q668687", "ref": "9886200003"}, "type": "Feature"}
{"dataset_attributes": {"@spider": "usps_collection_boxes", "spider:collection_time": "2023-09-04T08:25:30.667448"}, "geometry": {"coordinates": [-120.173299, 48.463327], "type": "Point"}, "id": "jDV1GSqB5l-_uCnYC-efVDCzm5Y=", "properties": {"@spider": "usps_collection_boxes", "addr:city": "WINTHROP", "addr:country": "US", "addr:full": "1110 STATE ROUTE 20", "addr:postcode": "98862", "addr:state": "WA", "amenity": "post_box", "brand": "United States Postal Service", "brand:wikidata": "Q668687", "collection_times": "Mo-Fr 12:30; Sa 11:00", "name": "USPS COLLECTION BOX - PO LOBBY", "note": "ON 12/24 AND 12/31, THIS BOX MAY BE COLLECTED AS EARLY AS 12 NOON.", "nsi_id": "unitedstatespostalservice-a77078", "operator": "United States Postal Service", "operator:short": "USPS", "operator:type": "public", "operator:wikidata": "Q668687", "ref": "9886200005"}, "type": "Feature"}
{"dataset_attributes": {"@spider": "usps_collection_boxes", "spider:collection_time": "2023-09-04T08:25:30.667448"}, "geometry": {"coordinates": [-120.173301548, 48.463322908], "type": "Point"}, "id": "xWYhjB1t7_0mdU6HHUA5ZHTPoSQ=", "properties": {"@spider": "usps_collection_boxes", "addr:city": "WINTHROP", "addr:country": "US", "addr:full": "1110 STATE ROUTE 20", "addr:postcode": "98862", "addr:state": "WA", "amenity": "post_box", "brand": "United States Postal Service", "brand:wikidata": "Q668687", "collection_times": "Mo-Fr 16:00", "name": "USPS COLLECTION BOX - PO LOBBY", "note": "ON 12/24 AND 12/31, THIS BOX MAY BE COLLECTED AS EARLY AS 12 NOON.", "nsi_id": "unitedstatespostalservice-a77078", "operator": "United States Postal Service", "operator:short": "USPS", "operator:type": "public", "operator:wikidata": "Q668687", "ref": "9886200006"}, "type": "Feature"}
