{"geometry": {"coordinates": [-120.6063045, 46.59417], "type": "Point"}, "id": "H6kn5MbMpf-YWRyYnqXU4VrTW8U=", "properties": {"@spider": "usps_collection_boxes", "addr:city": "YAKIMA", "addr:country": "US", "addr:full": "410 S 72ND AVE", "addr:postcode": "98908", "addr:state": "WA", "brand": "USPS", "collection_times": "Mo-Fr 16:15; Sa 16:30", "name": "USPS COLLECTION BOX - BLUE BOX", "note": "ON 12/24 AND 12/31, THIS BOX MAY BE COLLECTED AS EARLY AS 12 NOON.", "ref": "9890800009"}, "type": "Feature"}
{"geometry": {"coordinates": [-120.6071740051, 46.4043707828], "type": "Point"}, "id": "jS5VYwDoDspO8Z78tujH-KoVVqE=", "properties": {"@spider": "usps_collection_boxes", "addr:city": "BROWNSTOWN", "addr:country": "US", "addr:full": "10981 BRANCH RD", "addr:postcode": "98920", "addr:state": "WA", "brand": "USPS", "collection_times": "Mo-Fr 15:30; Sa 10:30", "name": "USPS COLLECTION BOX - BLUE BOX", "note": "ON 12/24 AND 12/31, THIS BOX MAY BE COLLECTED AS EARLY AS 12 NOON.", "ref": "9892000000"}, "type": "Feature"}
{"geometry": {"coordinates": [-120.6067260038, 46.4045190331], "type": "Point"}, "id": "Zx2S5AMfvH9jBc6twfxRVbgFEBM=", "properties": {"@spider": "usps_collection_boxes", "addr:city": "BROWNSTOWN", "addr:country": "US", "addr:full": "10981 BRANCH RD", "addr:postcode": "98920", "addr:state": "WA", "brand": "USPS", "collection_times": "Mo-Fr 15:30; Sa 10:30", "name": "USPS COLLECTION BOX - PO LOBBY", "note": "ON 12/24 AND 12/31, THIS BOX MAY BE COLLECTED AS EARLY AS 12 NOON.", "ref": "9892000001"}, "type": "Feature"}
{"geometry": {"coordinates": [-120.606753076, 46.404550851], "type": "Point"}, "id": "hIXD63q6NKUsmNzhvqGXz6ohbZk=", "properties": {"@spider": "usps_collection_boxes", "addr:city": "BROWNSTOWN", "addr:country": "US", "addr:full": "10981 BRANCH RD", "addr:postcode": "98920", "addr:state": "WA", "brand": "USPS", "collection_times": "Mo-Fr 15:30; Sa 10:45", "name": "USPS COLLECTION BOX - PO LOBBY", "note": "ON 12/24 AND 12/31, THIS BOX MAY BE COLLECTED AS EARLY AS 12 NOON.", "ref": "9892000002"}, "type": "Feature"}
{"geometry": {"coordinates": [-119.904919, 46.255539], "type": "Point"}, "id": "O9OIxU5pLqaR6bIdb27vw9wNN_I=", "properties": {"@spider": "usps_collection_boxes", "addr:city": "GRANDVIEW", "addr:country": "US", "addr:full": "116 GRANDRIDGE RD", "addr:postcode": "98930", "addr:state": "WA", "brand": "USPS", "collection_times": "Mo-Fr 17:00; Sa 14:00", "name": "USPS COLLECTION BOX - BLUE BOX", "note": "ON 12/24 AND 12/31, THIS BOX MAY BE COLLECTED AS EARLY AS 12 NOON.", "ref": "9893000005"}, "type": "Feature"}
{"geometry": {"coordinates": [-119.90488, 46.255599], "type": "Point"}, "id": "gmfdGC20uhhoUD18KmiNvwbwyBQ=", "properties": {"@spider": "usps_collection_boxes", "addr:city": "GRANDVIEW", "addr:country": "US", "addr:full": "116 GRANDRIDGE RD", "addr:postcode": "98930", "addr:state": "WA", "brand": "USPS", "collection_times": "Mo-Fr 17:00; Sa 14:00", "name": "USPS COLLECTION BOX - PO LOBBY", "note": "ON 12/24 AND 12/31, THIS BOX MAY BE COLLECTED AS EARLY AS 12 NOON.", "ref": "9893000007"}, "type": "Feature"}
{"geometry": {"coordinates": [-119.9049441446, 46.2555567116], "type": "Point"}, "id": "GPZlCWC4bs8qPLuRhY6C-vINgaQ=", "properties": {"@spider": "usps_collection_boxes", "addr:city": "GRANDVIEW", "addr:country": "US", "addr:full": "116 GRANDRIDGE RD", "addr:postcode": "98930", "addr:state": "WA", "brand": "USPS", "collection_times": "Mo-Fr 17:00", "name": "USPS COLLECTION BOX - PO LOBBY", "note": "ON 12/24 AND 12/31, THIS BOX MAY BE COLLECTED AS EARLY AS 12 NOON.", "ref": "9893000008"}, "type": "Feature"}
{"geometry": {"coordinates": [-120.19521, 46.34174], "type": "Point"}, "id": "mQfHHfXSpWaRq--WhObGtV0vRCg=", "properties": {"@spider": "usps_collection_boxes", "addr:city": "GRANGER", "addr:country": "US", "addr:full": "104 MAIN ST", "addr:postcode": "98932", "addr:state": "WA", "brand": "USPS", "collection_times": "Mo-Fr 16:00; Sa 08:00", "name": "USPS COLLECTION BOX - BLUE BOX", "note": "ON 12/24 AND 12/31, THIS BOX MAY BE COLLECTED AS EARLY AS 12 NOON.", "ref": "9893200000"}, "type": "Feature"}
{"geometry": {"coordinates": [-120.19521, 46.34174], "type": "Point"}, "id": "YSG1G4dBskbMCoM-iqgsu6Nclq0=", "properties": {"@spider": "usps_collection_boxes", "addr:city": "GRANGER", "addr:country": "US", "addr:full": "104 MAIN ST", "addr:postcode": "98932", "addr:state": "WA", "brand": "USPS", "collection_times": "Mo-Fr 16:00; Sa 08:00", "name": "USPS COLLECTION BOX - PO LOBBY", "note": "ON 12/24 AND 12/31, THIS BOX MAY BE COLLECTED AS EARLY AS 12 NOON.", "ref": "9893200001"}, "type": "Feature"}
{"geometry": {"coordinates": [-120.195160761, 46.341550037], "type": "Point"}, "id": "tADFGKovwDCxcxOqQDCZfJiClmU=", "properties": {"@spider": "usps_collection_boxes", "addr:city": "GRANGER", "addr:country": "US", "addr:full": "104 MAIN ST", "addr:postcode": "98932", "addr:state": "WA", "brand": "USPS", "collection_times": "Mo-Fr 17:00", "name": "USPS COLLECTION BOX - PO LOBBY", "note": "ON 12/24 AND 12/31, THIS BOX MAY BE COLLECTED AS EARLY AS 12 NOON.", "ref": "9893200002"}, "type": "Feature"}
{"geometry": {"coordinates": [-120.5442, 46.406278], "type": "Point"}, "id": "J81NDeVboyiH73-IaK2e4uX2Xic=", "properties": {"@spider": "usps_collection_boxes", "addr:city": "HARRAH", "addr:country": "US", "addr:full": "3910 HARRAH RD", "addr:postcode": "98933", "addr:state": "WA", "brand": "USPS", "collection_times": "Mo-Fr 16:15; Sa 09:45", "name": "USPS COLLECTION BOX - BLUE BOX", "note": "ON 12/24 AND 12/31, THIS BOX MAY BE COLLECTED AS EARLY AS 12 NOON.", "ref": "9893300000"}, "type": "Feature"}
{"geometry": {"coordinates": [-120.5442, 46.406116], "type": "Point"}, "id": "aK16RLBzx3L_Tna858VVG_ADOWM=", "properties": {"@spider": "usps_collection_boxes", "addr:city": "HARRAH", "addr:country": "US", "addr:full": "3910 HARRAH RD", "addr:postcode": "98933", "addr:state": "WA", "brand": "USPS", "collection_times": "Mo-Fr 16:15; Sa 09:45", "name": "USPS COLLECTION BOX - PO LOBBY", "note": "ON 12/24 AND 12/31, THIS BOX MAY BE COLLECTED AS EARLY AS 12 NOON.", "ref": "9893300001"}, "type": "Feature"}
{"geometry": {"coordinates": [-120.544201841, 46.406277], "type": "Point"}, "id": "Ft8GF4ovGoBfSaI5Bf3-xtUdV40=", "properties": {"@spider": "usps_collection_boxes", "addr:city": "HARRAH", "addr:country": "US", "addr:full": "3910 HARRAH RD", "addr:postcode": "98933", "addr:state": "WA", "brand": "USPS", "collection_times": "Mo-Fr 16:15; Sa 09:45", "name": "USPS COLLECTION BOX - PO LOBBY", "note": "ON 12/24 AND 12/31, THIS BOX MAY BE COLLECTED AS EARLY AS 12 NOON.", "ref": "9893300003"}, "type": "Feature"}
{"geometry": {"coordinates": [-119.996852, 46.213595], "type": "Point"}, "id": "hUpQpHNrBCGIbDC5rH85sL-HPcc=", "properties": {"@spider": "usps_collection_boxes", "addr:city": "MABTON", "addr:country": "US", "addr:full": "410 B ST", "addr:postcode": "98935", "addr:state": "WA", "brand": "USPS", "collection_times": "Mo-Fr 16:00; Sa 10:00", "name": "USPS COLLECTION BOX - BLUE BOX", "note": "ON 12/24 AND 12/31, THIS BOX MAY BE COLLECTED AS EARLY AS 12 NOON.", "ref": "9893500000"}, "type": "Feature"}
{"geometry": {"coordinates": [-119.996936, 46.213644], "type": "Point"}, "id": "vsp2Pu2q9gn49vMh00Woq4uXzH8=", "properties": {"@spider": "usps_collection_boxes", "addr:city": "MABTON", "addr:country": "US", "addr:full": "410 B ST", "addr:postcode": "98935", "addr:state": "WA", "brand": "USPS", "collection_times": "Mo-Fr 16:00; Sa 10:00", "name": "USPS COLLECTION BOX - PO LOBBY", "note": "ON 12/24 AND 12/31, THIS BOX MAY BE COLLECTED AS EARLY AS 12 NOON.", "ref": "9893500001"}, "type": "Feature"}
{"geometry": {"coordinates": [-119.996896546, 46.2135409416], "type": "Point"}, "id": "WHSqrGuvTAyQbpkdy9hAVdABqzc=", "properties": {"@spider": "usps_collection_boxes", "addr:city": "MABTON", "addr:country": "US", "addr:full": "410 B ST", "addr:postcode": "98935", "addr:state": "WA", "brand": "USPS", "collection_times": "Mo-Fr 16:00", "name": "USPS COLLECTION BOX - PO LOBBY", "note": "ON 12/24 AND 12/31, THIS BOX MAY BE COLLECTED AS EARLY AS 12 NOON.", "ref": "9893500002"}, "type": "Feature"}
{"geometry": {"coordinates": [-120.092841, 46.331386], "type": "Point"}, "id": "nUMB7ZXU3WWGud5ML26CcDDzS48=", "properties": {"@spider": "usps_collection_boxes", "addr:city": "OUTLOOK", "addr:country": "US", "addr:full": "691 OUTLOOK RD", "addr:postcode": "98938", "addr:state": "WA", "brand": "USPS", "collection_times": "Mo-Fr 16:30; Sa 09:30", "name": "USPS COLLECTION BOX - BLUE BOX", "note": "ON 12/24 AND 12/31, THIS BOX MAY BE COLLECTED AS EARLY AS 12 NOON.", "ref": "9893800000"}, "type": "Feature"}
{"geometry": {"coordinates": [-120.092841, 46.331386], "type": "Point"}, "id": "gDjYbQE5eApMLT39r5TaR8C0EJ0=", "properties": {"@spider": "usps_collection_boxes", "addr:city": "OUTLOOK", "addr:country": "US", "addr:full": "691 OUTLOOK RD", "addr:postcode": "98938", "addr:state": "WA", "brand": "USPS", "collection_times": "Mo-Fr 11:30; Sa 09:30", "name": "USPS COLLECTION BOX - PO LOBBY", "ref": "9893800001"}, "type": "Feature"}
{"geometry": {"coordinates": [-120.0928414716, 46.3313855043], "type": "Point"}, "id": "O5YGBRsUZu4Q7UZfYmWndHdjmSA=", "properties": {"@spider": "usps_collection_boxes", "addr:city": "OUTLOOK", "addr:country": "US", "addr:full": "691 OUTLOOK RD", "addr:postcode": "98938", "addr:state": "WA", "brand": "USPS", "collection_times": "Mo-Fr 11:30", "name": "USPS COLLECTION BOX - PO LOBBY", "ref": "9893800002"}, "type": "Feature"}
{"geometry": {"coordinates": [-120.010528, 46.326188], "type": "Point"}, "id": "oD9YUb8tzEWfKsr1oJgw0P1dnGM=", "properties": {"@spider": "usps_collection_boxes", "addr:city": "SUNNYSIDE", "addr:country": "US", "addr:full": "713 E EDISON AVE", "addr:postcode": "98944", "addr:state": "WA", "brand": "USPS", "collection_times": "Mo-Fr 17:00; Sa 09:30", "name": "USPS COLLECTION BOX - PO LOBBY", "note": "ON 12/24 AND 12/31, THIS BOX MAY BE COLLECTED AS EARLY AS 12 NOON.", "ref": "9894400001"}, "type": "Feature"}
{"geometry": {"coordinates": [-120.010528, 46.326188], "type": "Point"}, "id": "DHh_N2QC1lrvrfgVo32Mi4s9CXA=", "properties": {"@spider": "usps_collection_boxes", "addr:city": "SUNNYSIDE", "addr:country": "US", "addr:full": "713 E EDISON AVE", "addr:postcode": "98944", "addr:state": "WA", "brand": "USPS", "collection_times": "Mo-Fr 17:00; Sa 09:30", "name": "USPS COLLECTION BOX - BLUE BOX", "note": "ON 12/24 AND 12/31, THIS BOX MAY BE COLLECTED AS EARLY AS 12 NOON.", "ref": "9894400004"}, "type": "Feature"}
{"geometry": {"coordinates": [-120.019917, 46.330862], "type": "Point"}, "id": "HCjGmywmFSCOuFPAo1039EqFtJc=", "properties": {"@spider": "usps_collection_boxes", "addr:city": "SUNNYSIDE", "addr:country": "US", "addr:full": "301 N 1ST ST", "addr:postcode": "98944", "addr:state": "WA", "brand": "USPS", "collection_times": "Mo-Sa 13:30", "name": "USPS COLLECTION BOX - BLUE BOX", "note": "ON 12/24 AND 12/31, THIS BOX MAY BE COLLECTED AS EARLY AS 12 NOON.", "ref": "9894400012"}, "type": "Feature"}
{"geometry": {"coordinates": [-120.0109905, 46.323766521], "type": "Point"}, "id": "FeRvZw3X1mAFCEhhzKwdabfqzP4=", "properties": {"@spider": "usps_collection_boxes", "addr:city": "SUNNYSIDE", "addr:country": "US", "addr:full": "713 E EDISON AVE", "addr:postcode": "98944", "addr:state": "WA", "brand": "USPS", "collection_times": "Mo-Fr 17:00", "name": "USPS COLLECTION BOX - PO LOBBY", "note": "ON 12/24 AND 12/31, THIS BOX MAY BE COLLECTED AS EARLY AS 12 NOON.", "ref": "9894400013"}, "type": "Feature"}
{"geometry": {"coordinates": [-120.4212194138, 46.445548191], "type": "Point"}, "id": "Q00_V4B-NQs3Po0y8Axjc8Wrwp8=", "properties": {"@spider": "usps_collection_boxes", "addr:city": "WAPATO", "addr:country": "US", "addr:full": "307 S SATUS AVE", "addr:postcode": "98951", "addr:state": "WA", "brand": "USPS", "collection_times": "Mo-Fr 17:00; Sa 15:30", "name": "USPS COLLECTION BOX - BLUE BOX", "note": "ON 12/24 AND 12/31, THIS BOX MAY BE COLLECTED AS EARLY AS 12 NOON.", "ref": "9895100000"}, "type": "Feature"}
{"geometry": {"coordinates": [-120.4212194138, 46.445548191], "type": "Point"}, "id": "YeKRK11nvjEdGVs7nhi1IWn1Zqk=", "properties": {"@spider": "usps_collection_boxes", "addr:city": "WAPATO", "addr:country": "US", "addr:full": "307 S SATUS AVE", "addr:postcode": "98951", "addr:state": "WA", "brand": "USPS", "collection_times": "Mo-Fr 17:00; Sa 15:30", "name": "USPS COLLECTION BOX - PO LOBBY", "note": "ON 12/24 AND 12/31, THIS BOX MAY BE COLLECTED AS EARLY AS 12 NOON.", "ref": "9895100004"}, "type": "Feature"}
{"geometry": {"coordinates": [-120.4212194138, 46.445548191], "type": "Point"}, "id": "V5-J7YcJYTRqMnvERTOxwDMTqfY=", "properties": {"@spider": "usps_collection_boxes", "addr:city": "WAPATO", "addr:country": "US", "addr:full": "307 S SATUS AVE", "addr:postcode": "98951", "addr:state": "WA", "brand": "USPS", "collection_times": "Mo-Fr 17:00", "name": "USPS COLLECTION BOX - PO LOBBY", "note": "ON 12/24 AND 12/31, THIS BOX MAY BE COLLECTED AS EARLY AS 12 NOON.", "ref": "9895100005"}, "type": "Feature"}
{"geometry": {"coordinates": [-120.73269, 46.382695], "type": "Point"}, "id": "-k4j3t0rcwBzrZBv-UoJROs0vDs=", "properties": {"@spider": "usps_collection_boxes", "addr:city": "WHITE SWAN", "addr:country": "US", "addr:full": "210 BIRCH AVE", "addr:postcode": "98952", "addr:state": "WA", "brand": "USPS", "collection_times": "Mo-Fr 16:00; Sa 09:00", "name": "USPS COLLECTION BOX - BLUE BOX", "note": "ON 12/24 AND 12/31, THIS BOX MAY BE COLLECTED AS EARLY AS 12 NOON.", "ref": "9895200000"}, "type": "Feature"}
{"geometry": {"coordinates": [-120.73267, 46.382762], "type": "Point"}, "id": "OUZfegzzMl4-5PBvgM96CSRyhvY=", "properties": {"@spider": "usps_collection_boxes", "addr:city": "WHITE SWAN", "addr:country": "US", "addr:full": "210 BIRCH AVE", "addr:postcode": "98952", "addr:state": "WA", "brand": "USPS", "collection_times": "Mo-Fr 16:00; Sa 09:00", "name": "USPS COLLECTION BOX - PO LOBBY", "note": "ON 12/24 AND 12/31, THIS BOX MAY BE COLLECTED AS EARLY AS 12 NOON.", "ref": "9895200002"}, "type": "Feature"}
{"geometry": {"coordinates": [-120.732665998, 46.382693423], "type": "Point"}, "id": "DsMY_O4QaIr7CpSYXOCqOVB-eac=", "properties": {"@spider": "usps_collection_boxes", "addr:city": "WHITE SWAN", "addr:country": "US", "addr:full": "210 BIRCH AVE", "addr:postcode": "98952", "addr:state": "WA", "brand": "USPS", "collection_times": "Mo-Fr 16:30", "name": "USPS COLLECTION BOX - PO LOBBY", "note": "ON 12/24 AND 12/31, THIS BOX MAY BE COLLECTED AS EARLY AS 12 NOON.", "ref": "9895200003"}, "type": "Feature"}
