{"dataset_attributes": {"@spider": "usps_collection_boxes", "spider:collection_time": "2023-11-22T08:26:05.887177"}, "geometry": {"coordinates": [-117.5917820156, 47.6417739818], "type": "Point"}, "id": "tfTjPx3YLxiIYlQuFZB3cof9h40=", "properties": {"@spider": "usps_collection_boxes", "addr:city": "AIRWAY HEIGHTS", "addr:country": "US", "addr:full": "1501 S MULLAN RD", "addr:postcode": "99001", "addr:state": "WA", "amenity": "post_box", "brand": "United States Postal Service", "brand:wikidata": "Q668687", "collection_times": "Mo-Fr 16:45; Sa 11:45", "name": "USPS COLLECTION BOX - BLUE BOX", "note": "ON 12/24 AND 12/31, THIS BOX MAY BE COLLECTED AS EARLY AS 12 NOON.", "nsi_id": "unitedstatespostalservice-a77078", "operator": "United States Postal Service", "operator:short": "USPS", "operator:type": "public", "operator:wikidata": "Q668687", "ref": "9900100002"}, "type": "Feature"}
{"dataset_attributes": {"@spider": "usps_collection_boxes", "spider:collection_time": "2023-11-22T08:26:05.887177"}, "geometry": {"coordinates": [-117.592429, 47.641609], "type": "Point"}, "id": "uadiyjzbmk7JgoPSIODO4_A5zaI=", "properties": {"@spider": "usps_collection_boxes", "addr:city": "AIRWAY HEIGHTS", "addr:country": "US", "addr:full": "1501 S MULLAN RD", "addr:postcode": "99001", "addr:state": "WA", "amenity": "post_box", "brand": "United States Postal Service", "brand:wikidata": "Q668687", "collection_times": "Mo-Fr 16:45; Sa 11:45", "name": "USPS COLLECTION BOX - PO LOBBY", "note": "ON 12/24 AND 12/31, THIS BOX MAY BE COLLECTED AS EARLY AS 12 NOON.", "nsi_id": "unitedstatespostalservice-a77078", "operator": "United States Postal Service", "operator:short": "USPS", "operator:type": "public", "operator:wikidata": "Q668687", "ref": "9900100004"}, "type": "Feature"}
{"dataset_attributes": {"@spider": "usps_collection_boxes", "spider:collection_time": "2023-11-22T08:26:05.887177"}, "geometry": {"coordinates": [-117.589696, 47.642026], "type": "Point"}, "id": "NhAkUtL3f6yIFytdVburl7WRR1s=", "properties": {"@spider": "usps_collection_boxes", "addr:city": "AIRWAY HEIGHTS", "addr:country": "US", "addr:full": "12825 W SUNSET HWY", "addr:postcode": "99001", "addr:state": "WA", "amenity": "post_box", "brand": "United States Postal Service", "brand:wikidata": "Q668687", "collection_times": "Mo-Fr 10:30; Sa 12:30", "name": "USPS COLLECTION BOX - BLUE BOX", "note": "ON 12/24 AND 12/31, THIS BOX MAY BE COLLECTED AS EARLY AS 12 NOON.", "nsi_id": "unitedstatespostalservice-a77078", "operator": "United States Postal Service", "operator:short": "USPS", "operator:type": "public", "operator:wikidata": "Q668687", "ref": "9900100005"}, "type": "Feature"}
{"dataset_attributes": {"@spider": "usps_collection_boxes", "spider:collection_time": "2023-11-22T08:26:05.887177"}, "geometry": {"coordinates": [-117.576436, 47.643408], "type": "Point"}, "id": "VzjSbIH1I7N_vcgmz2i7PZ4opDA=", "properties": {"@spider": "usps_collection_boxes", "addr:city": "AIRWAY HEIGHTS", "addr:country": "US", "addr:full": "11980 W SUNSET HWY", "addr:postcode": "99001", "addr:state": "WA", "amenity": "post_box", "brand": "United States Postal Service", "brand:wikidata": "Q668687", "collection_times": "Mo-Fr 09:30; Sa 09:00", "name": "USPS COLLECTION BOX - BLUE BOX", "nsi_id": "unitedstatespostalservice-a77078", "operator": "United States Postal Service", "operator:short": "USPS", "operator:type": "public", "operator:wikidata": "Q668687", "ref": "9900100006"}, "type": "Feature"}
{"dataset_attributes": {"@spider": "usps_collection_boxes", "spider:collection_time": "2023-11-22T08:26:05.887177"}, "geometry": {"coordinates": [-117.593012, 47.64427], "type": "Point"}, "id": "Ol_jKHVBL7SXzgansFp9Ol6q5R8=", "properties": {"@spider": "usps_collection_boxes", "addr:city": "AIRWAY HEIGHTS", "addr:country": "US", "addr:full": "13120 W 13TH AVE", "addr:postcode": "99001", "addr:state": "WA", "amenity": "post_box", "brand": "United States Postal Service", "brand:wikidata": "Q668687", "collection_times": "Mo-Fr 12:00; Sa 11:00", "name": "USPS COLLECTION BOX - BLUE BOX", "nsi_id": "unitedstatespostalservice-a77078", "operator": "United States Postal Service", "operator:short": "USPS", "operator:type": "public", "operator:wikidata": "Q668687", "ref": "9900100007"}, "type": "Feature"}
{"dataset_attributes": {"@spider": "usps_collection_boxes", "spider:collection_time": "2023-11-22T08:26:05.887177"}, "geometry": {"coordinates": [-117.592389266, 47.641580631], "type": "Point"}, "id": "BpasZw_s3NktRtKh34IbuKUl21s=", "properties": {"@spider": "usps_collection_boxes", "addr:city": "AIRWAY HEIGHTS", "addr:country": "US", "addr:full": "1501 S MULLAN RD", "addr:postcode": "99001", "addr:state": "WA", "amenity": "post_box", "brand": "United States Postal Service", "brand:wikidata": "Q668687", "collection_times": "Mo-Fr 16:45", "name": "USPS COLLECTION BOX - PO LOBBY", "note": "ON 12/24 AND 12/31, THIS BOX MAY BE COLLECTED AS EARLY AS 12 NOON.", "nsi_id": "unitedstatespostalservice-a77078", "operator": "United States Postal Service", "operator:short": "USPS", "operator:type": "public", "operator:wikidata": "Q668687", "ref": "9900100008"}, "type": "Feature"}
{"dataset_attributes": {"@spider": "usps_collection_boxes", "spider:collection_time": "2023-11-22T08:26:05.887177"}, "geometry": {"coordinates": [-117.348773, 47.970854], "type": "Point"}, "id": "1JyplUMlKD-X4_tjbXoxc0vncqc=", "properties": {"@spider": "usps_collection_boxes", "addr:city": "CHATTAROY", "addr:country": "US", "addr:full": "34710 N NEWPORT HWY", "addr:postcode": "99003", "addr:state": "WA", "amenity": "post_box", "brand": "United States Postal Service", "brand:wikidata": "Q668687", "collection_times": "Mo-Sa 11:30", "name": "USPS COLLECTION BOX - BLUE BOX", "nsi_id": "unitedstatespostalservice-a77078", "operator": "United States Postal Service", "operator:short": "USPS", "operator:type": "public", "operator:wikidata": "Q668687", "ref": "9900300001"}, "type": "Feature"}
{"dataset_attributes": {"@spider": "usps_collection_boxes", "spider:collection_time": "2023-11-22T08:26:05.887177"}, "geometry": {"coordinates": [-117.35868, 47.889341], "type": "Point"}, "id": "HGicd0pcTwUI4UtJtCRPGPXmh2o=", "properties": {"@spider": "usps_collection_boxes", "addr:city": "CHATTAROY", "addr:country": "US", "addr:full": "3616 E CHATTAROY RD", "addr:postcode": "99003", "addr:state": "WA", "amenity": "post_box", "brand": "United States Postal Service", "brand:wikidata": "Q668687", "collection_times": "Mo-Fr 16:30; Sa 11:00", "name": "USPS COLLECTION BOX - BLUE BOX", "note": "ON 12/24 AND 12/31, THIS BOX MAY BE COLLECTED AS EARLY AS 12 NOON.", "nsi_id": "unitedstatespostalservice-a77078", "operator": "United States Postal Service", "operator:short": "USPS", "operator:type": "public", "operator:wikidata": "Q668687", "ref": "9900300002"}, "type": "Feature"}
{"dataset_attributes": {"@spider": "usps_collection_boxes", "spider:collection_time": "2023-11-22T08:26:05.887177"}, "geometry": {"coordinates": [-117.35868, 47.889341], "type": "Point"}, "id": "tNpQjuBgMJASvfkm_OJjWTDHeAA=", "properties": {"@spider": "usps_collection_boxes", "addr:city": "CHATTAROY", "addr:country": "US", "addr:full": "3616 E CHATTAROY RD", "addr:postcode": "99003", "addr:state": "WA", "amenity": "post_box", "brand": "United States Postal Service", "brand:wikidata": "Q668687", "collection_times": "Mo-Fr 16:30; Sa 11:00", "name": "USPS COLLECTION BOX - PO LOBBY", "note": "ON 12/24 AND 12/31, THIS BOX MAY BE COLLECTED AS EARLY AS 12 NOON.", "nsi_id": "unitedstatespostalservice-a77078", "operator": "United States Postal Service", "operator:short": "USPS", "operator:type": "public", "operator:wikidata": "Q668687", "ref": "9900300003"}, "type": "Feature"}
{"dataset_attributes": {"@spider": "usps_collection_boxes", "spider:collection_time": "2023-11-22T08:26:05.887177"}, "geometry": {"coordinates": [-117.358371, 47.889334521], "type": "Point"}, "id": "Ft5uAM39jR5uKZLRMU46DFyesmA=", "properties": {"@spider": "usps_collection_boxes", "addr:city": "CHATTAROY", "addr:country": "US", "addr:full": "3616 E CHATTAROY RD", "addr:postcode": "99003", "addr:state": "WA", "amenity": "post_box", "brand": "United States Postal Service", "brand:wikidata": "Q668687", "collection_times": "Mo-Fr 16:45; Sa 10:45", "name": "USPS COLLECTION BOX - PO LOBBY", "note": "ON 12/24 AND 12/31, THIS BOX MAY BE COLLECTED AS EARLY AS 12 NOON.", "nsi_id": "unitedstatespostalservice-a77078", "operator": "United States Postal Service", "operator:short": "USPS", "operator:type": "public", "operator:wikidata": "Q668687", "ref": "9900300004"}, "type": "Feature"}
{"dataset_attributes": {"@spider": "usps_collection_boxes", "spider:collection_time": "2023-11-22T08:26:05.887177"}, "geometry": {"coordinates": [-117.5819, 47.484821], "type": "Point"}, "id": "55_b-W2PO8ProNPZJ6oEDdPjQkQ=", "properties": {"@spider": "usps_collection_boxes", "addr:city": "CHENEY", "addr:country": "US", "addr:full": "6 W 3RD ST", "addr:postcode": "99004", "addr:state": "WA", "amenity": "post_box", "brand": "United States Postal Service", "brand:wikidata": "Q668687", "collection_times": "Mo-Sa 09:00", "name": "USPS COLLECTION BOX - BLUE BOX", "nsi_id": "unitedstatespostalservice-a77078", "operator": "United States Postal Service", "operator:short": "USPS", "operator:type": "public", "operator:wikidata": "Q668687", "ref": "9900400005"}, "type": "Feature"}
{"dataset_attributes": {"@spider": "usps_collection_boxes", "spider:collection_time": "2023-11-22T08:26:05.887177"}, "geometry": {"coordinates": [-117.574544244, 47.491535987], "type": "Point"}, "id": "lZgGXp6GH_xtLFS_T6FXiu5MA6s=", "properties": {"@spider": "usps_collection_boxes", "addr:city": "CHENEY", "addr:country": "US", "addr:full": "823 4TH ST", "addr:postcode": "99004", "addr:state": "WA", "amenity": "post_box", "brand": "United States Postal Service", "brand:wikidata": "Q668687", "collection_times": "Mo-Sa 10:30", "name": "USPS COLLECTION BOX - BLUE BOX", "nsi_id": "unitedstatespostalservice-a77078", "operator": "United States Postal Service", "operator:short": "USPS", "operator:type": "public", "operator:wikidata": "Q668687", "ref": "9900400008"}, "type": "Feature"}
{"dataset_attributes": {"@spider": "usps_collection_boxes", "spider:collection_time": "2023-11-22T08:26:05.887177"}, "geometry": {"coordinates": [-117.563249, 47.499488], "type": "Point"}, "id": "0kj9Ua5Ps04HF_DvXiAWiSexYEc=", "properties": {"@spider": "usps_collection_boxes", "addr:city": "CHENEY", "addr:country": "US", "addr:full": "6 CHENEY SPOKANE RD", "addr:postcode": "99004", "addr:state": "WA", "amenity": "post_box", "brand": "United States Postal Service", "brand:wikidata": "Q668687", "collection_times": "Mo-Sa 11:00", "name": "USPS COLLECTION BOX - BLUE BOX", "nsi_id": "unitedstatespostalservice-a77078", "operator": "United States Postal Service", "operator:short": "USPS", "operator:type": "public", "operator:wikidata": "Q668687", "ref": "9900400009"}, "type": "Feature"}
{"dataset_attributes": {"@spider": "usps_collection_boxes", "spider:collection_time": "2023-11-22T08:26:05.887177"}, "geometry": {"coordinates": [-117.57792, 47.486483], "type": "Point"}, "id": "YmvcdrKAAIzVqWSGo_TDFCUVWnw=", "properties": {"@spider": "usps_collection_boxes", "addr:city": "CHENEY", "addr:country": "US", "addr:full": "224 2ND ST", "addr:postcode": "99004", "addr:state": "WA", "amenity": "post_box", "brand": "United States Postal Service", "brand:wikidata": "Q668687", "collection_times": "Mo-Fr 17:00; Sa 14:15", "name": "USPS COLLECTION BOX - BLUE BOX", "note": "ON 12/24 AND 12/31, THIS BOX MAY BE COLLECTED AS EARLY AS 12 NOON.", "nsi_id": "unitedstatespostalservice-a77078", "operator": "United States Postal Service", "operator:short": "USPS", "operator:type": "public", "operator:wikidata": "Q668687", "ref": "9900400010"}, "type": "Feature"}
{"dataset_attributes": {"@spider": "usps_collection_boxes", "spider:collection_time": "2023-11-22T08:26:05.887177"}, "geometry": {"coordinates": [-117.57792, 47.486483], "type": "Point"}, "id": "Y8Dw-7MWBaFvKB_flDajYnWjeNE=", "properties": {"@spider": "usps_collection_boxes", "addr:city": "CHENEY", "addr:country": "US", "addr:full": "224 2ND ST", "addr:postcode": "99004", "addr:state": "WA", "amenity": "post_box", "brand": "United States Postal Service", "brand:wikidata": "Q668687", "collection_times": "Mo-Fr 17:15; Sa 14:15", "name": "USPS COLLECTION BOX - PO LOBBY", "note": "ON 12/24 AND 12/31, THIS BOX MAY BE COLLECTED AS EARLY AS 12 NOON.", "nsi_id": "unitedstatespostalservice-a77078", "operator": "United States Postal Service", "operator:short": "USPS", "operator:type": "public", "operator:wikidata": "Q668687", "ref": "9900400011"}, "type": "Feature"}
{"dataset_attributes": {"@spider": "usps_collection_boxes", "spider:collection_time": "2023-11-22T08:26:05.887177"}, "geometry": {"coordinates": [-117.581476, 47.483233], "type": "Point"}, "id": "pTC152crfkhOjG8LHvKp1v4-JjI=", "properties": {"@spider": "usps_collection_boxes", "addr:city": "CHENEY", "addr:country": "US", "addr:full": "116 W 1ST ST", "addr:postcode": "99004", "addr:state": "WA", "amenity": "post_box", "brand": "United States Postal Service", "brand:wikidata": "Q668687", "collection_times": "Mo-Fr 14:00; Sa 09:00", "name": "USPS COLLECTION BOX - BLUE BOX", "note": "ON 12/24 AND 12/31, THIS BOX MAY BE COLLECTED AS EARLY AS 12 NOON.", "nsi_id": "unitedstatespostalservice-a77078", "operator": "United States Postal Service", "operator:short": "USPS", "operator:type": "public", "operator:wikidata": "Q668687", "ref": "9900400012"}, "type": "Feature"}
{"dataset_attributes": {"@spider": "usps_collection_boxes", "spider:collection_time": "2023-11-22T08:26:05.887177"}, "geometry": {"coordinates": [-117.566895, 47.505699], "type": "Point"}, "id": "nJ5Rbp3t29fESZTQHZxCJ9l_GlQ=", "properties": {"@spider": "usps_collection_boxes", "addr:city": "CHENEY", "addr:country": "US", "addr:full": "2710 1ST ST", "addr:postcode": "99004", "addr:state": "WA", "amenity": "post_box", "brand": "United States Postal Service", "brand:wikidata": "Q668687", "collection_times": "Mo-Fr 11:00; Sa 10:00", "name": "USPS COLLECTION BOX - BLUE BOX", "nsi_id": "unitedstatespostalservice-a77078", "operator": "United States Postal Service", "operator:short": "USPS", "operator:type": "public", "operator:wikidata": "Q668687", "ref": "9900400013"}, "type": "Feature"}
{"dataset_attributes": {"@spider": "usps_collection_boxes", "spider:collection_time": "2023-11-22T08:26:05.887177"}, "geometry": {"coordinates": [-117.57792253, 47.486477137], "type": "Point"}, "id": "AtWZLG_R2Bt8p5OYKUn1LT_hIOU=", "properties": {"@spider": "usps_collection_boxes", "addr:city": "CHENEY", "addr:country": "US", "addr:full": "224 2ND ST", "addr:postcode": "99004", "addr:state": "WA", "amenity": "post_box", "brand": "United States Postal Service", "brand:wikidata": "Q668687", "collection_times": "Mo-Fr 17:30", "name": "USPS COLLECTION BOX - PO LOBBY", "note": "ON 12/24 AND 12/31, THIS BOX MAY BE COLLECTED AS EARLY AS 12 NOON.", "nsi_id": "unitedstatespostalservice-a77078", "operator": "United States Postal Service", "operator:short": "USPS", "operator:type": "public", "operator:wikidata": "Q668687", "ref": "9900400014"}, "type": "Feature"}
{"dataset_attributes": {"@spider": "usps_collection_boxes", "spider:collection_time": "2023-11-22T08:26:05.887177"}, "geometry": {"coordinates": [-117.347157, 47.837131], "type": "Point"}, "id": "RoMXUq5SwkkPM4kPSDQvioJ113M=", "properties": {"@spider": "usps_collection_boxes", "addr:city": "COLBERT", "addr:country": "US", "addr:full": "19823 N YALE RD", "addr:postcode": "99005", "addr:state": "WA", "amenity": "post_box", "brand": "United States Postal Service", "brand:wikidata": "Q668687", "collection_times": "Mo-Fr 16:45; Sa 10:00", "name": "USPS COLLECTION BOX - BLUE BOX", "note": "ON 12/24 AND 12/31, THIS BOX MAY BE COLLECTED AS EARLY AS 12 NOON.", "nsi_id": "unitedstatespostalservice-a77078", "operator": "United States Postal Service", "operator:short": "USPS", "operator:type": "public", "operator:wikidata": "Q668687", "ref": "9900500001"}, "type": "Feature"}
{"dataset_attributes": {"@spider": "usps_collection_boxes", "spider:collection_time": "2023-11-22T08:26:05.887177"}, "geometry": {"coordinates": [-117.347117, 47.837081], "type": "Point"}, "id": "EHjuZ1PYZCxfYRfAEl9azkl1rsE=", "properties": {"@spider": "usps_collection_boxes", "addr:city": "COLBERT", "addr:country": "US", "addr:full": "19823 N YALE RD", "addr:postcode": "99005", "addr:state": "WA", "amenity": "post_box", "brand": "United States Postal Service", "brand:wikidata": "Q668687", "collection_times": "Mo-Fr 16:45; Sa 10:00", "name": "USPS COLLECTION BOX - PO LOBBY", "note": "ON 12/24 AND 12/31, THIS BOX MAY BE COLLECTED AS EARLY AS 12 NOON.", "nsi_id": "unitedstatespostalservice-a77078", "operator": "United States Postal Service", "operator:short": "USPS", "operator:type": "public", "operator:wikidata": "Q668687", "ref": "9900500002"}, "type": "Feature"}
{"dataset_attributes": {"@spider": "usps_collection_boxes", "spider:collection_time": "2023-11-22T08:26:05.887177"}, "geometry": {"coordinates": [-117.3471783, 47.837106716], "type": "Point"}, "id": "TOaObZX5PiaqBIB01PWG-ZkDao8=", "properties": {"@spider": "usps_collection_boxes", "addr:city": "COLBERT", "addr:country": "US", "addr:full": "19823 N YALE RD", "addr:postcode": "99005", "addr:state": "WA", "amenity": "post_box", "brand": "United States Postal Service", "brand:wikidata": "Q668687", "collection_times": "Mo-Fr 17:00; Sa 10:00", "name": "USPS COLLECTION BOX - PO LOBBY", "note": "ON 12/24 AND 12/31, THIS BOX MAY BE COLLECTED AS EARLY AS 12 NOON.", "nsi_id": "unitedstatespostalservice-a77078", "operator": "United States Postal Service", "operator:short": "USPS", "operator:type": "public", "operator:wikidata": "Q668687", "ref": "9900500003"}, "type": "Feature"}
{"dataset_attributes": {"@spider": "usps_collection_boxes", "spider:collection_time": "2023-11-22T08:26:05.887177"}, "geometry": {"coordinates": [-117.47475, 47.958265], "type": "Point"}, "id": "ayCgEv3NMBrAKQU-83HM53wY2Co=", "properties": {"@spider": "usps_collection_boxes", "addr:city": "DEER PARK", "addr:country": "US", "addr:full": "810 S MAIN ST", "addr:postcode": "99006", "addr:state": "WA", "amenity": "post_box", "brand": "United States Postal Service", "brand:wikidata": "Q668687", "collection_times": "Mo-Sa 12:30", "name": "USPS COLLECTION BOX - BLUE BOX", "note": "ON 12/24 AND 12/31, THIS BOX MAY BE COLLECTED AS EARLY AS 12 NOON.", "nsi_id": "unitedstatespostalservice-a77078", "operator": "United States Postal Service", "operator:short": "USPS", "operator:type": "public", "operator:wikidata": "Q668687", "ref": "9900600002"}, "type": "Feature"}
{"dataset_attributes": {"@spider": "usps_collection_boxes", "spider:collection_time": "2023-11-22T08:26:05.887177"}, "geometry": {"coordinates": [-117.475359, 47.954049], "type": "Point"}, "id": "Tm55hJkRRvmiUWPFFEEx9hBAwLA=", "properties": {"@spider": "usps_collection_boxes", "addr:city": "DEER PARK", "addr:country": "US", "addr:full": "19 S VERNON AVE", "addr:postcode": "99006", "addr:state": "WA", "amenity": "post_box", "brand": "United States Postal Service", "brand:wikidata": "Q668687", "collection_times": "Mo-Fr 17:00; Sa 13:00", "name": "USPS COLLECTION BOX - BLUE BOX", "note": "ON 12/24 AND 12/31, THIS BOX MAY BE COLLECTED AS EARLY AS 12 NOON.", "nsi_id": "unitedstatespostalservice-a77078", "operator": "United States Postal Service", "operator:short": "USPS", "operator:type": "public", "operator:wikidata": "Q668687", "ref": "9900600003"}, "type": "Feature"}
{"dataset_attributes": {"@spider": "usps_collection_boxes", "spider:collection_time": "2023-11-22T08:26:05.887177"}, "geometry": {"coordinates": [-117.475399, 47.954106], "type": "Point"}, "id": "c_J9sxD6DUtHIJGx4LcpEj95-PE=", "properties": {"@spider": "usps_collection_boxes", "addr:city": "DEER PARK", "addr:country": "US", "addr:full": "19 S VERNON AVE", "addr:postcode": "99006", "addr:state": "WA", "amenity": "post_box", "brand": "United States Postal Service", "brand:wikidata": "Q668687", "collection_times": "Mo-Fr 17:00; Sa 13:00", "name": "USPS COLLECTION BOX - PO LOBBY", "note": "ON 12/24 AND 12/31, THIS BOX MAY BE COLLECTED AS EARLY AS 12 NOON.", "nsi_id": "unitedstatespostalservice-a77078", "operator": "United States Postal Service", "operator:short": "USPS", "operator:type": "public", "operator:wikidata": "Q668687", "ref": "9900600005"}, "type": "Feature"}
{"dataset_attributes": {"@spider": "usps_collection_boxes", "spider:collection_time": "2023-11-22T08:26:05.887177"}, "geometry": {"coordinates": [-117.475360479, 47.953593], "type": "Point"}, "id": "l9p22Et_2rA1iZ9NXJ30VbMpJXc=", "properties": {"@spider": "usps_collection_boxes", "addr:city": "DEER PARK", "addr:country": "US", "addr:full": "19 S VERNON AVE", "addr:postcode": "99006", "addr:state": "WA", "amenity": "post_box", "brand": "United States Postal Service", "brand:wikidata": "Q668687", "collection_times": "Mo-Fr 17:00; Sa 13:00", "name": "USPS COLLECTION BOX - PO LOBBY", "note": "ON 12/24 AND 12/31, THIS BOX MAY BE COLLECTED AS EARLY AS 12 NOON.", "nsi_id": "unitedstatespostalservice-a77078", "operator": "United States Postal Service", "operator:short": "USPS", "operator:type": "public", "operator:wikidata": "Q668687", "ref": "9900600007"}, "type": "Feature"}
{"dataset_attributes": {"@spider": "usps_collection_boxes", "spider:collection_time": "2023-11-22T08:26:05.887177"}, "geometry": {"coordinates": [-117.349072, 48.017368], "type": "Point"}, "id": "MNvPv_168pgPRShhD6ZGE5hBgZc=", "properties": {"@spider": "usps_collection_boxes", "addr:city": "ELK", "addr:country": "US", "addr:full": "39824 N NEWPORT HWY", "addr:postcode": "99009", "addr:state": "WA", "amenity": "post_box", "brand": "United States Postal Service", "brand:wikidata": "Q668687", "collection_times": "Mo-Sa 08:00", "name": "USPS COLLECTION BOX - BLUE BOX", "nsi_id": "unitedstatespostalservice-a77078", "operator": "United States Postal Service", "operator:short": "USPS", "operator:type": "public", "operator:wikidata": "Q668687", "ref": "9900900001"}, "type": "Feature"}
{"dataset_attributes": {"@spider": "usps_collection_boxes", "spider:collection_time": "2023-11-22T08:26:05.887177"}, "geometry": {"coordinates": [-117.280655, 48.017282], "type": "Point"}, "id": "LV05i--D2t42wOQNzvjyVcJRmM4=", "properties": {"@spider": "usps_collection_boxes", "addr:city": "ELK", "addr:country": "US", "addr:full": "9409 E BRIDGES RD", "addr:postcode": "99009", "addr:state": "WA", "amenity": "post_box", "brand": "United States Postal Service", "brand:wikidata": "Q668687", "collection_times": "Mo-Fr 16:45; Sa 10:00", "name": "USPS COLLECTION BOX - BLUE BOX", "note": "ON 12/24 AND 12/31, THIS BOX MAY BE COLLECTED AS EARLY AS 12 NOON.", "nsi_id": "unitedstatespostalservice-a77078", "operator": "United States Postal Service", "operator:short": "USPS", "operator:type": "public", "operator:wikidata": "Q668687", "ref": "9900900002"}, "type": "Feature"}
{"dataset_attributes": {"@spider": "usps_collection_boxes", "spider:collection_time": "2023-11-22T08:26:05.887177"}, "geometry": {"coordinates": [-117.280624, 48.017243], "type": "Point"}, "id": "DnwgxmdMxN7kV-hntkxrBsLUxM4=", "properties": {"@spider": "usps_collection_boxes", "addr:city": "ELK", "addr:country": "US", "addr:full": "9409 E BRIDGES RD", "addr:postcode": "99009", "addr:state": "WA", "amenity": "post_box", "brand": "United States Postal Service", "brand:wikidata": "Q668687", "collection_times": "Mo-Fr 16:45; Sa 10:00", "name": "USPS COLLECTION BOX - PO LOBBY", "note": "ON 12/24 AND 12/31, THIS BOX MAY BE COLLECTED AS EARLY AS 12 NOON.", "nsi_id": "unitedstatespostalservice-a77078", "operator": "United States Postal Service", "operator:short": "USPS", "operator:type": "public", "operator:wikidata": "Q668687", "ref": "9900900003"}, "type": "Feature"}
{"dataset_attributes": {"@spider": "usps_collection_boxes", "spider:collection_time": "2023-11-22T08:26:05.887177"}, "geometry": {"coordinates": [-117.279903759, 48.016928806], "type": "Point"}, "id": "yElfL8-YClYTXuHixHTk8hPYPsU=", "properties": {"@spider": "usps_collection_boxes", "addr:city": "ELK", "addr:country": "US", "addr:full": "9409 E BRIDGES RD", "addr:postcode": "99009", "addr:state": "WA", "amenity": "post_box", "brand": "United States Postal Service", "brand:wikidata": "Q668687", "collection_times": "Mo-Fr 17:00; Sa 10:00", "name": "USPS COLLECTION BOX - PO LOBBY", "note": "ON 12/24 AND 12/31, THIS BOX MAY BE COLLECTED AS EARLY AS 12 NOON.", "nsi_id": "unitedstatespostalservice-a77078", "operator": "United States Postal Service", "operator:short": "USPS", "operator:type": "public", "operator:wikidata": "Q668687", "ref": "9900900004"}, "type": "Feature"}
{"dataset_attributes": {"@spider": "usps_collection_boxes", "spider:collection_time": "2023-11-22T08:26:05.887177"}, "geometry": {"coordinates": [-117.669296, 47.627379], "type": "Point"}, "id": "5SrcTYAl6O4BKVWnNF3HS8rVyYk=", "properties": {"@spider": "usps_collection_boxes", "addr:city": "FAIRCHILD AFB", "addr:country": "US", "addr:full": "701 HOSPITAL LOOP", "addr:postcode": "99011", "addr:state": "WA", "amenity": "post_box", "brand": "United States Postal Service", "brand:wikidata": "Q668687", "collection_times": "Mo-Sa 10:00", "name": "USPS COLLECTION BOX - BLUE BOX", "nsi_id": "unitedstatespostalservice-a77078", "operator": "United States Postal Service", "operator:short": "USPS", "operator:type": "public", "operator:wikidata": "Q668687", "ref": "9901100004"}, "type": "Feature"}
{"dataset_attributes": {"@spider": "usps_collection_boxes", "spider:collection_time": "2023-11-22T08:26:05.887177"}, "geometry": {"coordinates": [-117.64169, 47.636487], "type": "Point"}, "id": "2oJzA_65JhieRt7z_wPWvPIwmZY=", "properties": {"@spider": "usps_collection_boxes", "addr:city": "FAIRCHILD AFB", "addr:country": "US", "addr:full": "6005 KAMIAKIN TRL", "addr:postcode": "99011", "addr:state": "WA", "amenity": "post_box", "brand": "United States Postal Service", "brand:wikidata": "Q668687", "collection_times": "Mo-Sa 12:00", "name": "USPS COLLECTION BOX - BLUE BOX", "nsi_id": "unitedstatespostalservice-a77078", "operator": "United States Postal Service", "operator:short": "USPS", "operator:type": "public", "operator:wikidata": "Q668687", "ref": "9901100008"}, "type": "Feature"}
{"dataset_attributes": {"@spider": "usps_collection_boxes", "spider:collection_time": "2023-11-22T08:26:05.887177"}, "geometry": {"coordinates": [-117.655677, 47.628557], "type": "Point"}, "id": "rBvuy2FrEMsY8Wpa9kBawxRjWCc=", "properties": {"@spider": "usps_collection_boxes", "addr:city": "FAIRCHILD AFB", "addr:country": "US", "addr:full": "100 N CHENNAULT AVE", "addr:postcode": "99011", "addr:state": "WA", "amenity": "post_box", "brand": "United States Postal Service", "brand:wikidata": "Q668687", "collection_times": "Mo-Sa 12:45", "name": "USPS COLLECTION BOX - BLUE BOX", "note": "ON 12/24 AND 12/31, THIS BOX MAY BE COLLECTED AS EARLY AS 12 NOON.", "nsi_id": "unitedstatespostalservice-a77078", "operator": "United States Postal Service", "operator:short": "USPS", "operator:type": "public", "operator:wikidata": "Q668687", "ref": "9901100011"}, "type": "Feature"}
{"dataset_attributes": {"@spider": "usps_collection_boxes", "spider:collection_time": "2023-11-22T08:26:05.887177"}, "geometry": {"coordinates": [-117.662222, 47.627114], "type": "Point"}, "id": "bWe27uxnbUBXaGrFuwZ2kEeBeb4=", "properties": {"@spider": "usps_collection_boxes", "addr:city": "FAIRCHILD AFB", "addr:country": "US", "addr:full": "7244A NEBRASKA AVE", "addr:postcode": "99011", "addr:state": "WA", "amenity": "post_box", "brand": "United States Postal Service", "brand:wikidata": "Q668687", "collection_times": "Mo-Sa 12:00", "name": "USPS COLLECTION BOX - BLUE BOX", "nsi_id": "unitedstatespostalservice-a77078", "operator": "United States Postal Service", "operator:short": "USPS", "operator:type": "public", "operator:wikidata": "Q668687", "ref": "9901100012"}, "type": "Feature"}
{"dataset_attributes": {"@spider": "usps_collection_boxes", "spider:collection_time": "2023-11-22T08:26:05.887177"}, "geometry": {"coordinates": [-117.662458, 47.63233], "type": "Point"}, "id": "x6r7cgHYXGVeDZw3CZllut0CddI=", "properties": {"@spider": "usps_collection_boxes", "addr:city": "FAIRCHILD AFB", "addr:country": "US", "addr:full": "7134A DAKOTA AVE", "addr:postcode": "99011", "addr:state": "WA", "amenity": "post_box", "brand": "United States Postal Service", "brand:wikidata": "Q668687", "collection_times": "Mo-Sa 10:00", "name": "USPS COLLECTION BOX - BLUE BOX", "nsi_id": "unitedstatespostalservice-a77078", "operator": "United States Postal Service", "operator:short": "USPS", "operator:type": "public", "operator:wikidata": "Q668687", "ref": "9901100013"}, "type": "Feature"}
{"dataset_attributes": {"@spider": "usps_collection_boxes", "spider:collection_time": "2023-11-22T08:26:05.887177"}, "geometry": {"coordinates": [-117.655677, 47.628557], "type": "Point"}, "id": "keucNSo1-9K8trYAoxuFgzQfPtg=", "properties": {"@spider": "usps_collection_boxes", "addr:city": "FAIRCHILD AFB", "addr:country": "US", "addr:full": "100 N CHENNAULT AVE", "addr:postcode": "99011", "addr:state": "WA", "amenity": "post_box", "brand": "United States Postal Service", "brand:wikidata": "Q668687", "collection_times": "Mo-Fr 17:00; Sa 12:00", "name": "USPS COLLECTION BOX - PO LOBBY", "note": "ON 12/24 AND 12/31, THIS BOX MAY BE COLLECTED AS EARLY AS 12 NOON.", "nsi_id": "unitedstatespostalservice-a77078", "operator": "United States Postal Service", "operator:short": "USPS", "operator:type": "public", "operator:wikidata": "Q668687", "ref": "9901100014"}, "type": "Feature"}
{"dataset_attributes": {"@spider": "usps_collection_boxes", "spider:collection_time": "2023-11-22T08:26:05.887177"}, "geometry": {"coordinates": [-117.655666869, 47.628592576], "type": "Point"}, "id": "fjjLO17MxlDX0VG-PB2GlHlyD4w=", "properties": {"@spider": "usps_collection_boxes", "addr:city": "FAIRCHILD AFB", "addr:country": "US", "addr:full": "100 N CHENNAULT AVE STE 100", "addr:postcode": "99011", "addr:state": "WA", "amenity": "post_box", "brand": "United States Postal Service", "brand:wikidata": "Q668687", "collection_times": "Mo-Fr 17:00; Sa 12:00", "name": "USPS COLLECTION BOX - PO LOBBY", "note": "ON 12/24 AND 12/31, THIS BOX MAY BE COLLECTED AS EARLY AS 12 NOON.", "nsi_id": "unitedstatespostalservice-a77078", "operator": "United States Postal Service", "operator:short": "USPS", "operator:type": "public", "operator:wikidata": "Q668687", "ref": "9901100015"}, "type": "Feature"}
{"dataset_attributes": {"@spider": "usps_collection_boxes", "spider:collection_time": "2023-11-22T08:26:05.887177"}, "geometry": {"coordinates": [-117.17161, 47.385174], "type": "Point"}, "id": "Qwpk9exv2RUTbIQ51Da8OjNMVP0=", "properties": {"@spider": "usps_collection_boxes", "addr:city": "FAIRFIELD", "addr:country": "US", "addr:full": "220 MAIN ST", "addr:postcode": "99012", "addr:state": "WA", "amenity": "post_box", "brand": "United States Postal Service", "brand:wikidata": "Q668687", "collection_times": "Mo-Fr 16:30; Sa 13:00", "name": "USPS COLLECTION BOX - PO LOBBY", "note": "ON 12/24 AND 12/31, THIS BOX MAY BE COLLECTED AS EARLY AS 12 NOON.", "nsi_id": "unitedstatespostalservice-a77078", "operator": "United States Postal Service", "operator:short": "USPS", "operator:type": "public", "operator:wikidata": "Q668687", "ref": "9901200001"}, "type": "Feature"}
{"dataset_attributes": {"@spider": "usps_collection_boxes", "spider:collection_time": "2023-11-22T08:26:05.887177"}, "geometry": {"coordinates": [-117.170679929, 47.385208521], "type": "Point"}, "id": "o13O-c0zgjMs-sh70gP9tdBYVOg=", "properties": {"@spider": "usps_collection_boxes", "addr:city": "FAIRFIELD", "addr:country": "US", "addr:full": "220 MAIN ST", "addr:postcode": "99012", "addr:state": "WA", "amenity": "post_box", "brand": "United States Postal Service", "brand:wikidata": "Q668687", "collection_times": "Mo-Fr 17:00", "name": "USPS COLLECTION BOX - PO LOBBY", "note": "ON 12/24 AND 12/31, THIS BOX MAY BE COLLECTED AS EARLY AS 12 NOON.", "nsi_id": "unitedstatespostalservice-a77078", "operator": "United States Postal Service", "operator:short": "USPS", "operator:type": "public", "operator:wikidata": "Q668687", "ref": "9901200003"}, "type": "Feature"}
{"dataset_attributes": {"@spider": "usps_collection_boxes", "spider:collection_time": "2023-11-22T08:26:05.887177"}, "geometry": {"coordinates": [-117.8146746425, 47.9108227763], "type": "Point"}, "id": "wv8RvEuYstmGSccsv-KwPRFbGgY=", "properties": {"@spider": "usps_collection_boxes", "addr:city": "FORD", "addr:country": "US", "addr:full": "5273C FORD WELLPINIT RD", "addr:postcode": "99013", "addr:state": "WA", "amenity": "post_box", "brand": "United States Postal Service", "brand:wikidata": "Q668687", "collection_times": "Mo-Fr 15:15; Sa 10:30", "name": "USPS COLLECTION BOX - BLUE BOX", "note": "ON 12/24 AND 12/31, THIS BOX MAY BE COLLECTED AS EARLY AS 12 NOON.", "nsi_id": "unitedstatespostalservice-a77078", "operator": "United States Postal Service", "operator:short": "USPS", "operator:type": "public", "operator:wikidata": "Q668687", "ref": "9901300001"}, "type": "Feature"}
{"dataset_attributes": {"@spider": "usps_collection_boxes", "spider:collection_time": "2023-11-22T08:26:05.887177"}, "geometry": {"coordinates": [-117.8146746425, 47.9108227763], "type": "Point"}, "id": "Jg8Q1kovvr-ozXanNHU8Q4QSw34=", "properties": {"@spider": "usps_collection_boxes", "addr:city": "FORD", "addr:country": "US", "addr:full": "5273C FORD WELLPINIT RD", "addr:postcode": "99013", "addr:state": "WA", "amenity": "post_box", "brand": "United States Postal Service", "brand:wikidata": "Q668687", "collection_times": "Mo-Fr 15:45; Sa 10:30", "name": "USPS COLLECTION BOX - PO LOBBY", "note": "ON 12/24 AND 12/31, THIS BOX MAY BE COLLECTED AS EARLY AS 12 NOON.", "nsi_id": "unitedstatespostalservice-a77078", "operator": "United States Postal Service", "operator:short": "USPS", "operator:type": "public", "operator:wikidata": "Q668687", "ref": "9901300002"}, "type": "Feature"}
{"dataset_attributes": {"@spider": "usps_collection_boxes", "spider:collection_time": "2023-11-22T08:26:05.887177"}, "geometry": {"coordinates": [-117.8146746425, 47.9108227763], "type": "Point"}, "id": "lZzl_UhsVRuDGiB1zow1zGbehMc=", "properties": {"@spider": "usps_collection_boxes", "addr:city": "FORD", "addr:country": "US", "addr:full": "5273C FORD WELLPINIT RD", "addr:postcode": "99013", "addr:state": "WA", "amenity": "post_box", "brand": "United States Postal Service", "brand:wikidata": "Q668687", "collection_times": "Mo-Fr 15:45; Sa 09:45", "name": "USPS COLLECTION BOX - PO LOBBY", "note": "ON 12/24 AND 12/31, THIS BOX MAY BE COLLECTED AS EARLY AS 12 NOON.", "nsi_id": "unitedstatespostalservice-a77078", "operator": "United States Postal Service", "operator:short": "USPS", "operator:type": "public", "operator:wikidata": "Q668687", "ref": "9901300003"}, "type": "Feature"}
{"dataset_attributes": {"@spider": "usps_collection_boxes", "spider:collection_time": "2023-11-22T08:26:05.887177"}, "geometry": {"coordinates": [-117.5962398372, 47.5613198537], "type": "Point"}, "id": "IxcUZnkqbUhtwRJzq_aiVxDqjoA=", "properties": {"@spider": "usps_collection_boxes", "addr:city": "FOUR LAKES", "addr:country": "US", "addr:full": "10117 S ELECTRIC AVE", "addr:postcode": "99014", "addr:state": "WA", "amenity": "post_box", "brand": "United States Postal Service", "brand:wikidata": "Q668687", "collection_times": "Mo-Fr 16:15; Sa 09:45", "name": "USPS COLLECTION BOX - BLUE BOX", "note": "ON 12/24 AND 12/31, THIS BOX MAY BE COLLECTED AS EARLY AS 12 NOON.", "nsi_id": "unitedstatespostalservice-a77078", "operator": "United States Postal Service", "operator:short": "USPS", "operator:type": "public", "operator:wikidata": "Q668687", "ref": "9901400001"}, "type": "Feature"}
{"dataset_attributes": {"@spider": "usps_collection_boxes", "spider:collection_time": "2023-11-22T08:26:05.887177"}, "geometry": {"coordinates": [-117.596298, 47.561371], "type": "Point"}, "id": "WoujUdu0Y7svL_Soyk_kSQ1lMRQ=", "properties": {"@spider": "usps_collection_boxes", "addr:city": "FOUR LAKES", "addr:country": "US", "addr:full": "10117 S ELECTRIC AVE", "addr:postcode": "99014", "addr:state": "WA", "amenity": "post_box", "brand": "United States Postal Service", "brand:wikidata": "Q668687", "collection_times": "Mo-Fr 16:15; Sa 09:45", "name": "USPS COLLECTION BOX - PO LOBBY", "note": "ON 12/24 AND 12/31, THIS BOX MAY BE COLLECTED AS EARLY AS 12 NOON.", "nsi_id": "unitedstatespostalservice-a77078", "operator": "United States Postal Service", "operator:short": "USPS", "operator:type": "public", "operator:wikidata": "Q668687", "ref": "9901400002"}, "type": "Feature"}
{"dataset_attributes": {"@spider": "usps_collection_boxes", "spider:collection_time": "2023-11-22T08:26:05.887177"}, "geometry": {"coordinates": [-117.596252339, 47.561122791], "type": "Point"}, "id": "TsRl2OdLnBbxD8R-AW0LE-3mBqs=", "properties": {"@spider": "usps_collection_boxes", "addr:city": "FOUR LAKES", "addr:country": "US", "addr:full": "10117 S ELECTRIC AVE", "addr:postcode": "99014", "addr:state": "WA", "amenity": "post_box", "brand": "United States Postal Service", "brand:wikidata": "Q668687", "collection_times": "Mo-Fr 16:15; Sa 09:30", "name": "USPS COLLECTION BOX - PO LOBBY", "note": "ON 12/24 AND 12/31, THIS BOX MAY BE COLLECTED AS EARLY AS 12 NOON.", "nsi_id": "unitedstatespostalservice-a77078", "operator": "United States Postal Service", "operator:short": "USPS", "operator:type": "public", "operator:wikidata": "Q668687", "ref": "9901400003"}, "type": "Feature"}
{"dataset_attributes": {"@spider": "usps_collection_boxes", "spider:collection_time": "2023-11-22T08:26:05.887177"}, "geometry": {"coordinates": [-117.15363, 47.659659], "type": "Point"}, "id": "QHsDdwWl3lwGLCoDTomGct1SkBU=", "properties": {"@spider": "usps_collection_boxes", "addr:city": "SPOKANE VALLEY", "addr:country": "US", "addr:full": "306 N BARKER RD", "addr:postcode": "99016", "addr:state": "WA", "amenity": "post_box", "brand": "United States Postal Service", "brand:wikidata": "Q668687", "collection_times": "Mo-Fr 17:00; Sa 10:00", "name": "USPS COLLECTION BOX - BLUE BOX", "note": "ON 12/24 AND 12/31, THIS BOX MAY BE COLLECTED AS EARLY AS 12 NOON.", "nsi_id": "unitedstatespostalservice-a77078", "operator": "United States Postal Service", "operator:short": "USPS", "operator:type": "public", "operator:wikidata": "Q668687", "ref": "9901600003"}, "type": "Feature"}
{"dataset_attributes": {"@spider": "usps_collection_boxes", "spider:collection_time": "2023-11-22T08:26:05.887177"}, "geometry": {"coordinates": [-117.15367, 47.65973], "type": "Point"}, "id": "oL3jO7ywgNr6WDtJEpFP3L6ewKA=", "properties": {"@spider": "usps_collection_boxes", "addr:city": "SPOKANE VALLEY", "addr:country": "US", "addr:full": "306 N BARKER RD", "addr:postcode": "99016", "addr:state": "WA", "amenity": "post_box", "brand": "United States Postal Service", "brand:wikidata": "Q668687", "collection_times": "Mo-Fr 17:00; Sa 10:00", "name": "USPS COLLECTION BOX - PO LOBBY", "note": "ON 12/24 AND 12/31, THIS BOX MAY BE COLLECTED AS EARLY AS 12 NOON.", "nsi_id": "unitedstatespostalservice-a77078", "operator": "United States Postal Service", "operator:short": "USPS", "operator:type": "public", "operator:wikidata": "Q668687", "ref": "9901600005"}, "type": "Feature"}
{"dataset_attributes": {"@spider": "usps_collection_boxes", "spider:collection_time": "2023-11-22T08:26:05.887177"}, "geometry": {"coordinates": [-117.153630185, 47.660049388], "type": "Point"}, "id": "46ZdI_kbqMs2zM9DV6ecKbLGeCY=", "properties": {"@spider": "usps_collection_boxes", "addr:city": "SPOKANE VALLEY", "addr:country": "US", "addr:full": "306 N BARKER RD", "addr:postcode": "99016", "addr:state": "WA", "amenity": "post_box", "brand": "United States Postal Service", "brand:wikidata": "Q668687", "collection_times": "Mo-Fr 17:00", "name": "USPS COLLECTION BOX - PO LOBBY", "note": "ON 12/24 AND 12/31, THIS BOX MAY BE COLLECTED AS EARLY AS 12 NOON.", "nsi_id": "unitedstatespostalservice-a77078", "operator": "United States Postal Service", "operator:short": "USPS", "operator:type": "public", "operator:wikidata": "Q668687", "ref": "9901600006"}, "type": "Feature"}
{"dataset_attributes": {"@spider": "usps_collection_boxes", "spider:collection_time": "2023-11-22T08:26:05.887177"}, "geometry": {"coordinates": [-117.15661, 47.279612], "type": "Point"}, "id": "B2Lv-8263vs2ET2qxsh37dtxjKI=", "properties": {"@spider": "usps_collection_boxes", "addr:city": "LATAH", "addr:country": "US", "addr:full": "123 W MARKET ST", "addr:postcode": "99018", "addr:state": "WA", "amenity": "post_box", "brand": "United States Postal Service", "brand:wikidata": "Q668687", "collection_times": "Mo-Fr 16:30; Sa 11:30", "name": "USPS COLLECTION BOX - PO LOBBY", "note": "ON 12/24 AND 12/31, THIS BOX MAY BE COLLECTED AS EARLY AS 12 NOON.", "nsi_id": "unitedstatespostalservice-a77078", "operator": "United States Postal Service", "operator:short": "USPS", "operator:type": "public", "operator:wikidata": "Q668687", "ref": "9901800002"}, "type": "Feature"}
{"dataset_attributes": {"@spider": "usps_collection_boxes", "spider:collection_time": "2023-11-22T08:26:05.887177"}, "geometry": {"coordinates": [-117.156613081, 47.279606503], "type": "Point"}, "id": "Vr2PMEp9j0wV-S5iO6SR3aVYpZY=", "properties": {"@spider": "usps_collection_boxes", "addr:city": "LATAH", "addr:country": "US", "addr:full": "123 W MARKET ST", "addr:postcode": "99018", "addr:state": "WA", "amenity": "post_box", "brand": "United States Postal Service", "brand:wikidata": "Q668687", "collection_times": "Mo-Fr 16:30; Sa 11:30", "name": "USPS COLLECTION BOX - PO LOBBY", "note": "ON 12/24 AND 12/31, THIS BOX MAY BE COLLECTED AS EARLY AS 12 NOON.", "nsi_id": "unitedstatespostalservice-a77078", "operator": "United States Postal Service", "operator:short": "USPS", "operator:type": "public", "operator:wikidata": "Q668687", "ref": "9901800004"}, "type": "Feature"}
{"dataset_attributes": {"@spider": "usps_collection_boxes", "spider:collection_time": "2023-11-22T08:26:05.887177"}, "geometry": {"coordinates": [-117.089698, 47.670456], "type": "Point"}, "id": "0YmS0NFePXN4ZPcEcMvJFeGlMJQ=", "properties": {"@spider": "usps_collection_boxes", "addr:city": "LIBERTY LAKE", "addr:country": "US", "addr:full": "1423 N MOLTER RD", "addr:postcode": "99019", "addr:state": "WA", "amenity": "post_box", "brand": "United States Postal Service", "brand:wikidata": "Q668687", "collection_times": "Mo-Fr 16:30; Sa 11:45", "name": "USPS COLLECTION BOX - BLUE BOX", "note": "ON 12/24 AND 12/31, THIS BOX MAY BE COLLECTED AS EARLY AS 12 NOON.", "nsi_id": "unitedstatespostalservice-a77078", "operator": "United States Postal Service", "operator:short": "USPS", "operator:type": "public", "operator:wikidata": "Q668687", "ref": "9901900003"}, "type": "Feature"}
{"dataset_attributes": {"@spider": "usps_collection_boxes", "spider:collection_time": "2023-11-22T08:26:05.887177"}, "geometry": {"coordinates": [-117.089702321, 47.670237], "type": "Point"}, "id": "BwS-eEBZqG0h_9mR2oaJyTf5XsA=", "properties": {"@spider": "usps_collection_boxes", "addr:city": "LIBERTY LAKE", "addr:country": "US", "addr:full": "1423 N MOLTER RD", "addr:postcode": "99019", "addr:state": "WA", "amenity": "post_box", "brand": "United States Postal Service", "brand:wikidata": "Q668687", "collection_times": "Mo-Fr 16:30; Sa 11:45", "name": "USPS COLLECTION BOX - PO LOBBY", "note": "ON 12/24 AND 12/31, THIS BOX MAY BE COLLECTED AS EARLY AS 12 NOON.", "nsi_id": "unitedstatespostalservice-a77078", "operator": "United States Postal Service", "operator:short": "USPS", "operator:type": "public", "operator:wikidata": "Q668687", "ref": "9901900005"}, "type": "Feature"}
{"dataset_attributes": {"@spider": "usps_collection_boxes", "spider:collection_time": "2023-11-22T08:26:05.887177"}, "geometry": {"coordinates": [-117.089702321, 47.670266923], "type": "Point"}, "id": "kY0U8qZHPbVDZ6BnBLGB3qTvaxE=", "properties": {"@spider": "usps_collection_boxes", "addr:city": "LIBERTY LAKE", "addr:country": "US", "addr:full": "1423 N MOLTER RD", "addr:postcode": "99019", "addr:state": "WA", "amenity": "post_box", "brand": "United States Postal Service", "brand:wikidata": "Q668687", "collection_times": "Mo-Fr 17:00; Sa 12:00", "name": "USPS COLLECTION BOX - PO LOBBY", "note": "ON 12/24 AND 12/31, THIS BOX MAY BE COLLECTED AS EARLY AS 12 NOON.", "nsi_id": "unitedstatespostalservice-a77078", "operator": "United States Postal Service", "operator:short": "USPS", "operator:type": "public", "operator:wikidata": "Q668687", "ref": "9901900007"}, "type": "Feature"}
{"dataset_attributes": {"@spider": "usps_collection_boxes", "spider:collection_time": "2023-11-22T08:26:05.887177"}, "geometry": {"coordinates": [-117.49593, 47.564112], "type": "Point"}, "id": "UZhER0gxzvmhzUlDNTWPH5cqxKE=", "properties": {"@spider": "usps_collection_boxes", "addr:city": "MARSHALL", "addr:country": "US", "addr:full": "9823 S MARSHALL AVE", "addr:postcode": "99020", "addr:state": "WA", "amenity": "post_box", "brand": "United States Postal Service", "brand:wikidata": "Q668687", "collection_times": "Mo-Fr 15:30; Sa 09:45", "name": "USPS COLLECTION BOX - BLUE BOX", "note": "ON 12/24 AND 12/31, THIS BOX MAY BE COLLECTED AS EARLY AS 12 NOON.", "nsi_id": "unitedstatespostalservice-a77078", "operator": "United States Postal Service", "operator:short": "USPS", "operator:type": "public", "operator:wikidata": "Q668687", "ref": "9902000001"}, "type": "Feature"}
{"dataset_attributes": {"@spider": "usps_collection_boxes", "spider:collection_time": "2023-11-22T08:26:05.887177"}, "geometry": {"coordinates": [-117.495911456, 47.564088621], "type": "Point"}, "id": "caL0Hxp7NN1kaOic35NH5IT5GvM=", "properties": {"@spider": "usps_collection_boxes", "addr:city": "MARSHALL", "addr:country": "US", "addr:full": "9823 S MARSHALL AVE", "addr:postcode": "99020", "addr:state": "WA", "amenity": "post_box", "brand": "United States Postal Service", "brand:wikidata": "Q668687", "collection_times": "Mo-Fr 16:30; Sa 10:00", "name": "USPS COLLECTION BOX - PO LOBBY", "note": "ON 12/24 AND 12/31, THIS BOX MAY BE COLLECTED AS EARLY AS 12 NOON.", "nsi_id": "unitedstatespostalservice-a77078", "operator": "United States Postal Service", "operator:short": "USPS", "operator:type": "public", "operator:wikidata": "Q668687", "ref": "9902000002"}, "type": "Feature"}
{"dataset_attributes": {"@spider": "usps_collection_boxes", "spider:collection_time": "2023-11-22T08:26:05.887177"}, "geometry": {"coordinates": [-117.355772, 47.763125], "type": "Point"}, "id": "jIsfoguKILWGrBJ7syHJaq2Qlc8=", "properties": {"@spider": "usps_collection_boxes", "addr:city": "MEAD", "addr:country": "US", "addr:full": "11616 N MARKET ST", "addr:postcode": "99021", "addr:state": "WA", "amenity": "post_box", "brand": "United States Postal Service", "brand:wikidata": "Q668687", "collection_times": "Mo-Fr 17:00; Sa 11:00", "name": "USPS COLLECTION BOX - PO LOBBY", "note": "ON 12/24 AND 12/31, THIS BOX MAY BE COLLECTED AS EARLY AS 12 NOON.", "nsi_id": "unitedstatespostalservice-a77078", "operator": "United States Postal Service", "operator:short": "USPS", "operator:type": "public", "operator:wikidata": "Q668687", "ref": "9902100001"}, "type": "Feature"}
{"dataset_attributes": {"@spider": "usps_collection_boxes", "spider:collection_time": "2023-11-22T08:26:05.887177"}, "geometry": {"coordinates": [-117.355772, 47.763125], "type": "Point"}, "id": "btBpZ_qnkJDQWMUHDJGxmHJNXeE=", "properties": {"@spider": "usps_collection_boxes", "addr:city": "MEAD", "addr:country": "US", "addr:full": "11616 N MARKET ST", "addr:postcode": "99021", "addr:state": "WA", "amenity": "post_box", "brand": "United States Postal Service", "brand:wikidata": "Q668687", "collection_times": "Mo-Fr 17:00; Sa 11:00", "name": "USPS COLLECTION BOX - BLUE BOX", "note": "ON 12/24 AND 12/31, THIS BOX MAY BE COLLECTED AS EARLY AS 12 NOON.", "nsi_id": "unitedstatespostalservice-a77078", "operator": "United States Postal Service", "operator:short": "USPS", "operator:type": "public", "operator:wikidata": "Q668687", "ref": "9902100002"}, "type": "Feature"}
{"dataset_attributes": {"@spider": "usps_collection_boxes", "spider:collection_time": "2023-11-22T08:26:05.887177"}, "geometry": {"coordinates": [-117.351239, 47.786346], "type": "Point"}, "id": "1O58ZYY0RmLoww7Ify9YeDLcWLU=", "properties": {"@spider": "usps_collection_boxes", "addr:city": "MEAD", "addr:country": "US", "addr:full": "14202 N MARKET ST", "addr:postcode": "99021", "addr:state": "WA", "amenity": "post_box", "brand": "United States Postal Service", "brand:wikidata": "Q668687", "collection_times": "Mo-Fr 12:30", "name": "USPS COLLECTION BOX - BLUE BOX", "note": "ON 12/24 AND 12/31, THIS BOX MAY BE COLLECTED AS EARLY AS 12 NOON.", "nsi_id": "unitedstatespostalservice-a77078", "operator": "United States Postal Service", "operator:short": "USPS", "operator:type": "public", "operator:wikidata": "Q668687", "ref": "9902100005"}, "type": "Feature"}
{"dataset_attributes": {"@spider": "usps_collection_boxes", "spider:collection_time": "2023-11-22T08:26:05.887177"}, "geometry": {"coordinates": [-117.355758815, 47.763147888], "type": "Point"}, "id": "6dX_Y4F-M2vB3ifWlxhcD9VTaTc=", "properties": {"@spider": "usps_collection_boxes", "addr:city": "MEAD", "addr:country": "US", "addr:full": "11616 N MARKET ST", "addr:postcode": "99021", "addr:state": "WA", "amenity": "post_box", "brand": "United States Postal Service", "brand:wikidata": "Q668687", "collection_times": "Mo-Fr 17:00; Sa 11:00", "name": "USPS COLLECTION BOX - PO LOBBY", "note": "ON 12/24 AND 12/31, THIS BOX MAY BE COLLECTED AS EARLY AS 12 NOON.", "nsi_id": "unitedstatespostalservice-a77078", "operator": "United States Postal Service", "operator:short": "USPS", "operator:type": "public", "operator:wikidata": "Q668687", "ref": "9902100006"}, "type": "Feature"}
{"dataset_attributes": {"@spider": "usps_collection_boxes", "spider:collection_time": "2023-11-22T08:26:05.887177"}, "geometry": {"coordinates": [-117.6789629337, 47.5718823508], "type": "Point"}, "id": "fg0daE3noBv6YHubuC2OwRbe52Q=", "properties": {"@spider": "usps_collection_boxes", "addr:city": "MEDICAL LAKE", "addr:country": "US", "addr:full": "322 E GRACE ST", "addr:postcode": "99022", "addr:state": "WA", "amenity": "post_box", "brand": "United States Postal Service", "brand:wikidata": "Q668687", "collection_times": "Mo-Fr 16:30; Sa 12:00", "name": "USPS COLLECTION BOX - BLUE BOX", "note": "ON 12/24 AND 12/31, THIS BOX MAY BE COLLECTED AS EARLY AS 12 NOON.", "nsi_id": "unitedstatespostalservice-a77078", "operator": "United States Postal Service", "operator:short": "USPS", "operator:type": "public", "operator:wikidata": "Q668687", "ref": "9902200001"}, "type": "Feature"}
{"dataset_attributes": {"@spider": "usps_collection_boxes", "spider:collection_time": "2023-11-22T08:26:05.887177"}, "geometry": {"coordinates": [-117.67894, 47.571891], "type": "Point"}, "id": "lTkrPCmEBCOlbf9R8S_Lv5US3yw=", "properties": {"@spider": "usps_collection_boxes", "addr:city": "MEDICAL LAKE", "addr:country": "US", "addr:full": "322 E GRACE ST", "addr:postcode": "99022", "addr:state": "WA", "amenity": "post_box", "brand": "United States Postal Service", "brand:wikidata": "Q668687", "collection_times": "Mo-Fr 16:30; Sa 12:00", "name": "USPS COLLECTION BOX - PO LOBBY", "note": "ON 12/24 AND 12/31, THIS BOX MAY BE COLLECTED AS EARLY AS 12 NOON.", "nsi_id": "unitedstatespostalservice-a77078", "operator": "United States Postal Service", "operator:short": "USPS", "operator:type": "public", "operator:wikidata": "Q668687", "ref": "9902200002"}, "type": "Feature"}
{"dataset_attributes": {"@spider": "usps_collection_boxes", "spider:collection_time": "2023-11-22T08:26:05.887177"}, "geometry": {"coordinates": [-117.681438, 47.581055], "type": "Point"}, "id": "aPI3espSCTu5LX40u1gnnVI0ci0=", "properties": {"@spider": "usps_collection_boxes", "addr:city": "MEDICAL LAKE", "addr:country": "US", "addr:full": "215 E HIGHWAY 902", "addr:postcode": "99022", "addr:state": "WA", "amenity": "post_box", "brand": "United States Postal Service", "brand:wikidata": "Q668687", "collection_times": "Mo-Sa 12:00", "name": "USPS COLLECTION BOX - BLUE BOX", "nsi_id": "unitedstatespostalservice-a77078", "operator": "United States Postal Service", "operator:short": "USPS", "operator:type": "public", "operator:wikidata": "Q668687", "ref": "9902200003"}, "type": "Feature"}
{"dataset_attributes": {"@spider": "usps_collection_boxes", "spider:collection_time": "2023-11-22T08:26:05.887177"}, "geometry": {"coordinates": [-117.678941832, 47.571892514], "type": "Point"}, "id": "J5KO1eGpFuPe1sl-CtKEaMIzLaY=", "properties": {"@spider": "usps_collection_boxes", "addr:city": "MEDICAL LAKE", "addr:country": "US", "addr:full": "322 E GRACE ST", "addr:postcode": "99022", "addr:state": "WA", "amenity": "post_box", "brand": "United States Postal Service", "brand:wikidata": "Q668687", "collection_times": "Mo-Fr 16:30; Sa 12:00", "name": "USPS COLLECTION BOX - PO LOBBY", "note": "ON 12/24 AND 12/31, THIS BOX MAY BE COLLECTED AS EARLY AS 12 NOON.", "nsi_id": "unitedstatespostalservice-a77078", "operator": "United States Postal Service", "operator:short": "USPS", "operator:type": "public", "operator:wikidata": "Q668687", "ref": "9902200004"}, "type": "Feature"}
{"dataset_attributes": {"@spider": "usps_collection_boxes", "spider:collection_time": "2023-11-22T08:26:05.887177"}, "geometry": {"coordinates": [-117.068466, 47.724407], "type": "Point"}, "id": "93qlrueMrI-7SdYN1MpTBtkiwM8=", "properties": {"@spider": "usps_collection_boxes", "addr:city": "NEWMAN LAKE", "addr:country": "US", "addr:full": "25125 E TRENT AVE", "addr:postcode": "99025", "addr:state": "WA", "amenity": "post_box", "brand": "United States Postal Service", "brand:wikidata": "Q668687", "collection_times": "Mo-Fr 16:45; Sa 11:00", "name": "USPS COLLECTION BOX - BLUE BOX", "note": "ON 12/24 AND 12/31, THIS BOX MAY BE COLLECTED AS EARLY AS 12 NOON.", "nsi_id": "unitedstatespostalservice-a77078", "operator": "United States Postal Service", "operator:short": "USPS", "operator:type": "public", "operator:wikidata": "Q668687", "ref": "9902500001"}, "type": "Feature"}
{"dataset_attributes": {"@spider": "usps_collection_boxes", "spider:collection_time": "2023-11-22T08:26:05.887177"}, "geometry": {"coordinates": [-117.068466, 47.724407], "type": "Point"}, "id": "IrmBK2yaNpn79QskOTRo-zHJcHY=", "properties": {"@spider": "usps_collection_boxes", "addr:city": "NEWMAN LAKE", "addr:country": "US", "addr:full": "25125 E TRENT AVE", "addr:postcode": "99025", "addr:state": "WA", "amenity": "post_box", "brand": "United States Postal Service", "brand:wikidata": "Q668687", "collection_times": "Mo-Fr 16:45; Sa 11:00", "name": "USPS COLLECTION BOX - PO LOBBY", "note": "ON 12/24 AND 12/31, THIS BOX MAY BE COLLECTED AS EARLY AS 12 NOON.", "nsi_id": "unitedstatespostalservice-a77078", "operator": "United States Postal Service", "operator:short": "USPS", "operator:type": "public", "operator:wikidata": "Q668687", "ref": "9902500002"}, "type": "Feature"}
{"dataset_attributes": {"@spider": "usps_collection_boxes", "spider:collection_time": "2023-11-22T08:26:05.887177"}, "geometry": {"coordinates": [-117.068610698, 47.72439041], "type": "Point"}, "id": "Bp5mXAyPeI6F54rPbWPSee44JEQ=", "properties": {"@spider": "usps_collection_boxes", "addr:city": "NEWMAN LAKE", "addr:country": "US", "addr:full": "25125 E TRENT AVE", "addr:postcode": "99025", "addr:state": "WA", "amenity": "post_box", "brand": "United States Postal Service", "brand:wikidata": "Q668687", "collection_times": "Mo-Fr 16:45; Sa 11:00", "name": "USPS COLLECTION BOX - PO LOBBY", "note": "ON 12/24 AND 12/31, THIS BOX MAY BE COLLECTED AS EARLY AS 12 NOON.", "nsi_id": "unitedstatespostalservice-a77078", "operator": "United States Postal Service", "operator:short": "USPS", "operator:type": "public", "operator:wikidata": "Q668687", "ref": "9902500003"}, "type": "Feature"}
{"dataset_attributes": {"@spider": "usps_collection_boxes", "spider:collection_time": "2023-11-22T08:26:05.887177"}, "geometry": {"coordinates": [-117.543495, 47.771652], "type": "Point"}, "id": "h2x6TdrhrQuDRLswRsET5Ovun6s=", "properties": {"@spider": "usps_collection_boxes", "addr:city": "NINE MILE FALLS", "addr:country": "US", "addr:full": "12522 N NINE MILE RD", "addr:postcode": "99026", "addr:state": "WA", "amenity": "post_box", "brand": "United States Postal Service", "brand:wikidata": "Q668687", "collection_times": "Mo-Fr 17:00; Sa 14:30", "name": "USPS COLLECTION BOX - BLUE BOX", "note": "ON 12/24 AND 12/31, THIS BOX MAY BE COLLECTED AS EARLY AS 12 NOON.", "nsi_id": "unitedstatespostalservice-a77078", "operator": "United States Postal Service", "operator:short": "USPS", "operator:type": "public", "operator:wikidata": "Q668687", "ref": "9902600001"}, "type": "Feature"}
{"dataset_attributes": {"@spider": "usps_collection_boxes", "spider:collection_time": "2023-11-22T08:26:05.887177"}, "geometry": {"coordinates": [-117.575859, 47.814522], "type": "Point"}, "id": "umAKrorQTPS4ETlkS053ymMkjtc=", "properties": {"@spider": "usps_collection_boxes", "addr:city": "NINE MILE FALLS", "addr:country": "US", "addr:full": "5978 HIGHWAY 291", "addr:postcode": "99026", "addr:state": "WA", "amenity": "post_box", "brand": "United States Postal Service", "brand:wikidata": "Q668687", "collection_times": "Mo-Fr 15:45; Sa 12:30", "name": "USPS COLLECTION BOX - BLUE BOX", "note": "ON 12/24 AND 12/31, THIS BOX MAY BE COLLECTED AS EARLY AS 12 NOON.", "nsi_id": "unitedstatespostalservice-a77078", "operator": "United States Postal Service", "operator:short": "USPS", "operator:type": "public", "operator:wikidata": "Q668687", "ref": "9902600002"}, "type": "Feature"}
{"dataset_attributes": {"@spider": "usps_collection_boxes", "spider:collection_time": "2023-11-22T08:26:05.887177"}, "geometry": {"coordinates": [-117.543284, 47.771465], "type": "Point"}, "id": "1ADOAVj1Sz3HUjifKwsgKLz12E4=", "properties": {"@spider": "usps_collection_boxes", "addr:city": "NINE MILE FALLS", "addr:country": "US", "addr:full": "12522 N NINE MILE RD", "addr:postcode": "99026", "addr:state": "WA", "amenity": "post_box", "brand": "United States Postal Service", "brand:wikidata": "Q668687", "collection_times": "Mo-Fr 17:00; Sa 14:30", "name": "USPS COLLECTION BOX - PO LOBBY", "note": "ON 12/24 AND 12/31, THIS BOX MAY BE COLLECTED AS EARLY AS 12 NOON.", "nsi_id": "unitedstatespostalservice-a77078", "operator": "United States Postal Service", "operator:short": "USPS", "operator:type": "public", "operator:wikidata": "Q668687", "ref": "9902600003"}, "type": "Feature"}
{"dataset_attributes": {"@spider": "usps_collection_boxes", "spider:collection_time": "2023-11-22T08:26:05.887177"}, "geometry": {"coordinates": [-117.544153985, 47.771140125], "type": "Point"}, "id": "ThKxtrAaCyiTR-2Bkxvf309afEA=", "properties": {"@spider": "usps_collection_boxes", "addr:city": "NINE MILE FALLS", "addr:country": "US", "addr:full": "12522 N NINE MILE RD", "addr:postcode": "99026", "addr:state": "WA", "amenity": "post_box", "brand": "United States Postal Service", "brand:wikidata": "Q668687", "collection_times": "Mo-Fr 17:00", "name": "USPS COLLECTION BOX - PO LOBBY", "note": "ON 12/24 AND 12/31, THIS BOX MAY BE COLLECTED AS EARLY AS 12 NOON.", "nsi_id": "unitedstatespostalservice-a77078", "operator": "United States Postal Service", "operator:short": "USPS", "operator:type": "public", "operator:wikidata": "Q668687", "ref": "9902600004"}, "type": "Feature"}
{"dataset_attributes": {"@spider": "usps_collection_boxes", "spider:collection_time": "2023-11-22T08:26:05.887177"}, "geometry": {"coordinates": [-117.1139589684, 47.7000979882], "type": "Point"}, "id": "LwqpASTL6Ks3EnxscqfmyNQyaPg=", "properties": {"@spider": "usps_collection_boxes", "addr:city": "OTIS ORCHARDS", "addr:country": "US", "addr:full": "21616 E WELLESLEY AVE", "addr:postcode": "99027", "addr:state": "WA", "amenity": "post_box", "brand": "United States Postal Service", "brand:wikidata": "Q668687", "collection_times": "Mo-Fr 16:45; Sa 11:45", "name": "USPS COLLECTION BOX - BLUE BOX", "note": "ON 12/24 AND 12/31, THIS BOX MAY BE COLLECTED AS EARLY AS 12 NOON.", "nsi_id": "unitedstatespostalservice-a77078", "operator": "United States Postal Service", "operator:short": "USPS", "operator:type": "public", "operator:wikidata": "Q668687", "ref": "9902700001"}, "type": "Feature"}
{"dataset_attributes": {"@spider": "usps_collection_boxes", "spider:collection_time": "2023-11-22T08:26:05.887177"}, "geometry": {"coordinates": [-117.1139560347, 47.7001179791], "type": "Point"}, "id": "LavgPIjn4CDfcpve1ExwJVY6QKs=", "properties": {"@spider": "usps_collection_boxes", "addr:city": "OTIS ORCHARDS", "addr:country": "US", "addr:full": "21616 E WELLESLEY AVE", "addr:postcode": "99027", "addr:state": "WA", "amenity": "post_box", "brand": "United States Postal Service", "brand:wikidata": "Q668687", "collection_times": "Mo-Fr 17:00; Sa 12:00", "name": "USPS COLLECTION BOX - PO LOBBY", "note": "ON 12/24 AND 12/31, THIS BOX MAY BE COLLECTED AS EARLY AS 12 NOON.", "nsi_id": "unitedstatespostalservice-a77078", "operator": "United States Postal Service", "operator:short": "USPS", "operator:type": "public", "operator:wikidata": "Q668687", "ref": "9902700003"}, "type": "Feature"}
{"dataset_attributes": {"@spider": "usps_collection_boxes", "spider:collection_time": "2023-11-22T08:26:05.887177"}, "geometry": {"coordinates": [-117.1139560347, 47.7001179791], "type": "Point"}, "id": "5x-QBDVFNoU0aN1VKPEwTvDrwpM=", "properties": {"@spider": "usps_collection_boxes", "addr:city": "OTIS ORCHARDS", "addr:country": "US", "addr:full": "21616 E WELLESLEY AVE", "addr:postcode": "99027", "addr:state": "WA", "amenity": "post_box", "brand": "United States Postal Service", "brand:wikidata": "Q668687", "collection_times": "Mo-Fr 17:00; Sa 11:30", "name": "USPS COLLECTION BOX - PO LOBBY", "note": "ON 12/24 AND 12/31, THIS BOX MAY BE COLLECTED AS EARLY AS 12 NOON.", "nsi_id": "unitedstatespostalservice-a77078", "operator": "United States Postal Service", "operator:short": "USPS", "operator:type": "public", "operator:wikidata": "Q668687", "ref": "9902700004"}, "type": "Feature"}
{"dataset_attributes": {"@spider": "usps_collection_boxes", "spider:collection_time": "2023-11-22T08:26:05.887177"}, "geometry": {"coordinates": [-117.880661, 47.668618], "type": "Point"}, "id": "dLSlkPKCEB_ECBWr3SmaoVbiPhk=", "properties": {"@spider": "usps_collection_boxes", "addr:city": "REARDAN", "addr:country": "US", "addr:full": "155 S LAKE ST", "addr:postcode": "99029", "addr:state": "WA", "amenity": "post_box", "brand": "United States Postal Service", "brand:wikidata": "Q668687", "collection_times": "Mo-Fr 16:00; Sa 17:00", "name": "USPS COLLECTION BOX - BLUE BOX", "note": "ON 12/24 AND 12/31, THIS BOX MAY BE COLLECTED AS EARLY AS 12 NOON.", "nsi_id": "unitedstatespostalservice-a77078", "operator": "United States Postal Service", "operator:short": "USPS", "operator:type": "public", "operator:wikidata": "Q668687", "ref": "9902900001"}, "type": "Feature"}
{"dataset_attributes": {"@spider": "usps_collection_boxes", "spider:collection_time": "2023-11-22T08:26:05.887177"}, "geometry": {"coordinates": [-117.880661, 47.668618], "type": "Point"}, "id": "JdviMJEFFdDVb21bhrz0YVzizeo=", "properties": {"@spider": "usps_collection_boxes", "addr:city": "REARDAN", "addr:country": "US", "addr:full": "155 S LAKE ST", "addr:postcode": "99029", "addr:state": "WA", "amenity": "post_box", "brand": "United States Postal Service", "brand:wikidata": "Q668687", "collection_times": "Mo-Fr 16:00; Sa 09:00", "name": "USPS COLLECTION BOX - PO LOBBY", "note": "ON 12/24 AND 12/31, THIS BOX MAY BE COLLECTED AS EARLY AS 12 NOON.", "nsi_id": "unitedstatespostalservice-a77078", "operator": "United States Postal Service", "operator:short": "USPS", "operator:type": "public", "operator:wikidata": "Q668687", "ref": "9902900002"}, "type": "Feature"}
{"dataset_attributes": {"@spider": "usps_collection_boxes", "spider:collection_time": "2023-11-22T08:26:05.887177"}, "geometry": {"coordinates": [-117.880661266, 47.668616329], "type": "Point"}, "id": "rmbpuH2MUahOyC9EfZcUfcLKUEw=", "properties": {"@spider": "usps_collection_boxes", "addr:city": "REARDAN", "addr:country": "US", "addr:full": "155 S LAKE ST", "addr:postcode": "99029", "addr:state": "WA", "amenity": "post_box", "brand": "United States Postal Service", "brand:wikidata": "Q668687", "collection_times": "Mo-Fr 16:30", "name": "USPS COLLECTION BOX - PO LOBBY", "note": "ON 12/24 AND 12/31, THIS BOX MAY BE COLLECTED AS EARLY AS 12 NOON.", "nsi_id": "unitedstatespostalservice-a77078", "operator": "United States Postal Service", "operator:short": "USPS", "operator:type": "public", "operator:wikidata": "Q668687", "ref": "9902900003"}, "type": "Feature"}
{"dataset_attributes": {"@spider": "usps_collection_boxes", "spider:collection_time": "2023-11-22T08:26:05.887177"}, "geometry": {"coordinates": [-117.13318, 47.452297], "type": "Point"}, "id": "vtrjjHbUCRPIQ_8kdt_aGE00rRI=", "properties": {"@spider": "usps_collection_boxes", "addr:city": "ROCKFORD", "addr:country": "US", "addr:full": "36 W EMMA ST", "addr:postcode": "99030", "addr:state": "WA", "amenity": "post_box", "brand": "United States Postal Service", "brand:wikidata": "Q668687", "collection_times": "Mo-Fr 16:15; Sa 10:00", "name": "USPS COLLECTION BOX - BLUE BOX", "note": "ON 12/24 AND 12/31, THIS BOX MAY BE COLLECTED AS EARLY AS 12 NOON.", "nsi_id": "unitedstatespostalservice-a77078", "operator": "United States Postal Service", "operator:short": "USPS", "operator:type": "public", "operator:wikidata": "Q668687", "ref": "9903000001"}, "type": "Feature"}
{"dataset_attributes": {"@spider": "usps_collection_boxes", "spider:collection_time": "2023-11-22T08:26:05.887177"}, "geometry": {"coordinates": [-117.133248, 47.452465], "type": "Point"}, "id": "ZDU67x2bsJm0CkshxEumSLcGjeU=", "properties": {"@spider": "usps_collection_boxes", "addr:city": "ROCKFORD", "addr:country": "US", "addr:full": "36 W EMMA ST", "addr:postcode": "99030", "addr:state": "WA", "amenity": "post_box", "brand": "United States Postal Service", "brand:wikidata": "Q668687", "collection_times": "Mo-Fr 16:15; Sa 13:00", "name": "USPS COLLECTION BOX - PO LOBBY", "note": "ON 12/24 AND 12/31, THIS BOX MAY BE COLLECTED AS EARLY AS 12 NOON.", "nsi_id": "unitedstatespostalservice-a77078", "operator": "United States Postal Service", "operator:short": "USPS", "operator:type": "public", "operator:wikidata": "Q668687", "ref": "9903000002"}, "type": "Feature"}
{"dataset_attributes": {"@spider": "usps_collection_boxes", "spider:collection_time": "2023-11-22T08:26:05.887177"}, "geometry": {"coordinates": [-117.133183037, 47.452297493], "type": "Point"}, "id": "4sI3Dfz1T0kC0LJS1prS2_3WQ_U=", "properties": {"@spider": "usps_collection_boxes", "addr:city": "ROCKFORD", "addr:country": "US", "addr:full": "36 W EMMA ST", "addr:postcode": "99030", "addr:state": "WA", "amenity": "post_box", "brand": "United States Postal Service", "brand:wikidata": "Q668687", "collection_times": "Mo-Fr 16:15", "name": "USPS COLLECTION BOX - PO LOBBY", "note": "ON 12/24 AND 12/31, THIS BOX MAY BE COLLECTED AS EARLY AS 12 NOON.", "nsi_id": "unitedstatespostalservice-a77078", "operator": "United States Postal Service", "operator:short": "USPS", "operator:type": "public", "operator:wikidata": "Q668687", "ref": "9903000003"}, "type": "Feature"}
{"dataset_attributes": {"@spider": "usps_collection_boxes", "spider:collection_time": "2023-11-22T08:26:05.887177"}, "geometry": {"coordinates": [-117.379557, 47.429451], "type": "Point"}, "id": "mLQKJg1WCZtld6kR0_qinH7gCL8=", "properties": {"@spider": "usps_collection_boxes", "addr:city": "SPANGLE", "addr:country": "US", "addr:full": "230 N MAIN AVE", "addr:postcode": "99031", "addr:state": "WA", "amenity": "post_box", "brand": "United States Postal Service", "brand:wikidata": "Q668687", "collection_times": "Mo-Fr 16:00; Sa 10:30", "name": "USPS COLLECTION BOX - BLUE BOX", "note": "ON 12/24 AND 12/31, THIS BOX MAY BE COLLECTED AS EARLY AS 12 NOON.", "nsi_id": "unitedstatespostalservice-a77078", "operator": "United States Postal Service", "operator:short": "USPS", "operator:type": "public", "operator:wikidata": "Q668687", "ref": "9903100001"}, "type": "Feature"}
{"dataset_attributes": {"@spider": "usps_collection_boxes", "spider:collection_time": "2023-11-22T08:26:05.887177"}, "geometry": {"coordinates": [-117.379553347, 47.429631555], "type": "Point"}, "id": "z5hcFBDkc3zbi1XmITjAJlKVk9w=", "properties": {"@spider": "usps_collection_boxes", "addr:city": "SPANGLE", "addr:country": "US", "addr:full": "230 N MAIN AVE", "addr:postcode": "99031", "addr:state": "WA", "amenity": "post_box", "brand": "United States Postal Service", "brand:wikidata": "Q668687", "collection_times": "Mo-Fr 16:00", "name": "USPS COLLECTION BOX - PO LOBBY", "note": "ON 12/24 AND 12/31, THIS BOX MAY BE COLLECTED AS EARLY AS 12 NOON.", "nsi_id": "unitedstatespostalservice-a77078", "operator": "United States Postal Service", "operator:short": "USPS", "operator:type": "public", "operator:wikidata": "Q668687", "ref": "9903100002"}, "type": "Feature"}
{"dataset_attributes": {"@spider": "usps_collection_boxes", "spider:collection_time": "2023-11-22T08:26:05.887177"}, "geometry": {"coordinates": [-117.979349, 47.299942], "type": "Point"}, "id": "tc95QPjY-b88H5agQaJUarpr4zM=", "properties": {"@spider": "usps_collection_boxes", "addr:city": "SPRAGUE", "addr:country": "US", "addr:full": "319 W 1ST ST", "addr:postcode": "99032", "addr:state": "WA", "amenity": "post_box", "brand": "United States Postal Service", "brand:wikidata": "Q668687", "collection_times": "Mo-Fr 17:00; Sa 13:00", "name": "USPS COLLECTION BOX - PO LOBBY", "note": "ON 12/24 AND 12/31, THIS BOX MAY BE COLLECTED AS EARLY AS 12 NOON.", "nsi_id": "unitedstatespostalservice-a77078", "operator": "United States Postal Service", "operator:short": "USPS", "operator:type": "public", "operator:wikidata": "Q668687", "ref": "9903200000"}, "type": "Feature"}
{"dataset_attributes": {"@spider": "usps_collection_boxes", "spider:collection_time": "2023-11-22T08:26:05.887177"}, "geometry": {"coordinates": [-117.979348521, 47.299935511], "type": "Point"}, "id": "PShyzPjF_tYbF_Sy0dfhsnaZa10=", "properties": {"@spider": "usps_collection_boxes", "addr:city": "SPRAGUE", "addr:country": "US", "addr:full": "319 W 1ST ST", "addr:postcode": "99032", "addr:state": "WA", "amenity": "post_box", "brand": "United States Postal Service", "brand:wikidata": "Q668687", "collection_times": "Mo-Fr 17:00", "name": "USPS COLLECTION BOX - PO LOBBY", "note": "ON 12/24 AND 12/31, THIS BOX MAY BE COLLECTED AS EARLY AS 12 NOON.", "nsi_id": "unitedstatespostalservice-a77078", "operator": "United States Postal Service", "operator:short": "USPS", "operator:type": "public", "operator:wikidata": "Q668687", "ref": "9903200001"}, "type": "Feature"}
{"dataset_attributes": {"@spider": "usps_collection_boxes", "spider:collection_time": "2023-11-22T08:26:05.887177"}, "geometry": {"coordinates": [-117.072969, 47.221645], "type": "Point"}, "id": "hFqscRVFMYkW-PxpDomoI5-YcA4=", "properties": {"@spider": "usps_collection_boxes", "addr:city": "TEKOA", "addr:country": "US", "addr:full": "250 S CROSBY ST", "addr:postcode": "99033", "addr:state": "WA", "amenity": "post_box", "brand": "United States Postal Service", "brand:wikidata": "Q668687", "collection_times": "Mo-Fr 16:15; Sa 10:00", "name": "USPS COLLECTION BOX - BLUE BOX", "note": "ON 12/24 AND 12/31, THIS BOX MAY BE COLLECTED AS EARLY AS 12 NOON.", "nsi_id": "unitedstatespostalservice-a77078", "operator": "United States Postal Service", "operator:short": "USPS", "operator:type": "public", "operator:wikidata": "Q668687", "ref": "9903300001"}, "type": "Feature"}
{"dataset_attributes": {"@spider": "usps_collection_boxes", "spider:collection_time": "2023-11-22T08:26:05.887177"}, "geometry": {"coordinates": [-117.072969, 47.221645], "type": "Point"}, "id": "90CdBdrYDayEY5CjST5_uyG4aJc=", "properties": {"@spider": "usps_collection_boxes", "addr:city": "TEKOA", "addr:country": "US", "addr:full": "250 S CROSBY ST", "addr:postcode": "99033", "addr:state": "WA", "amenity": "post_box", "brand": "United States Postal Service", "brand:wikidata": "Q668687", "collection_times": "Mo-Fr 16:15; Sa 10:00", "name": "USPS COLLECTION BOX - PO LOBBY", "note": "ON 12/24 AND 12/31, THIS BOX MAY BE COLLECTED AS EARLY AS 12 NOON.", "nsi_id": "unitedstatespostalservice-a77078", "operator": "United States Postal Service", "operator:short": "USPS", "operator:type": "public", "operator:wikidata": "Q668687", "ref": "9903300002"}, "type": "Feature"}
{"dataset_attributes": {"@spider": "usps_collection_boxes", "spider:collection_time": "2023-11-22T08:26:05.887177"}, "geometry": {"coordinates": [-117.072955361, 47.221639695], "type": "Point"}, "id": "TsmvHnIew1mjT8vSzefVkUMB-vQ=", "properties": {"@spider": "usps_collection_boxes", "addr:city": "TEKOA", "addr:country": "US", "addr:full": "250 S CROSBY ST", "addr:postcode": "99033", "addr:state": "WA", "amenity": "post_box", "brand": "United States Postal Service", "brand:wikidata": "Q668687", "collection_times": "Mo-Fr 16:15", "name": "USPS COLLECTION BOX - PO LOBBY", "note": "ON 12/24 AND 12/31, THIS BOX MAY BE COLLECTED AS EARLY AS 12 NOON.", "nsi_id": "unitedstatespostalservice-a77078", "operator": "United States Postal Service", "operator:short": "USPS", "operator:type": "public", "operator:wikidata": "Q668687", "ref": "9903300003"}, "type": "Feature"}
{"dataset_attributes": {"@spider": "usps_collection_boxes", "spider:collection_time": "2023-11-22T08:26:05.887177"}, "geometry": {"coordinates": [-117.23882, 47.536777], "type": "Point"}, "id": "J98jK79P5stJPvJ4SVTUAeTJV6U=", "properties": {"@spider": "usps_collection_boxes", "addr:city": "VALLEYFORD", "addr:country": "US", "addr:full": "12809 S MADISON RD", "addr:postcode": "99036", "addr:state": "WA", "amenity": "post_box", "brand": "United States Postal Service", "brand:wikidata": "Q668687", "collection_times": "Mo-Fr 16:15; Sa 10:00", "name": "USPS COLLECTION BOX - BLUE BOX", "note": "ON 12/24 AND 12/31, THIS BOX MAY BE COLLECTED AS EARLY AS 12 NOON.", "nsi_id": "unitedstatespostalservice-a77078", "operator": "United States Postal Service", "operator:short": "USPS", "operator:type": "public", "operator:wikidata": "Q668687", "ref": "9903600001"}, "type": "Feature"}
{"dataset_attributes": {"@spider": "usps_collection_boxes", "spider:collection_time": "2023-11-22T08:26:05.887177"}, "geometry": {"coordinates": [-117.196836, 47.52161], "type": "Point"}, "id": "uEf5d-2fuFcEapiasbxfmVyKL70=", "properties": {"@spider": "usps_collection_boxes", "addr:city": "VALLEYFORD", "addr:country": "US", "addr:full": "14510 E STATE ROAD 27", "addr:postcode": "99036", "addr:state": "WA", "amenity": "post_box", "brand": "United States Postal Service", "brand:wikidata": "Q668687", "collection_times": "Mo-Sa 10:30", "name": "USPS COLLECTION BOX - BLUE BOX", "nsi_id": "unitedstatespostalservice-a77078", "operator": "United States Postal Service", "operator:short": "USPS", "operator:type": "public", "operator:wikidata": "Q668687", "ref": "9903600002"}, "type": "Feature"}
{"dataset_attributes": {"@spider": "usps_collection_boxes", "spider:collection_time": "2023-11-22T08:26:05.887177"}, "geometry": {"coordinates": [-117.23882, 47.536777], "type": "Point"}, "id": "AXxY8S-dBOyYDx0jlzx4uU9_M9E=", "properties": {"@spider": "usps_collection_boxes", "addr:city": "VALLEYFORD", "addr:country": "US", "addr:full": "12809 S MADISON RD", "addr:postcode": "99036", "addr:state": "WA", "amenity": "post_box", "brand": "United States Postal Service", "brand:wikidata": "Q668687", "collection_times": "Mo-Fr 16:15; Sa 10:00", "name": "USPS COLLECTION BOX - PO LOBBY", "note": "ON 12/24 AND 12/31, THIS BOX MAY BE COLLECTED AS EARLY AS 12 NOON.", "nsi_id": "unitedstatespostalservice-a77078", "operator": "United States Postal Service", "operator:short": "USPS", "operator:type": "public", "operator:wikidata": "Q668687", "ref": "9903600003"}, "type": "Feature"}
{"dataset_attributes": {"@spider": "usps_collection_boxes", "spider:collection_time": "2023-11-22T08:26:05.887177"}, "geometry": {"coordinates": [-117.238822277, 47.536775162], "type": "Point"}, "id": "yb6KfQQjfBllSELZZdaVK18NsJI=", "properties": {"@spider": "usps_collection_boxes", "addr:city": "VALLEYFORD", "addr:country": "US", "addr:full": "12809 S MADISON RD", "addr:postcode": "99036", "addr:state": "WA", "amenity": "post_box", "brand": "United States Postal Service", "brand:wikidata": "Q668687", "collection_times": "Mo-Fr 16:30; Sa 10:00", "name": "USPS COLLECTION BOX - PO LOBBY", "note": "ON 12/24 AND 12/31, THIS BOX MAY BE COLLECTED AS EARLY AS 12 NOON.", "nsi_id": "unitedstatespostalservice-a77078", "operator": "United States Postal Service", "operator:short": "USPS", "operator:type": "public", "operator:wikidata": "Q668687", "ref": "9903600004"}, "type": "Feature"}
{"dataset_attributes": {"@spider": "usps_collection_boxes", "spider:collection_time": "2023-11-22T08:26:05.887177"}, "geometry": {"coordinates": [-117.19378, 47.658216], "type": "Point"}, "id": "w4OfCMg6vY1NoSxi4VNIoVkrP5c=", "properties": {"@spider": "usps_collection_boxes", "addr:city": "SPOKANE VALLEY", "addr:country": "US", "addr:full": "15609 E SPRAGUE AVE", "addr:postcode": "99037", "addr:state": "WA", "amenity": "post_box", "brand": "United States Postal Service", "brand:wikidata": "Q668687", "collection_times": "Mo-Sa 10:00", "name": "USPS COLLECTION BOX - BLUE BOX", "nsi_id": "unitedstatespostalservice-a77078", "operator": "United States Postal Service", "operator:short": "USPS", "operator:type": "public", "operator:wikidata": "Q668687", "ref": "9903700004"}, "type": "Feature"}
{"dataset_attributes": {"@spider": "usps_collection_boxes", "spider:collection_time": "2023-11-22T08:26:05.887177"}, "geometry": {"coordinates": [-117.20057, 47.657081], "type": "Point"}, "id": "nUQ4ppG7-jqIiQIpCTsyRKvG0-c=", "properties": {"@spider": "usps_collection_boxes", "addr:city": "SPOKANE VALLEY", "addr:country": "US", "addr:full": "15202 E SPRAGUE AVE", "addr:postcode": "99037", "addr:state": "WA", "amenity": "post_box", "brand": "United States Postal Service", "brand:wikidata": "Q668687", "collection_times": "Mo-Fr 17:00; Sa 15:00", "name": "USPS COLLECTION BOX - BLUE BOX", "note": "ON 12/24 AND 12/31, THIS BOX MAY BE COLLECTED AS EARLY AS 12 NOON.", "nsi_id": "unitedstatespostalservice-a77078", "operator": "United States Postal Service", "operator:short": "USPS", "operator:type": "public", "operator:wikidata": "Q668687", "ref": "9903700005"}, "type": "Feature"}
{"dataset_attributes": {"@spider": "usps_collection_boxes", "spider:collection_time": "2023-11-22T08:26:05.887177"}, "geometry": {"coordinates": [-117.200666, 47.657108], "type": "Point"}, "id": "cE1ByHd_jh0cbLp5bVGswt82V_c=", "properties": {"@spider": "usps_collection_boxes", "addr:city": "SPOKANE VALLEY", "addr:country": "US", "addr:full": "15202 E SPRAGUE AVE", "addr:postcode": "99037", "addr:state": "WA", "amenity": "post_box", "brand": "United States Postal Service", "brand:wikidata": "Q668687", "collection_times": "Mo-Fr 17:00; Sa 15:00", "name": "USPS COLLECTION BOX - BLUE BOX", "note": "ON 12/24 AND 12/31, THIS BOX MAY BE COLLECTED AS EARLY AS 12 NOON.", "nsi_id": "unitedstatespostalservice-a77078", "operator": "United States Postal Service", "operator:short": "USPS", "operator:type": "public", "operator:wikidata": "Q668687", "ref": "9903700006"}, "type": "Feature"}
{"dataset_attributes": {"@spider": "usps_collection_boxes", "spider:collection_time": "2023-11-22T08:26:05.887177"}, "geometry": {"coordinates": [-117.200666, 47.657108], "type": "Point"}, "id": "8Va2KHcwBBEkMCbHM-_z2O7ZQvQ=", "properties": {"@spider": "usps_collection_boxes", "addr:city": "SPOKANE VALLEY", "addr:country": "US", "addr:full": "15202 E SPRAGUE AVE", "addr:postcode": "99037", "addr:state": "WA", "amenity": "post_box", "brand": "United States Postal Service", "brand:wikidata": "Q668687", "collection_times": "Mo-Fr 17:00; Sa 15:00", "name": "USPS COLLECTION BOX - PO LOBBY", "note": "ON 12/24 AND 12/31, THIS BOX MAY BE COLLECTED AS EARLY AS 12 NOON.", "nsi_id": "unitedstatespostalservice-a77078", "operator": "United States Postal Service", "operator:short": "USPS", "operator:type": "public", "operator:wikidata": "Q668687", "ref": "9903700008"}, "type": "Feature"}
{"dataset_attributes": {"@spider": "usps_collection_boxes", "spider:collection_time": "2023-11-22T08:26:05.887177"}, "geometry": {"coordinates": [-117.200063886, 47.657077495], "type": "Point"}, "id": "IrYiRCTPU_aOP6fMEcJP7BDb-UU=", "properties": {"@spider": "usps_collection_boxes", "addr:city": "SPOKANE VALLEY", "addr:country": "US", "addr:full": "15202 E SPRAGUE AVE", "addr:postcode": "99037", "addr:state": "WA", "amenity": "post_box", "brand": "United States Postal Service", "brand:wikidata": "Q668687", "collection_times": "Mo-Fr 17:00", "name": "USPS COLLECTION BOX - PO LOBBY", "note": "ON 12/24 AND 12/31, THIS BOX MAY BE COLLECTED AS EARLY AS 12 NOON.", "nsi_id": "unitedstatespostalservice-a77078", "operator": "United States Postal Service", "operator:short": "USPS", "operator:type": "public", "operator:wikidata": "Q668687", "ref": "9903700013"}, "type": "Feature"}
{"dataset_attributes": {"@spider": "usps_collection_boxes", "spider:collection_time": "2023-11-22T08:26:05.887177"}, "geometry": {"coordinates": [-117.227844, 47.342298], "type": "Point"}, "id": "LGLuhIIaWo47asWyXp3CJuaAxpY=", "properties": {"@spider": "usps_collection_boxes", "addr:city": "WAVERLY", "addr:country": "US", "addr:full": "170 N COMMERCIAL ST", "addr:postcode": "99039", "addr:state": "WA", "amenity": "post_box", "brand": "United States Postal Service", "brand:wikidata": "Q668687", "collection_times": "Mo-Fr 11:15; Sa 09:15", "name": "USPS COLLECTION BOX - PO LOBBY", "nsi_id": "unitedstatespostalservice-a77078", "operator": "United States Postal Service", "operator:short": "USPS", "operator:type": "public", "operator:wikidata": "Q668687", "ref": "9903900002"}, "type": "Feature"}
{"dataset_attributes": {"@spider": "usps_collection_boxes", "spider:collection_time": "2023-11-22T08:26:05.887177"}, "geometry": {"coordinates": [-117.227867015, 47.342303363], "type": "Point"}, "id": "F7YXKniheKkIqJOMQrCFJa2tJ8o=", "properties": {"@spider": "usps_collection_boxes", "addr:city": "WAVERLY", "addr:country": "US", "addr:full": "170 N COMMERCIAL ST", "addr:postcode": "99039", "addr:state": "WA", "amenity": "post_box", "brand": "United States Postal Service", "brand:wikidata": "Q668687", "collection_times": "Mo-Fr 11:30; Sa 09:30", "name": "USPS COLLECTION BOX - PO LOBBY", "nsi_id": "unitedstatespostalservice-a77078", "operator": "United States Postal Service", "operator:short": "USPS", "operator:type": "public", "operator:wikidata": "Q668687", "ref": "9903900003"}, "type": "Feature"}
{"dataset_attributes": {"@spider": "usps_collection_boxes", "spider:collection_time": "2023-11-22T08:26:05.887177"}, "geometry": {"coordinates": [-117.989569, 47.88908], "type": "Point"}, "id": "85nM9GqQIYPuOEr9xlI9mdNs5uk=", "properties": {"@spider": "usps_collection_boxes", "addr:city": "WELLPINIT", "addr:country": "US", "addr:full": "6210 FORD WELLPINIT RD", "addr:postcode": "99040", "addr:state": "WA", "amenity": "post_box", "brand": "United States Postal Service", "brand:wikidata": "Q668687", "collection_times": "Mo-Fr 15:00; Sa 11:00", "name": "USPS COLLECTION BOX - BLUE BOX", "note": "ON 12/24 AND 12/31, THIS BOX MAY BE COLLECTED AS EARLY AS 12 NOON.", "nsi_id": "unitedstatespostalservice-a77078", "operator": "United States Postal Service", "operator:short": "USPS", "operator:type": "public", "operator:wikidata": "Q668687", "ref": "9904000001"}, "type": "Feature"}
{"dataset_attributes": {"@spider": "usps_collection_boxes", "spider:collection_time": "2023-11-22T08:26:05.887177"}, "geometry": {"coordinates": [-117.989569, 47.88908], "type": "Point"}, "id": "BMzOU3giZxlW92uY16Ne1DlQU10=", "properties": {"@spider": "usps_collection_boxes", "addr:city": "WELLPINIT", "addr:country": "US", "addr:full": "6210 FORD WELLPINIT RD", "addr:postcode": "99040", "addr:state": "WA", "amenity": "post_box", "brand": "United States Postal Service", "brand:wikidata": "Q668687", "collection_times": "Mo-Fr 15:00; Sa 11:00", "name": "USPS COLLECTION BOX - PO LOBBY", "note": "ON 12/24 AND 12/31, THIS BOX MAY BE COLLECTED AS EARLY AS 12 NOON.", "nsi_id": "unitedstatespostalservice-a77078", "operator": "United States Postal Service", "operator:short": "USPS", "operator:type": "public", "operator:wikidata": "Q668687", "ref": "9904000002"}, "type": "Feature"}
{"dataset_attributes": {"@spider": "usps_collection_boxes", "spider:collection_time": "2023-11-22T08:26:05.887177"}, "geometry": {"coordinates": [-117.989569507, 47.889072], "type": "Point"}, "id": "AifAyd0oJYT-taACkaGwYNK6cxs=", "properties": {"@spider": "usps_collection_boxes", "addr:city": "WELLPINIT", "addr:country": "US", "addr:full": "6210 FORD WELLPINIT RD", "addr:postcode": "99040", "addr:state": "WA", "amenity": "post_box", "brand": "United States Postal Service", "brand:wikidata": "Q668687", "collection_times": "Mo-Fr 15:00; Sa 11:00", "name": "USPS COLLECTION BOX - PO LOBBY", "note": "ON 12/24 AND 12/31, THIS BOX MAY BE COLLECTED AS EARLY AS 12 NOON.", "nsi_id": "unitedstatespostalservice-a77078", "operator": "United States Postal Service", "operator:short": "USPS", "operator:type": "public", "operator:wikidata": "Q668687", "ref": "9904000003"}, "type": "Feature"}
