{"geometry": {"coordinates": [-117.837597, 48.357998], "type": "Point"}, "id": "B8DHSdhh6JanYJY2AEsNJU4X32I=", "properties": {"@source_uri": "https://tools.usps.com/UspsToolsRestServices/rest/POLocator/findLocations", "@spider": "usps_collection_boxes", "addr:city": "ADDY", "addr:country": "US", "addr:postcode": "99101", "addr:state": "WA", "addr:street_address": "1386 MAIN ST", "amenity": "post_box", "collection_times": "Mo-Fr 17:00; Sa 14:00", "note": "ON 12/24 AND 12/31, THIS BOX MAY BE COLLECTED AS EARLY AS 12 NOON.", "nsi_id": "unitedstatespostalservice-a77078", "operator": "United States Postal Service", "operator:short": "USPS", "operator:type": "public", "operator:wikidata": "Q668687", "ref": "9910100001"}, "type": "Feature"}
{"geometry": {"coordinates": [-117.837827, 48.35774], "type": "Point"}, "id": "iA3TiEu1CLVJmie7nn37ZsySTWg=", "properties": {"@source_uri": "https://tools.usps.com/UspsToolsRestServices/rest/POLocator/findLocations", "@spider": "usps_collection_boxes", "addr:city": "ADDY", "addr:country": "US", "addr:postcode": "99101", "addr:state": "WA", "addr:street_address": "1386 MAIN ST", "amenity": "post_box", "collection_times": "Mo-Fr 17:00; Sa 14:00", "indoor": "yes", "note": "ON 12/24 AND 12/31, THIS BOX MAY BE COLLECTED AS EARLY AS 12 NOON.", "nsi_id": "unitedstatespostalservice-a77078", "operator": "United States Postal Service", "operator:short": "USPS", "operator:type": "public", "operator:wikidata": "Q668687", "ref": "9910100002"}, "type": "Feature"}
{"geometry": {"coordinates": [-117.837624989, 48.357748739], "type": "Point"}, "id": "zQiUxpOsKY1z4vvyT9-aFRpGQuE=", "properties": {"@source_uri": "https://tools.usps.com/UspsToolsRestServices/rest/POLocator/findLocations", "@spider": "usps_collection_boxes", "addr:city": "ADDY", "addr:country": "US", "addr:postcode": "99101", "addr:state": "WA", "addr:street_address": "1386 MAIN ST", "amenity": "post_box", "collection_times": "Mo-Fr 17:00", "indoor": "yes", "note": "ON 12/24 AND 12/31, THIS BOX MAY BE COLLECTED AS EARLY AS 12 NOON.", "nsi_id": "unitedstatespostalservice-a77078", "operator": "United States Postal Service", "operator:short": "USPS", "operator:type": "public", "operator:wikidata": "Q668687", "ref": "9910100003"}, "type": "Feature"}
{"geometry": {"coordinates": [-117.251883, 46.790218], "type": "Point"}, "id": "sXm6qhdfTXL1GoAdd_LcvMAda_8=", "properties": {"@source_uri": "https://tools.usps.com/UspsToolsRestServices/rest/POLocator/findLocations", "@spider": "usps_collection_boxes", "addr:city": "ALBION", "addr:country": "US", "addr:postcode": "99102", "addr:state": "WA", "addr:street_address": "201 W FRONT ST", "amenity": "post_box", "collection_times": "Mo-Fr 16:45; Sa 10:00", "indoor": "yes", "note": "ON 12/24 AND 12/31, THIS BOX MAY BE COLLECTED AS EARLY AS 12 NOON.", "nsi_id": "unitedstatespostalservice-a77078", "operator": "United States Postal Service", "operator:short": "USPS", "operator:type": "public", "operator:wikidata": "Q668687", "ref": "9910200000"}, "type": "Feature"}
{"geometry": {"coordinates": [-117.251769, 46.790166], "type": "Point"}, "id": "MbMx2dkynTmAdBoev3wKIZ3H2jA=", "properties": {"@source_uri": "https://tools.usps.com/UspsToolsRestServices/rest/POLocator/findLocations", "@spider": "usps_collection_boxes", "addr:city": "ALBION", "addr:country": "US", "addr:postcode": "99102", "addr:state": "WA", "addr:street_address": "201 W FRONT ST", "amenity": "post_box", "collection_times": "Mo-Fr 16:45; Sa 15:30", "note": "ON 12/24 AND 12/31, THIS BOX MAY BE COLLECTED AS EARLY AS 12 NOON.", "nsi_id": "unitedstatespostalservice-a77078", "operator": "United States Postal Service", "operator:short": "USPS", "operator:type": "public", "operator:wikidata": "Q668687", "ref": "9910200001"}, "type": "Feature"}
{"geometry": {"coordinates": [-117.251868112, 46.790152989], "type": "Point"}, "id": "k-rB4iupcjl25PQNBmgSYaNUFSY=", "properties": {"@source_uri": "https://tools.usps.com/UspsToolsRestServices/rest/POLocator/findLocations", "@spider": "usps_collection_boxes", "addr:city": "ALBION", "addr:country": "US", "addr:postcode": "99102", "addr:state": "WA", "addr:street_address": "201 W FRONT ST", "amenity": "post_box", "collection_times": "Mo-Fr 16:45; Sa 10:00", "indoor": "yes", "note": "ON 12/24 AND 12/31, THIS BOX MAY BE COLLECTED AS EARLY AS 12 NOON.", "nsi_id": "unitedstatespostalservice-a77078", "operator": "United States Postal Service", "operator:short": "USPS", "operator:type": "public", "operator:wikidata": "Q668687", "ref": "9910200002"}, "type": "Feature"}
{"geometry": {"coordinates": [-118.94091, 47.71276], "type": "Point"}, "id": "TKyXDM5c-PrYL3C_-jLeFBd7cpo=", "properties": {"@source_uri": "https://tools.usps.com/UspsToolsRestServices/rest/POLocator/findLocations", "@spider": "usps_collection_boxes", "addr:city": "ALMIRA", "addr:country": "US", "addr:postcode": "99103", "addr:state": "WA", "addr:street_address": "102 N 3RD ST", "amenity": "post_box", "collection_times": "Mo-Fr 16:30; Sa 09:45", "note": "ON 12/24 AND 12/31, THIS BOX MAY BE COLLECTED AS EARLY AS 12 NOON.", "nsi_id": "unitedstatespostalservice-a77078", "operator": "United States Postal Service", "operator:short": "USPS", "operator:type": "public", "operator:wikidata": "Q668687", "ref": "9910300001"}, "type": "Feature"}
{"geometry": {"coordinates": [-118.94091, 47.71276], "type": "Point"}, "id": "q2n3XtB7fBXI1Dv9md5rNMNCRGk=", "properties": {"@source_uri": "https://tools.usps.com/UspsToolsRestServices/rest/POLocator/findLocations", "@spider": "usps_collection_boxes", "addr:city": "ALMIRA", "addr:country": "US", "addr:postcode": "99103", "addr:state": "WA", "addr:street_address": "102 N 3RD ST", "amenity": "post_box", "collection_times": "Mo-Fr 16:00; Sa 09:45", "indoor": "yes", "note": "ON 12/24 AND 12/31, THIS BOX MAY BE COLLECTED AS EARLY AS 12 NOON.", "nsi_id": "unitedstatespostalservice-a77078", "operator": "United States Postal Service", "operator:short": "USPS", "operator:type": "public", "operator:wikidata": "Q668687", "ref": "9910300002"}, "type": "Feature"}
{"geometry": {"coordinates": [-118.940899701, 47.712169173], "type": "Point"}, "id": "vsYXLD5UhzCyHbw3yGfRA-ILFgM=", "properties": {"@source_uri": "https://tools.usps.com/UspsToolsRestServices/rest/POLocator/findLocations", "@spider": "usps_collection_boxes", "addr:city": "ALMIRA", "addr:country": "US", "addr:postcode": "99103", "addr:state": "WA", "addr:street_address": "102 N 3RD ST", "amenity": "post_box", "collection_times": "Mo-Fr 16:00", "indoor": "yes", "note": "ON 12/24 AND 12/31, THIS BOX MAY BE COLLECTED AS EARLY AS 12 NOON.", "nsi_id": "unitedstatespostalservice-a77078", "operator": "United States Postal Service", "operator:short": "USPS", "operator:type": "public", "operator:wikidata": "Q668687", "ref": "9910300003"}, "type": "Feature"}
{"geometry": {"coordinates": [-117.714351, 48.276248], "type": "Point"}, "id": "NzvW7Vzzii9JhRGQZbokuOxszp0=", "properties": {"@source_uri": "https://tools.usps.com/UspsToolsRestServices/rest/POLocator/findLocations", "@spider": "usps_collection_boxes", "addr:city": "CHEWELAH", "addr:country": "US", "addr:postcode": "99109", "addr:state": "WA", "addr:street_address": "202 E MAIN AVE", "amenity": "post_box", "collection_times": "Mo-Fr 16:00; Sa 11:00", "note": "ON 12/24 AND 12/31, THIS BOX MAY BE COLLECTED AS EARLY AS 12 NOON.", "nsi_id": "unitedstatespostalservice-a77078", "operator": "United States Postal Service", "operator:short": "USPS", "operator:type": "public", "operator:wikidata": "Q668687", "ref": "9910900001"}, "type": "Feature"}
{"geometry": {"coordinates": [-117.71448, 48.276276], "type": "Point"}, "id": "fpMXj4cQ4WlA-406BshimIlwdCk=", "properties": {"@source_uri": "https://tools.usps.com/UspsToolsRestServices/rest/POLocator/findLocations", "@spider": "usps_collection_boxes", "addr:city": "CHEWELAH", "addr:country": "US", "addr:postcode": "99109", "addr:state": "WA", "addr:street_address": "202 E MAIN AVE", "amenity": "post_box", "collection_times": "Mo-Fr 16:00; Sa 11:00", "indoor": "yes", "note": "ON 12/24 AND 12/31, THIS BOX MAY BE COLLECTED AS EARLY AS 12 NOON.", "nsi_id": "unitedstatespostalservice-a77078", "operator": "United States Postal Service", "operator:short": "USPS", "operator:type": "public", "operator:wikidata": "Q668687", "ref": "9910900003"}, "type": "Feature"}
{"geometry": {"coordinates": [-117.714311361, 48.27624647], "type": "Point"}, "id": "c49nAo20juMQtU8OaOIhYueBFAI=", "properties": {"@source_uri": "https://tools.usps.com/UspsToolsRestServices/rest/POLocator/findLocations", "@spider": "usps_collection_boxes", "addr:city": "CHEWELAH", "addr:country": "US", "addr:postcode": "99109", "addr:state": "WA", "addr:street_address": "202 E MAIN AVE", "amenity": "post_box", "collection_times": "Mo-Fr 17:00; Sa 11:00", "indoor": "yes", "note": "ON 12/24 AND 12/31, THIS BOX MAY BE COLLECTED AS EARLY AS 12 NOON.", "nsi_id": "unitedstatespostalservice-a77078", "operator": "United States Postal Service", "operator:short": "USPS", "operator:type": "public", "operator:wikidata": "Q668687", "ref": "9910900004"}, "type": "Feature"}
{"geometry": {"coordinates": [-117.559561, 47.996761], "type": "Point"}, "id": "JJjA8ZtxuIv0phIkkuSVoJtMIMQ=", "properties": {"@source_uri": "https://tools.usps.com/UspsToolsRestServices/rest/POLocator/findLocations", "@spider": "usps_collection_boxes", "addr:city": "CLAYTON", "addr:country": "US", "addr:postcode": "99110", "addr:state": "WA", "addr:street_address": "4486 RAILROAD AVE", "amenity": "post_box", "collection_times": "Mo-Fr 16:45; Sa 10:45", "note": "ON 12/24 AND 12/31, THIS BOX MAY BE COLLECTED AS EARLY AS 12 NOON.", "nsi_id": "unitedstatespostalservice-a77078", "operator": "United States Postal Service", "operator:short": "USPS", "operator:type": "public", "operator:wikidata": "Q668687", "ref": "9911000001"}, "type": "Feature"}
{"geometry": {"coordinates": [-117.559561, 47.996761], "type": "Point"}, "id": "aAF1JUZ6qHaP_fHzmsPqM0G3K2c=", "properties": {"@source_uri": "https://tools.usps.com/UspsToolsRestServices/rest/POLocator/findLocations", "@spider": "usps_collection_boxes", "addr:city": "CLAYTON", "addr:country": "US", "addr:postcode": "99110", "addr:state": "WA", "addr:street_address": "4486 RAILROAD AVE", "amenity": "post_box", "collection_times": "Mo-Fr 16:45; Sa 10:45", "indoor": "yes", "note": "ON 12/24 AND 12/31, THIS BOX MAY BE COLLECTED AS EARLY AS 12 NOON.", "nsi_id": "unitedstatespostalservice-a77078", "operator": "United States Postal Service", "operator:short": "USPS", "operator:type": "public", "operator:wikidata": "Q668687", "ref": "9911000002"}, "type": "Feature"}
{"geometry": {"coordinates": [-117.559321973, 47.996747488], "type": "Point"}, "id": "ylACr_3fFaw0lNtSM4dnt09t1Jk=", "properties": {"@source_uri": "https://tools.usps.com/UspsToolsRestServices/rest/POLocator/findLocations", "@spider": "usps_collection_boxes", "addr:city": "CLAYTON", "addr:country": "US", "addr:postcode": "99110", "addr:state": "WA", "addr:street_address": "4486 RAILROAD AVE", "amenity": "post_box", "collection_times": "Mo-Fr 16:30; Sa 12:30", "indoor": "yes", "note": "ON 12/24 AND 12/31, THIS BOX MAY BE COLLECTED AS EARLY AS 12 NOON.", "nsi_id": "unitedstatespostalservice-a77078", "operator": "United States Postal Service", "operator:short": "USPS", "operator:type": "public", "operator:wikidata": "Q668687", "ref": "9911000003"}, "type": "Feature"}
{"geometry": {"coordinates": [-117.363712, 46.881871], "type": "Point"}, "id": "ohq00GoMNeTc8Y4DviLw0IlPx0E=", "properties": {"@source_uri": "https://tools.usps.com/UspsToolsRestServices/rest/POLocator/findLocations", "@spider": "usps_collection_boxes", "addr:city": "COLFAX", "addr:country": "US", "addr:postcode": "99111", "addr:state": "WA", "addr:street_address": "203 N MILL ST", "amenity": "post_box", "collection_times": "Mo-Fr 15:00; Sa 11:30", "note": "ON 12/24 AND 12/31, THIS BOX MAY BE COLLECTED AS EARLY AS 12 NOON.", "nsi_id": "unitedstatespostalservice-a77078", "operator": "United States Postal Service", "operator:short": "USPS", "operator:type": "public", "operator:wikidata": "Q668687", "ref": "9911100002"}, "type": "Feature"}
{"geometry": {"coordinates": [-117.364729, 46.879728], "type": "Point"}, "id": "KtfiuHHGUzI1TaZ8X0tBnV5TQeE=", "properties": {"@source_uri": "https://tools.usps.com/UspsToolsRestServices/rest/POLocator/findLocations", "@spider": "usps_collection_boxes", "addr:city": "COLFAX", "addr:country": "US", "addr:postcode": "99111", "addr:state": "WA", "addr:street_address": "211 S MAIN ST", "amenity": "post_box", "collection_times": "Mo-Fr 17:00; Sa 14:00", "note": "ON 12/24 AND 12/31, THIS BOX MAY BE COLLECTED AS EARLY AS 12 NOON.", "nsi_id": "unitedstatespostalservice-a77078", "operator": "United States Postal Service", "operator:short": "USPS", "operator:type": "public", "operator:wikidata": "Q668687", "ref": "9911100005"}, "type": "Feature"}
{"geometry": {"coordinates": [-117.3645128564, 46.8838454471], "type": "Point"}, "id": "mnOq9hLSkjKyZM1lkgEA7WEt6OY=", "properties": {"@source_uri": "https://tools.usps.com/UspsToolsRestServices/rest/POLocator/findLocations", "@spider": "usps_collection_boxes", "addr:city": "COLFAX", "addr:country": "US", "addr:postcode": "99111", "addr:state": "WA", "addr:street_address": "400 N MAIN ST", "amenity": "post_box", "collection_times": "Mo-Fr 15:00; Sa 11:30", "note": "ON 12/24 AND 12/31, THIS BOX MAY BE COLLECTED AS EARLY AS 12 NOON.", "nsi_id": "unitedstatespostalservice-a77078", "operator": "United States Postal Service", "operator:short": "USPS", "operator:type": "public", "operator:wikidata": "Q668687", "ref": "9911100012"}, "type": "Feature"}
{"geometry": {"coordinates": [-117.364729, 46.879728], "type": "Point"}, "id": "cjdD3rmp0ahnQYjlTSh699L-o64=", "properties": {"@source_uri": "https://tools.usps.com/UspsToolsRestServices/rest/POLocator/findLocations", "@spider": "usps_collection_boxes", "addr:city": "COLFAX", "addr:country": "US", "addr:postcode": "99111", "addr:state": "WA", "addr:street_address": "211 S MAIN ST", "amenity": "post_box", "collection_times": "Mo-Fr 17:30; Sa 14:00", "indoor": "yes", "note": "ON 12/24 AND 12/31, THIS BOX MAY BE COLLECTED AS EARLY AS 12 NOON.", "nsi_id": "unitedstatespostalservice-a77078", "operator": "United States Postal Service", "operator:short": "USPS", "operator:type": "public", "operator:wikidata": "Q668687", "ref": "9911100014"}, "type": "Feature"}
{"geometry": {"coordinates": [-117.36471112, 46.879746205], "type": "Point"}, "id": "zMpPdd__QSMUwxe4XT6zQl9EtmA=", "properties": {"@source_uri": "https://tools.usps.com/UspsToolsRestServices/rest/POLocator/findLocations", "@spider": "usps_collection_boxes", "addr:city": "COLFAX", "addr:country": "US", "addr:postcode": "99111", "addr:state": "WA", "addr:street_address": "211 S MAIN ST", "amenity": "post_box", "collection_times": "Mo-Fr 17:00", "indoor": "yes", "note": "ON 12/24 AND 12/31, THIS BOX MAY BE COLLECTED AS EARLY AS 12 NOON.", "nsi_id": "unitedstatespostalservice-a77078", "operator": "United States Postal Service", "operator:short": "USPS", "operator:type": "public", "operator:wikidata": "Q668687", "ref": "9911100015"}, "type": "Feature"}
{"geometry": {"coordinates": [-117.128497, 46.568885], "type": "Point"}, "id": "yN1BwXOaWjd5bcmkvXb4IK11QsQ=", "properties": {"@source_uri": "https://tools.usps.com/UspsToolsRestServices/rest/POLocator/findLocations", "@spider": "usps_collection_boxes", "addr:city": "COLTON", "addr:country": "US", "addr:postcode": "99113", "addr:state": "WA", "addr:street_address": "509 STEPTOE ST", "amenity": "post_box", "collection_times": "Mo-Fr 16:00; Sa 10:00", "indoor": "yes", "note": "ON 12/24 AND 12/31, THIS BOX MAY BE COLLECTED AS EARLY AS 12 NOON.", "nsi_id": "unitedstatespostalservice-a77078", "operator": "United States Postal Service", "operator:short": "USPS", "operator:type": "public", "operator:wikidata": "Q668687", "ref": "9911300002"}, "type": "Feature"}
{"geometry": {"coordinates": [-117.128478395, 46.568909812], "type": "Point"}, "id": "sUJKsf5YOKdU2X_OnSUCQNBu-Pg=", "properties": {"@source_uri": "https://tools.usps.com/UspsToolsRestServices/rest/POLocator/findLocations", "@spider": "usps_collection_boxes", "addr:city": "COLTON", "addr:country": "US", "addr:postcode": "99113", "addr:state": "WA", "addr:street_address": "509 STEPTOE ST", "amenity": "post_box", "collection_times": "Mo-Fr 16:00; Sa 10:00", "indoor": "yes", "note": "ON 12/24 AND 12/31, THIS BOX MAY BE COLLECTED AS EARLY AS 12 NOON.", "nsi_id": "unitedstatespostalservice-a77078", "operator": "United States Postal Service", "operator:short": "USPS", "operator:type": "public", "operator:wikidata": "Q668687", "ref": "9911300003"}, "type": "Feature"}
{"geometry": {"coordinates": [-117.906045, 48.547706], "type": "Point"}, "id": "JmHnmatKa9SWkWKRSE0u3yRTDTM=", "properties": {"@source_uri": "https://tools.usps.com/UspsToolsRestServices/rest/POLocator/findLocations", "@spider": "usps_collection_boxes", "addr:city": "COLVILLE", "addr:country": "US", "addr:postcode": "99114", "addr:state": "WA", "addr:street_address": "391 N MAIN ST", "amenity": "post_box", "collection_times": "Mo-Sa 15:00", "note": "ON 12/24 AND 12/31, THIS BOX MAY BE COLLECTED AS EARLY AS 12 NOON.", "nsi_id": "unitedstatespostalservice-a77078", "operator": "United States Postal Service", "operator:short": "USPS", "operator:type": "public", "operator:wikidata": "Q668687", "ref": "9911400003"}, "type": "Feature"}
{"geometry": {"coordinates": [-117.907148, 48.535856], "type": "Point"}, "id": "SrphKE8hwm2LefSIotj6XWD8Jwo=", "properties": {"@source_uri": "https://tools.usps.com/UspsToolsRestServices/rest/POLocator/findLocations", "@spider": "usps_collection_boxes", "addr:city": "COLVILLE", "addr:country": "US", "addr:postcode": "99114", "addr:state": "WA", "addr:street_address": "982 S MAIN ST", "amenity": "post_box", "collection_times": "Mo-Sa 15:00", "note": "ON 12/24 AND 12/31, THIS BOX MAY BE COLLECTED AS EARLY AS 12 NOON.", "nsi_id": "unitedstatespostalservice-a77078", "operator": "United States Postal Service", "operator:short": "USPS", "operator:type": "public", "operator:wikidata": "Q668687", "ref": "9911400004"}, "type": "Feature"}
{"geometry": {"coordinates": [-117.915927, 48.553339], "type": "Point"}, "id": "_i18p3HU7fLXfzPscnS4C4EQyoo=", "properties": {"@source_uri": "https://tools.usps.com/UspsToolsRestServices/rest/POLocator/findLocations", "@spider": "usps_collection_boxes", "addr:city": "COLVILLE", "addr:country": "US", "addr:postcode": "99114", "addr:state": "WA", "addr:street_address": "810 NORTH HIGHWAY", "amenity": "post_box", "collection_times": "Mo-Sa 11:00", "nsi_id": "unitedstatespostalservice-a77078", "operator": "United States Postal Service", "operator:short": "USPS", "operator:type": "public", "operator:wikidata": "Q668687", "ref": "9911400005"}, "type": "Feature"}
{"geometry": {"coordinates": [-117.90431, 48.547075], "type": "Point"}, "id": "wCQBy7jYltvmpeNBJD_X-jGhnOk=", "properties": {"@source_uri": "https://tools.usps.com/UspsToolsRestServices/rest/POLocator/findLocations", "@spider": "usps_collection_boxes", "addr:city": "COLVILLE", "addr:country": "US", "addr:postcode": "99114", "addr:state": "WA", "addr:street_address": "1250 NORTH HIGHWAY", "amenity": "post_box", "collection_times": "Mo-Sa 11:00", "nsi_id": "unitedstatespostalservice-a77078", "operator": "United States Postal Service", "operator:short": "USPS", "operator:type": "public", "operator:wikidata": "Q668687", "ref": "9911400006"}, "type": "Feature"}
{"geometry": {"coordinates": [-117.906567, 48.542482], "type": "Point"}, "id": "F7pnPnzPZJzQ6PvOp7QdJUReZiY=", "properties": {"@source_uri": "https://tools.usps.com/UspsToolsRestServices/rest/POLocator/findLocations", "@spider": "usps_collection_boxes", "addr:city": "COLVILLE", "addr:country": "US", "addr:postcode": "99114", "addr:state": "WA", "addr:street_address": "298 S MAIN ST", "amenity": "post_box", "collection_times": "Mo-Sa 15:00", "note": "ON 12/24 AND 12/31, THIS BOX MAY BE COLLECTED AS EARLY AS 12 NOON.", "nsi_id": "unitedstatespostalservice-a77078", "operator": "United States Postal Service", "operator:short": "USPS", "operator:type": "public", "operator:wikidata": "Q668687", "ref": "9911400007"}, "type": "Feature"}
{"geometry": {"coordinates": [-117.904581, 48.54298], "type": "Point"}, "id": "PnByh6ozywUWZjf-wupYNcgO1Ik=", "properties": {"@source_uri": "https://tools.usps.com/UspsToolsRestServices/rest/POLocator/findLocations", "@spider": "usps_collection_boxes", "addr:city": "COLVILLE", "addr:country": "US", "addr:postcode": "99114", "addr:state": "WA", "addr:street_address": "204 S OAK ST", "amenity": "post_box", "collection_times": "Mo-Fr 17:00; Sa 16:00", "indoor": "yes", "note": "ON 12/24 AND 12/31, THIS BOX MAY BE COLLECTED AS EARLY AS 12 NOON.", "nsi_id": "unitedstatespostalservice-a77078", "operator": "United States Postal Service", "operator:short": "USPS", "operator:type": "public", "operator:wikidata": "Q668687", "ref": "9911400008"}, "type": "Feature"}
{"geometry": {"coordinates": [-117.9051, 48.542876], "type": "Point"}, "id": "QWJUTTO4z98oQWLHc4LXpXuz_dI=", "properties": {"@source_uri": "https://tools.usps.com/UspsToolsRestServices/rest/POLocator/findLocations", "@spider": "usps_collection_boxes", "addr:city": "COLVILLE", "addr:country": "US", "addr:postcode": "99114", "addr:state": "WA", "addr:street_address": "204 S OAK ST", "amenity": "post_box", "collection_times": "Mo-Fr 17:00; Sa 16:00", "note": "ON 12/24 AND 12/31, THIS BOX MAY BE COLLECTED AS EARLY AS 12 NOON.", "nsi_id": "unitedstatespostalservice-a77078", "operator": "United States Postal Service", "operator:short": "USPS", "operator:type": "public", "operator:wikidata": "Q668687", "ref": "9911400010"}, "type": "Feature"}
{"geometry": {"coordinates": [-117.904350293, 48.543274201], "type": "Point"}, "id": "N-Rcws1LLIGCMa-qLOmUNnVig-0=", "properties": {"@source_uri": "https://tools.usps.com/UspsToolsRestServices/rest/POLocator/findLocations", "@spider": "usps_collection_boxes", "addr:city": "COLVILLE", "addr:country": "US", "addr:postcode": "99114", "addr:state": "WA", "addr:street_address": "204 S OAK ST", "amenity": "post_box", "collection_times": "Mo-Fr 17:00; Sa 12:00", "indoor": "yes", "note": "ON 12/24 AND 12/31, THIS BOX MAY BE COLLECTED AS EARLY AS 12 NOON.", "nsi_id": "unitedstatespostalservice-a77078", "operator": "United States Postal Service", "operator:short": "USPS", "operator:type": "public", "operator:wikidata": "Q668687", "ref": "9911400014"}, "type": "Feature"}
{"geometry": {"coordinates": [-119.292922, 47.611227], "type": "Point"}, "id": "lWR30pwCMjDAgBmRYypyIWOkwwg=", "properties": {"@source_uri": "https://tools.usps.com/UspsToolsRestServices/rest/POLocator/findLocations", "@spider": "usps_collection_boxes", "addr:city": "COULEE CITY", "addr:country": "US", "addr:postcode": "99115", "addr:state": "WA", "addr:street_address": "101 N 4TH ST", "amenity": "post_box", "collection_times": "Mo-Fr 16:15; Sa 09:45", "note": "ON 12/24 AND 12/31, THIS BOX MAY BE COLLECTED AS EARLY AS 12 NOON.", "nsi_id": "unitedstatespostalservice-a77078", "operator": "United States Postal Service", "operator:short": "USPS", "operator:type": "public", "operator:wikidata": "Q668687", "ref": "9911500001"}, "type": "Feature"}
{"geometry": {"coordinates": [-119.292922, 47.611227], "type": "Point"}, "id": "jPuJ0PYRBKh1TrkjrLczBbdoIB0=", "properties": {"@source_uri": "https://tools.usps.com/UspsToolsRestServices/rest/POLocator/findLocations", "@spider": "usps_collection_boxes", "addr:city": "COULEE CITY", "addr:country": "US", "addr:postcode": "99115", "addr:state": "WA", "addr:street_address": "101 N 4TH ST", "amenity": "post_box", "collection_times": "Mo-Fr 16:30; Sa 09:45", "indoor": "yes", "note": "ON 12/24 AND 12/31, THIS BOX MAY BE COLLECTED AS EARLY AS 12 NOON.", "nsi_id": "unitedstatespostalservice-a77078", "operator": "United States Postal Service", "operator:short": "USPS", "operator:type": "public", "operator:wikidata": "Q668687", "ref": "9911500004"}, "type": "Feature"}
{"geometry": {"coordinates": [-119.293020078, 47.611190013], "type": "Point"}, "id": "1a0e3SU8Ptcw6-ybrprKlyUKdw0=", "properties": {"@source_uri": "https://tools.usps.com/UspsToolsRestServices/rest/POLocator/findLocations", "@spider": "usps_collection_boxes", "addr:city": "COULEE CITY", "addr:country": "US", "addr:postcode": "99115", "addr:state": "WA", "addr:street_address": "101 N 4TH ST", "amenity": "post_box", "collection_times": "Mo-Fr 16:30", "indoor": "yes", "note": "ON 12/24 AND 12/31, THIS BOX MAY BE COLLECTED AS EARLY AS 12 NOON.", "nsi_id": "unitedstatespostalservice-a77078", "operator": "United States Postal Service", "operator:short": "USPS", "operator:type": "public", "operator:wikidata": "Q668687", "ref": "9911500005"}, "type": "Feature"}
{"geometry": {"coordinates": [-118.976220963, 47.9663649844], "type": "Point"}, "id": "w0IyPhQFq8Yh6Oe0rDlKBXcUA7I=", "properties": {"@source_uri": "https://tools.usps.com/UspsToolsRestServices/rest/POLocator/findLocations", "@spider": "usps_collection_boxes", "addr:city": "COULEE DAM", "addr:country": "US", "addr:postcode": "99116", "addr:state": "WA", "addr:street_address": "402 MEAD WAY", "amenity": "post_box", "collection_times": "Mo-Fr 16:15; Sa 15:30", "note": "ON 12/24 AND 12/31, THIS BOX MAY BE COLLECTED AS EARLY AS 12 NOON.", "nsi_id": "unitedstatespostalservice-a77078", "operator": "United States Postal Service", "operator:short": "USPS", "operator:type": "public", "operator:wikidata": "Q668687", "ref": "9911600002"}, "type": "Feature"}
{"geometry": {"coordinates": [-118.964672, 47.975449], "type": "Point"}, "id": "Tt4HL3X9SgZiz8XzaV91pbCsrlk=", "properties": {"@source_uri": "https://tools.usps.com/UspsToolsRestServices/rest/POLocator/findLocations", "@spider": "usps_collection_boxes", "addr:city": "COULEE DAM", "addr:country": "US", "addr:postcode": "99116", "addr:state": "WA", "addr:street_address": "1114 CENTRAL DR", "amenity": "post_box", "collection_times": "Mo-Sa 13:30", "note": "ON 12/24 AND 12/31, THIS BOX MAY BE COLLECTED AS EARLY AS 12 NOON.", "nsi_id": "unitedstatespostalservice-a77078", "operator": "United States Postal Service", "operator:short": "USPS", "operator:type": "public", "operator:wikidata": "Q668687", "ref": "9911600003"}, "type": "Feature"}
{"geometry": {"coordinates": [-118.984481, 47.963353], "type": "Point"}, "id": "NHHx0I5yMWkz9P4GL6cDZ_6eP9c=", "properties": {"@source_uri": "https://tools.usps.com/UspsToolsRestServices/rest/POLocator/findLocations", "@spider": "usps_collection_boxes", "addr:city": "COULEE DAM", "addr:country": "US", "addr:postcode": "99116", "addr:state": "WA", "addr:street_address": "300 COLUMBIA AVE", "amenity": "post_box", "collection_times": "Mo-Sa 10:00", "nsi_id": "unitedstatespostalservice-a77078", "operator": "United States Postal Service", "operator:short": "USPS", "operator:type": "public", "operator:wikidata": "Q668687", "ref": "9911600004"}, "type": "Feature"}
{"geometry": {"coordinates": [-118.976220963, 47.9663649844], "type": "Point"}, "id": "wVdbtoXqR3NaIP3YugP2-mNhR4w=", "properties": {"@source_uri": "https://tools.usps.com/UspsToolsRestServices/rest/POLocator/findLocations", "@spider": "usps_collection_boxes", "addr:city": "COULEE DAM", "addr:country": "US", "addr:postcode": "99116", "addr:state": "WA", "addr:street_address": "402 MEAD WAY", "amenity": "post_box", "collection_times": "Mo-Fr 16:15; Sa 09:45", "indoor": "yes", "note": "ON 12/24 AND 12/31, THIS BOX MAY BE COLLECTED AS EARLY AS 12 NOON.", "nsi_id": "unitedstatespostalservice-a77078", "operator": "United States Postal Service", "operator:short": "USPS", "operator:type": "public", "operator:wikidata": "Q668687", "ref": "9911600007"}, "type": "Feature"}
{"geometry": {"coordinates": [-118.976220963, 47.9663649844], "type": "Point"}, "id": "n1vrNQgj5kp9cIz9N9qJkFxAyu0=", "properties": {"@source_uri": "https://tools.usps.com/UspsToolsRestServices/rest/POLocator/findLocations", "@spider": "usps_collection_boxes", "addr:city": "COULEE DAM", "addr:country": "US", "addr:postcode": "99116", "addr:state": "WA", "addr:street_address": "402 MEAD WAY", "amenity": "post_box", "collection_times": "Mo-Fr 16:15; Sa 10:00", "indoor": "yes", "note": "ON 12/24 AND 12/31, THIS BOX MAY BE COLLECTED AS EARLY AS 12 NOON.", "nsi_id": "unitedstatespostalservice-a77078", "operator": "United States Postal Service", "operator:short": "USPS", "operator:type": "public", "operator:wikidata": "Q668687", "ref": "9911600008"}, "type": "Feature"}
{"geometry": {"coordinates": [-118.519885, 47.758519], "type": "Point"}, "id": "MiHwcYknAYLoQZn6ZBfOiI5o5xo=", "properties": {"@source_uri": "https://tools.usps.com/UspsToolsRestServices/rest/POLocator/findLocations", "@spider": "usps_collection_boxes", "addr:city": "CRESTON", "addr:country": "US", "addr:postcode": "99117", "addr:state": "WA", "addr:street_address": "115 SW CRESTON AVE", "amenity": "post_box", "collection_times": "Mo-Fr 16:30; Sa 12:00", "note": "ON 12/24 AND 12/31, THIS BOX MAY BE COLLECTED AS EARLY AS 12 NOON.", "nsi_id": "unitedstatespostalservice-a77078", "operator": "United States Postal Service", "operator:short": "USPS", "operator:type": "public", "operator:wikidata": "Q668687", "ref": "9911700001"}, "type": "Feature"}
{"geometry": {"coordinates": [-118.520090552, 47.758137611], "type": "Point"}, "id": "KJZAfYv3zg-yAgxvNlr3WOdDftg=", "properties": {"@source_uri": "https://tools.usps.com/UspsToolsRestServices/rest/POLocator/findLocations", "@spider": "usps_collection_boxes", "addr:city": "CRESTON", "addr:country": "US", "addr:postcode": "99117", "addr:state": "WA", "addr:street_address": "115 SW CRESTON AVE", "amenity": "post_box", "collection_times": "Mo-Fr 16:30; Sa 12:00", "indoor": "yes", "note": "ON 12/24 AND 12/31, THIS BOX MAY BE COLLECTED AS EARLY AS 12 NOON.", "nsi_id": "unitedstatespostalservice-a77078", "operator": "United States Postal Service", "operator:short": "USPS", "operator:type": "public", "operator:wikidata": "Q668687", "ref": "9911700002"}, "type": "Feature"}
{"geometry": {"coordinates": [-118.600091, 48.8853], "type": "Point"}, "id": "QKenhBxumknbJHFod9iAXasOf50=", "properties": {"@source_uri": "https://tools.usps.com/UspsToolsRestServices/rest/POLocator/findLocations", "@spider": "usps_collection_boxes", "addr:city": "CURLEW", "addr:country": "US", "addr:postcode": "99118", "addr:state": "WA", "addr:street_address": "1 RIVER ST", "amenity": "post_box", "collection_times": "Mo-Fr 14:30; Sa 12:00", "note": "ON 12/24 AND 12/31, THIS BOX MAY BE COLLECTED AS EARLY AS 12 NOON.", "nsi_id": "unitedstatespostalservice-a77078", "operator": "United States Postal Service", "operator:short": "USPS", "operator:type": "public", "operator:wikidata": "Q668687", "ref": "9911800001"}, "type": "Feature"}
{"geometry": {"coordinates": [-118.600091, 48.8853], "type": "Point"}, "id": "TRIbs6GsH9HDfHvmJKtwXmZegNo=", "properties": {"@source_uri": "https://tools.usps.com/UspsToolsRestServices/rest/POLocator/findLocations", "@spider": "usps_collection_boxes", "addr:city": "CURLEW", "addr:country": "US", "addr:postcode": "99118", "addr:state": "WA", "addr:street_address": "1 RIVER ST", "amenity": "post_box", "collection_times": "Mo-Fr 14:45; Sa 12:00", "indoor": "yes", "note": "ON 12/24 AND 12/31, THIS BOX MAY BE COLLECTED AS EARLY AS 12 NOON.", "nsi_id": "unitedstatespostalservice-a77078", "operator": "United States Postal Service", "operator:short": "USPS", "operator:type": "public", "operator:wikidata": "Q668687", "ref": "9911800002"}, "type": "Feature"}
{"geometry": {"coordinates": [-118.600080954, 48.885167127], "type": "Point"}, "id": "f_tJmwgj-XcEvxPwfrI0lnIRVfU=", "properties": {"@source_uri": "https://tools.usps.com/UspsToolsRestServices/rest/POLocator/findLocations", "@spider": "usps_collection_boxes", "addr:city": "CURLEW", "addr:country": "US", "addr:postcode": "99118", "addr:state": "WA", "addr:street_address": "1 RIVER ST", "amenity": "post_box", "collection_times": "Mo-Fr 14:30; Sa 11:30", "indoor": "yes", "note": "ON 12/24 AND 12/31, THIS BOX MAY BE COLLECTED AS EARLY AS 12 NOON.", "nsi_id": "unitedstatespostalservice-a77078", "operator": "United States Postal Service", "operator:short": "USPS", "operator:type": "public", "operator:wikidata": "Q668687", "ref": "9911800003"}, "type": "Feature"}
{"geometry": {"coordinates": [-117.294737, 48.335855], "type": "Point"}, "id": "9nRNF6Oe-LbVgwvvhLPr390YMSg=", "properties": {"@source_uri": "https://tools.usps.com/UspsToolsRestServices/rest/POLocator/findLocations", "@spider": "usps_collection_boxes", "addr:city": "CUSICK", "addr:country": "US", "addr:postcode": "99119", "addr:state": "WA", "addr:street_address": "205 S 1ST ST", "amenity": "post_box", "collection_times": "Mo-Fr 11:45; Sa 11:00", "indoor": "yes", "nsi_id": "unitedstatespostalservice-a77078", "operator": "United States Postal Service", "operator:short": "USPS", "operator:type": "public", "operator:wikidata": "Q668687", "ref": "9911900001"}, "type": "Feature"}
{"geometry": {"coordinates": [-117.29473964, 48.335472], "type": "Point"}, "id": "C8xm_bn40QvpCJA-vR319PU7w9c=", "properties": {"@source_uri": "https://tools.usps.com/UspsToolsRestServices/rest/POLocator/findLocations", "@spider": "usps_collection_boxes", "addr:city": "CUSICK", "addr:country": "US", "addr:postcode": "99119", "addr:state": "WA", "addr:street_address": "205 S 1ST ST", "amenity": "post_box", "collection_times": "Mo-Fr 12:00; Sa 11:00", "indoor": "yes", "nsi_id": "unitedstatespostalservice-a77078", "operator": "United States Postal Service", "operator:short": "USPS", "operator:type": "public", "operator:wikidata": "Q668687", "ref": "9911900002"}, "type": "Feature"}
{"geometry": {"coordinates": [-118.509455, 48.992617], "type": "Point"}, "id": "EEnkpVRsNBDeU4SsYxdFNCjMGXA=", "properties": {"@source_uri": "https://tools.usps.com/UspsToolsRestServices/rest/POLocator/findLocations", "@spider": "usps_collection_boxes", "addr:city": "DANVILLE", "addr:country": "US", "addr:postcode": "99121", "addr:state": "WA", "addr:street_address": "2 FOURTH OF JULY CREEK RD", "amenity": "post_box", "collection_times": "Mo-Fr 14:45; Sa 13:30", "note": "ON 12/24 AND 12/31, THIS BOX MAY BE COLLECTED AS EARLY AS 12 NOON.", "nsi_id": "unitedstatespostalservice-a77078", "operator": "United States Postal Service", "operator:short": "USPS", "operator:type": "public", "operator:wikidata": "Q668687", "ref": "9912100001"}, "type": "Feature"}
{"geometry": {"coordinates": [-118.509455, 48.992617], "type": "Point"}, "id": "_QcoksdBmZ5QMqDZ6WGKK-34zdo=", "properties": {"@source_uri": "https://tools.usps.com/UspsToolsRestServices/rest/POLocator/findLocations", "@spider": "usps_collection_boxes", "addr:city": "DANVILLE", "addr:country": "US", "addr:postcode": "99121", "addr:state": "WA", "addr:street_address": "2 FOURTH OF JULY CREEK RD", "amenity": "post_box", "collection_times": "Mo-Fr 14:45; Sa 13:30", "indoor": "yes", "note": "ON 12/24 AND 12/31, THIS BOX MAY BE COLLECTED AS EARLY AS 12 NOON.", "nsi_id": "unitedstatespostalservice-a77078", "operator": "United States Postal Service", "operator:short": "USPS", "operator:type": "public", "operator:wikidata": "Q668687", "ref": "9912100002"}, "type": "Feature"}
{"geometry": {"coordinates": [-118.509407743, 48.992648144], "type": "Point"}, "id": "JsEfyKrIqoHi62LGF_TuSJrevGw=", "properties": {"@source_uri": "https://tools.usps.com/UspsToolsRestServices/rest/POLocator/findLocations", "@spider": "usps_collection_boxes", "addr:city": "DANVILLE", "addr:country": "US", "addr:postcode": "99121", "addr:state": "WA", "addr:street_address": "2 FOURTH OF JULY CREEK RD", "amenity": "post_box", "collection_times": "Mo-Fr 14:45; Sa 13:30", "indoor": "yes", "note": "ON 12/24 AND 12/31, THIS BOX MAY BE COLLECTED AS EARLY AS 12 NOON.", "nsi_id": "unitedstatespostalservice-a77078", "operator": "United States Postal Service", "operator:short": "USPS", "operator:type": "public", "operator:wikidata": "Q668687", "ref": "9912100003"}, "type": "Feature"}
{"geometry": {"coordinates": [-118.151101, 47.654837], "type": "Point"}, "id": "ZDD_HmWbeYTmcPI6AP76ayIe6Lk=", "properties": {"@source_uri": "https://tools.usps.com/UspsToolsRestServices/rest/POLocator/findLocations", "@spider": "usps_collection_boxes", "addr:city": "DAVENPORT", "addr:country": "US", "addr:postcode": "99122", "addr:state": "WA", "addr:street_address": "402 7TH ST", "amenity": "post_box", "collection_times": "Mo-Fr 16:30; Sa 12:00", "note": "ON 12/24 AND 12/31, THIS BOX MAY BE COLLECTED AS EARLY AS 12 NOON.", "nsi_id": "unitedstatespostalservice-a77078", "operator": "United States Postal Service", "operator:short": "USPS", "operator:type": "public", "operator:wikidata": "Q668687", "ref": "9912200001"}, "type": "Feature"}
{"geometry": {"coordinates": [-118.151101, 47.654837], "type": "Point"}, "id": "vwnfFi66m0NaRvhtKgzvqTGzy9U=", "properties": {"@source_uri": "https://tools.usps.com/UspsToolsRestServices/rest/POLocator/findLocations", "@spider": "usps_collection_boxes", "addr:city": "DAVENPORT", "addr:country": "US", "addr:postcode": "99122", "addr:state": "WA", "addr:street_address": "402 7TH ST", "amenity": "post_box", "collection_times": "Mo-Fr 16:30; Sa 12:00", "indoor": "yes", "note": "ON 12/24 AND 12/31, THIS BOX MAY BE COLLECTED AS EARLY AS 12 NOON.", "nsi_id": "unitedstatespostalservice-a77078", "operator": "United States Postal Service", "operator:short": "USPS", "operator:type": "public", "operator:wikidata": "Q668687", "ref": "9912200004"}, "type": "Feature"}
{"geometry": {"coordinates": [-118.151094262, 47.654594969], "type": "Point"}, "id": "2uc1uthN3pi8oXM_xbiYr7GLkRU=", "properties": {"@source_uri": "https://tools.usps.com/UspsToolsRestServices/rest/POLocator/findLocations", "@spider": "usps_collection_boxes", "addr:city": "DAVENPORT", "addr:country": "US", "addr:postcode": "99122", "addr:state": "WA", "addr:street_address": "402 7TH ST", "amenity": "post_box", "collection_times": "Mo-Fr 17:00; Sa 12:00", "indoor": "yes", "note": "ON 12/24 AND 12/31, THIS BOX MAY BE COLLECTED AS EARLY AS 12 NOON.", "nsi_id": "unitedstatespostalservice-a77078", "operator": "United States Postal Service", "operator:short": "USPS", "operator:type": "public", "operator:wikidata": "Q668687", "ref": "9912200005"}, "type": "Feature"}
{"geometry": {"coordinates": [-119.038599, 47.932274], "type": "Point"}, "id": "I9QneioyTcPsQy328WfngrijZV4=", "properties": {"@source_uri": "https://tools.usps.com/UspsToolsRestServices/rest/POLocator/findLocations", "@spider": "usps_collection_boxes", "addr:city": "ELECTRIC CITY", "addr:country": "US", "addr:postcode": "99123", "addr:state": "WA", "addr:street_address": "5 W COULEE BLVD", "amenity": "post_box", "collection_times": "Mo-Fr 16:30; Sa 11:00", "note": "ON 12/24 AND 12/31, THIS BOX MAY BE COLLECTED AS EARLY AS 12 NOON.", "nsi_id": "unitedstatespostalservice-a77078", "operator": "United States Postal Service", "operator:short": "USPS", "operator:type": "public", "operator:wikidata": "Q668687", "ref": "9912300001"}, "type": "Feature"}
{"geometry": {"coordinates": [-119.038599, 47.932274], "type": "Point"}, "id": "x2Nc5aVKTW5xG_2t_K4zQrTvq_8=", "properties": {"@source_uri": "https://tools.usps.com/UspsToolsRestServices/rest/POLocator/findLocations", "@spider": "usps_collection_boxes", "addr:city": "ELECTRIC CITY", "addr:country": "US", "addr:postcode": "99123", "addr:state": "WA", "addr:street_address": "5 W COULEE BLVD", "amenity": "post_box", "collection_times": "Mo-Fr 16:30; Sa 11:00", "indoor": "yes", "note": "ON 12/24 AND 12/31, THIS BOX MAY BE COLLECTED AS EARLY AS 12 NOON.", "nsi_id": "unitedstatespostalservice-a77078", "operator": "United States Postal Service", "operator:short": "USPS", "operator:type": "public", "operator:wikidata": "Q668687", "ref": "9912300002"}, "type": "Feature"}
{"geometry": {"coordinates": [-119.039014891, 47.932040733], "type": "Point"}, "id": "OC-b3jRfuySO1PHW0jLr86kfvic=", "properties": {"@source_uri": "https://tools.usps.com/UspsToolsRestServices/rest/POLocator/findLocations", "@spider": "usps_collection_boxes", "addr:city": "ELECTRIC CITY", "addr:country": "US", "addr:postcode": "99123", "addr:state": "WA", "addr:street_address": "5 W COULEE BLVD", "amenity": "post_box", "collection_times": "Mo-Fr 16:30; Sa 11:00", "indoor": "yes", "note": "ON 12/24 AND 12/31, THIS BOX MAY BE COLLECTED AS EARLY AS 12 NOON.", "nsi_id": "unitedstatespostalservice-a77078", "operator": "United States Postal Service", "operator:short": "USPS", "operator:type": "public", "operator:wikidata": "Q668687", "ref": "9912300003"}, "type": "Feature"}
{"geometry": {"coordinates": [-118.953795, 47.999098], "type": "Point"}, "id": "Ey38uuTOFBpUSB1viavYUnneAYQ=", "properties": {"@source_uri": "https://tools.usps.com/UspsToolsRestServices/rest/POLocator/findLocations", "@spider": "usps_collection_boxes", "addr:city": "ELMER CITY", "addr:country": "US", "addr:postcode": "99124", "addr:state": "WA", "addr:street_address": "16 S FRONT ST", "amenity": "post_box", "collection_times": "Mo-Fr 15:45; Sa 09:45", "indoor": "yes", "note": "ON 12/24 AND 12/31, THIS BOX MAY BE COLLECTED AS EARLY AS 12 NOON.", "nsi_id": "unitedstatespostalservice-a77078", "operator": "United States Postal Service", "operator:short": "USPS", "operator:type": "public", "operator:wikidata": "Q668687", "ref": "9912400001"}, "type": "Feature"}
{"geometry": {"coordinates": [-118.953841, 47.99916], "type": "Point"}, "id": "5Uu9xHEJkMFbpoH_dtDUkw-6S-k=", "properties": {"@source_uri": "https://tools.usps.com/UspsToolsRestServices/rest/POLocator/findLocations", "@spider": "usps_collection_boxes", "addr:city": "ELMER CITY", "addr:country": "US", "addr:postcode": "99124", "addr:state": "WA", "addr:street_address": "16 S FRONT ST", "amenity": "post_box", "collection_times": "Mo-Fr 15:45; Sa 09:45", "note": "ON 12/24 AND 12/31, THIS BOX MAY BE COLLECTED AS EARLY AS 12 NOON.", "nsi_id": "unitedstatespostalservice-a77078", "operator": "United States Postal Service", "operator:short": "USPS", "operator:type": "public", "operator:wikidata": "Q668687", "ref": "9912400002"}, "type": "Feature"}
{"geometry": {"coordinates": [-118.953784431, 47.999115234], "type": "Point"}, "id": "ceMDeuM4kCjeXTfbTKOp-4qRU3o=", "properties": {"@source_uri": "https://tools.usps.com/UspsToolsRestServices/rest/POLocator/findLocations", "@spider": "usps_collection_boxes", "addr:city": "ELMER CITY", "addr:country": "US", "addr:postcode": "99124", "addr:state": "WA", "addr:street_address": "16 S FRONT ST", "amenity": "post_box", "collection_times": "Mo-Fr 15:45; Sa 09:45", "indoor": "yes", "note": "ON 12/24 AND 12/31, THIS BOX MAY BE COLLECTED AS EARLY AS 12 NOON.", "nsi_id": "unitedstatespostalservice-a77078", "operator": "United States Postal Service", "operator:short": "USPS", "operator:type": "public", "operator:wikidata": "Q668687", "ref": "9912400003"}, "type": "Feature"}
{"geometry": {"coordinates": [-117.684764, 46.92811], "type": "Point"}, "id": "ttihIvi_44b0YQYF5ly778EqcJA=", "properties": {"@source_uri": "https://tools.usps.com/UspsToolsRestServices/rest/POLocator/findLocations", "@spider": "usps_collection_boxes", "addr:city": "ENDICOTT", "addr:country": "US", "addr:postcode": "99125", "addr:state": "WA", "addr:street_address": "308 D ST", "amenity": "post_box", "collection_times": "Mo-Fr 12:45; Sa 12:00", "note": "ON 12/24 AND 12/31, THIS BOX MAY BE COLLECTED AS EARLY AS 12 NOON.", "nsi_id": "unitedstatespostalservice-a77078", "operator": "United States Postal Service", "operator:short": "USPS", "operator:type": "public", "operator:wikidata": "Q668687", "ref": "9912500001"}, "type": "Feature"}
{"geometry": {"coordinates": [-117.684551, 46.9282], "type": "Point"}, "id": "efdjW1NVqJjgljDFh_919-HAqD4=", "properties": {"@source_uri": "https://tools.usps.com/UspsToolsRestServices/rest/POLocator/findLocations", "@spider": "usps_collection_boxes", "addr:city": "ENDICOTT", "addr:country": "US", "addr:postcode": "99125", "addr:state": "WA", "addr:street_address": "308 D ST", "amenity": "post_box", "collection_times": "Mo-Fr 12:45; Sa 09:15", "indoor": "yes", "note": "ON 12/24 AND 12/31, THIS BOX MAY BE COLLECTED AS EARLY AS 12 NOON.", "nsi_id": "unitedstatespostalservice-a77078", "operator": "United States Postal Service", "operator:short": "USPS", "operator:type": "public", "operator:wikidata": "Q668687", "ref": "9912500002"}, "type": "Feature"}
{"geometry": {"coordinates": [-117.684959446, 46.928357978], "type": "Point"}, "id": "-N8Jflhdftrl_mBtYZ2PIQ00O6M=", "properties": {"@source_uri": "https://tools.usps.com/UspsToolsRestServices/rest/POLocator/findLocations", "@spider": "usps_collection_boxes", "addr:city": "ENDICOTT", "addr:country": "US", "addr:postcode": "99125", "addr:state": "WA", "addr:street_address": "308 D ST", "amenity": "post_box", "collection_times": "Mo-Fr 13:00", "indoor": "yes", "note": "ON 12/24 AND 12/31, THIS BOX MAY BE COLLECTED AS EARLY AS 12 NOON.", "nsi_id": "unitedstatespostalservice-a77078", "operator": "United States Postal Service", "operator:short": "USPS", "operator:type": "public", "operator:wikidata": "Q668687", "ref": "9912500003"}, "type": "Feature"}
{"geometry": {"coordinates": [-117.046355, 47.090077], "type": "Point"}, "id": "FvJhM5ijgS1O-Ii7WjzmeW6vobc=", "properties": {"@source_uri": "https://tools.usps.com/UspsToolsRestServices/rest/POLocator/findLocations", "@spider": "usps_collection_boxes", "addr:city": "FARMINGTON", "addr:country": "US", "addr:postcode": "99128", "addr:state": "WA", "addr:street_address": "105 E MAIN ST", "amenity": "post_box", "collection_times": "Mo-Fr 11:45; Sa 09:45", "indoor": "yes", "nsi_id": "unitedstatespostalservice-a77078", "operator": "United States Postal Service", "operator:short": "USPS", "operator:type": "public", "operator:wikidata": "Q668687", "ref": "9912800001"}, "type": "Feature"}
{"geometry": {"coordinates": [-117.046355, 47.090077], "type": "Point"}, "id": "EwaH4n14dqhLZuYRbCDdM4dMR6s=", "properties": {"@source_uri": "https://tools.usps.com/UspsToolsRestServices/rest/POLocator/findLocations", "@spider": "usps_collection_boxes", "addr:city": "FARMINGTON", "addr:country": "US", "addr:postcode": "99128", "addr:state": "WA", "addr:street_address": "105 E MAIN ST", "amenity": "post_box", "collection_times": "Mo-Fr 11:45; Sa 12:00", "nsi_id": "unitedstatespostalservice-a77078", "operator": "United States Postal Service", "operator:short": "USPS", "operator:type": "public", "operator:wikidata": "Q668687", "ref": "9912800002"}, "type": "Feature"}
{"geometry": {"coordinates": [-117.046401752, 47.090131649], "type": "Point"}, "id": "HLRofxJWk6X7keQepXsIe3XRluA=", "properties": {"@source_uri": "https://tools.usps.com/UspsToolsRestServices/rest/POLocator/findLocations", "@spider": "usps_collection_boxes", "addr:city": "FARMINGTON", "addr:country": "US", "addr:postcode": "99128", "addr:state": "WA", "addr:street_address": "105 E MAIN ST", "amenity": "post_box", "collection_times": "Mo-Fr 12:00", "indoor": "yes", "nsi_id": "unitedstatespostalservice-a77078", "operator": "United States Postal Service", "operator:short": "USPS", "operator:type": "public", "operator:wikidata": "Q668687", "ref": "9912800003"}, "type": "Feature"}
{"geometry": {"coordinates": [-118.1983899876, 48.0711599803], "type": "Point"}, "id": "oxdsfkv4Q-LnyeakHPCvTN8EZn4=", "properties": {"@source_uri": "https://tools.usps.com/UspsToolsRestServices/rest/POLocator/findLocations", "@spider": "usps_collection_boxes", "addr:city": "FRUITLAND", "addr:country": "US", "addr:postcode": "99129", "addr:state": "WA", "addr:street_address": "5369 HIGHWAY 25 S", "amenity": "post_box", "collection_times": "Mo-Sa 13:30", "note": "ON 12/24 AND 12/31, THIS BOX MAY BE COLLECTED AS EARLY AS 12 NOON.", "nsi_id": "unitedstatespostalservice-a77078", "operator": "United States Postal Service", "operator:short": "USPS", "operator:type": "public", "operator:wikidata": "Q668687", "ref": "9912900000"}, "type": "Feature"}
{"geometry": {"coordinates": [-117.141231, 47.007871], "type": "Point"}, "id": "WWKVVmM0fY6H6hIkeUjF33sd9rQ=", "properties": {"@source_uri": "https://tools.usps.com/UspsToolsRestServices/rest/POLocator/findLocations", "@spider": "usps_collection_boxes", "addr:city": "GARFIELD", "addr:country": "US", "addr:postcode": "99130", "addr:state": "WA", "addr:street_address": "302 W CALIFORNIA ST", "amenity": "post_box", "collection_times": "Mo-Fr 16:45; Sa 13:00", "indoor": "yes", "note": "ON 12/24 AND 12/31, THIS BOX MAY BE COLLECTED AS EARLY AS 12 NOON.", "nsi_id": "unitedstatespostalservice-a77078", "operator": "United States Postal Service", "operator:short": "USPS", "operator:type": "public", "operator:wikidata": "Q668687", "ref": "9913000001"}, "type": "Feature"}
{"geometry": {"coordinates": [-117.141231, 47.007871], "type": "Point"}, "id": "OdiSHUP-xjZ6JCCY_EhBpSjmxvo=", "properties": {"@source_uri": "https://tools.usps.com/UspsToolsRestServices/rest/POLocator/findLocations", "@spider": "usps_collection_boxes", "addr:city": "GARFIELD", "addr:country": "US", "addr:postcode": "99130", "addr:state": "WA", "addr:street_address": "302 W CALIFORNIA ST", "amenity": "post_box", "collection_times": "Mo-Fr 16:45", "note": "ON 12/24 AND 12/31, THIS BOX MAY BE COLLECTED AS EARLY AS 12 NOON.", "nsi_id": "unitedstatespostalservice-a77078", "operator": "United States Postal Service", "operator:short": "USPS", "operator:type": "public", "operator:wikidata": "Q668687", "ref": "9913000002"}, "type": "Feature"}
{"geometry": {"coordinates": [-117.141188691, 47.007926209], "type": "Point"}, "id": "fB-Yp0VbLy2OnUqGrfpAk5Ja1Wo=", "properties": {"@source_uri": "https://tools.usps.com/UspsToolsRestServices/rest/POLocator/findLocations", "@spider": "usps_collection_boxes", "addr:city": "GARFIELD", "addr:country": "US", "addr:postcode": "99130", "addr:state": "WA", "addr:street_address": "302 W CALIFORNIA ST", "amenity": "post_box", "collection_times": "Mo-Fr 16:45", "indoor": "yes", "note": "ON 12/24 AND 12/31, THIS BOX MAY BE COLLECTED AS EARLY AS 12 NOON.", "nsi_id": "unitedstatespostalservice-a77078", "operator": "United States Postal Service", "operator:short": "USPS", "operator:type": "public", "operator:wikidata": "Q668687", "ref": "9913000003"}, "type": "Feature"}
{"geometry": {"coordinates": [-118.146992, 48.306604], "type": "Point"}, "id": "uGQiOuzjM7BoumMuijhL1Ua8UyM=", "properties": {"@source_uri": "https://tools.usps.com/UspsToolsRestServices/rest/POLocator/findLocations", "@spider": "usps_collection_boxes", "addr:city": "GIFFORD", "addr:country": "US", "addr:postcode": "99131", "addr:state": "WA", "addr:street_address": "3379 HIGHWAY 25 S", "amenity": "post_box", "collection_times": "Mo-Sa 12:00", "indoor": "yes", "nsi_id": "unitedstatespostalservice-a77078", "operator": "United States Postal Service", "operator:short": "USPS", "operator:type": "public", "operator:wikidata": "Q668687", "ref": "9913100002"}, "type": "Feature"}
{"geometry": {"coordinates": [-118.146993561, 48.306600116], "type": "Point"}, "id": "FfC_VEUfzqY021w7AjiLhpopNN8=", "properties": {"@source_uri": "https://tools.usps.com/UspsToolsRestServices/rest/POLocator/findLocations", "@spider": "usps_collection_boxes", "addr:city": "GIFFORD", "addr:country": "US", "addr:postcode": "99131", "addr:state": "WA", "addr:street_address": "3379 HIGHWAY 25 S", "amenity": "post_box", "collection_times": "Mo-Sa 12:00", "indoor": "yes", "nsi_id": "unitedstatespostalservice-a77078", "operator": "United States Postal Service", "operator:short": "USPS", "operator:type": "public", "operator:wikidata": "Q668687", "ref": "9913100003"}, "type": "Feature"}
{"geometry": {"coordinates": [-119.006077, 47.940915], "type": "Point"}, "id": "CwveyEXDucAiodN85Lits7SaMno=", "properties": {"@source_uri": "https://tools.usps.com/UspsToolsRestServices/rest/POLocator/findLocations", "@spider": "usps_collection_boxes", "addr:city": "GRAND COULEE", "addr:country": "US", "addr:postcode": "99133", "addr:state": "WA", "addr:street_address": "407 MIDWAY AVE", "amenity": "post_box", "collection_times": "Mo-Fr 16:15; Sa 11:30", "note": "ON 12/24 AND 12/31, THIS BOX MAY BE COLLECTED AS EARLY AS 12 NOON.", "nsi_id": "unitedstatespostalservice-a77078", "operator": "United States Postal Service", "operator:short": "USPS", "operator:type": "public", "operator:wikidata": "Q668687", "ref": "9913300001"}, "type": "Feature"}
{"geometry": {"coordinates": [-119.005975, 47.9409], "type": "Point"}, "id": "2Zg82L1DaRuzARpbSqVQs-fgQiQ=", "properties": {"@source_uri": "https://tools.usps.com/UspsToolsRestServices/rest/POLocator/findLocations", "@spider": "usps_collection_boxes", "addr:city": "GRAND COULEE", "addr:country": "US", "addr:postcode": "99133", "addr:state": "WA", "addr:street_address": "407 MIDWAY AVE", "amenity": "post_box", "collection_times": "Mo-Fr 16:30; Sa 11:30", "indoor": "yes", "note": "ON 12/24 AND 12/31, THIS BOX MAY BE COLLECTED AS EARLY AS 12 NOON.", "nsi_id": "unitedstatespostalservice-a77078", "operator": "United States Postal Service", "operator:short": "USPS", "operator:type": "public", "operator:wikidata": "Q668687", "ref": "9913300002"}, "type": "Feature"}
{"geometry": {"coordinates": [-119.005805945, 47.940996942], "type": "Point"}, "id": "SNrAqDKcVNtjYvbkj42-3axbB_Q=", "properties": {"@source_uri": "https://tools.usps.com/UspsToolsRestServices/rest/POLocator/findLocations", "@spider": "usps_collection_boxes", "addr:city": "GRAND COULEE", "addr:country": "US", "addr:postcode": "99133", "addr:state": "WA", "addr:street_address": "407 MIDWAY AVE", "amenity": "post_box", "collection_times": "Mo-Fr 16:45; Sa 11:30", "indoor": "yes", "note": "ON 12/24 AND 12/31, THIS BOX MAY BE COLLECTED AS EARLY AS 12 NOON.", "nsi_id": "unitedstatespostalservice-a77078", "operator": "United States Postal Service", "operator:short": "USPS", "operator:type": "public", "operator:wikidata": "Q668687", "ref": "9913300003"}, "type": "Feature"}
{"geometry": {"coordinates": [-118.255941, 47.480761], "type": "Point"}, "id": "sdxQtC7txtTsv7NtRRG8p4iOn0Y=", "properties": {"@source_uri": "https://tools.usps.com/UspsToolsRestServices/rest/POLocator/findLocations", "@spider": "usps_collection_boxes", "addr:city": "HARRINGTON", "addr:country": "US", "addr:postcode": "99134", "addr:state": "WA", "addr:street_address": "310 W MAIN ST", "amenity": "post_box", "collection_times": "Mo-Fr 16:00; Sa 09:30", "indoor": "yes", "note": "ON 12/24 AND 12/31, THIS BOX MAY BE COLLECTED AS EARLY AS 12 NOON.", "nsi_id": "unitedstatespostalservice-a77078", "operator": "United States Postal Service", "operator:short": "USPS", "operator:type": "public", "operator:wikidata": "Q668687", "ref": "9913400001"}, "type": "Feature"}
{"geometry": {"coordinates": [-118.255941, 47.480761], "type": "Point"}, "id": "3P3TjnB3tapk3yVAC2nXlyShOrs=", "properties": {"@source_uri": "https://tools.usps.com/UspsToolsRestServices/rest/POLocator/findLocations", "@spider": "usps_collection_boxes", "addr:city": "HARRINGTON", "addr:country": "US", "addr:postcode": "99134", "addr:state": "WA", "addr:street_address": "310 W MAIN ST", "amenity": "post_box", "collection_times": "Mo-Fr 16:00; Sa 09:15", "note": "ON 12/24 AND 12/31, THIS BOX MAY BE COLLECTED AS EARLY AS 12 NOON.", "nsi_id": "unitedstatespostalservice-a77078", "operator": "United States Postal Service", "operator:short": "USPS", "operator:type": "public", "operator:wikidata": "Q668687", "ref": "9913400002"}, "type": "Feature"}
{"geometry": {"coordinates": [-118.255940832, 47.480759467], "type": "Point"}, "id": "xBD1x5qG8jVwZ7NCpLXiSFUeP40=", "properties": {"@source_uri": "https://tools.usps.com/UspsToolsRestServices/rest/POLocator/findLocations", "@spider": "usps_collection_boxes", "addr:city": "HARRINGTON", "addr:country": "US", "addr:postcode": "99134", "addr:state": "WA", "addr:street_address": "310 W MAIN ST", "amenity": "post_box", "collection_times": "Mo-Fr 16:00", "indoor": "yes", "note": "ON 12/24 AND 12/31, THIS BOX MAY BE COLLECTED AS EARLY AS 12 NOON.", "nsi_id": "unitedstatespostalservice-a77078", "operator": "United States Postal Service", "operator:short": "USPS", "operator:type": "public", "operator:wikidata": "Q668687", "ref": "9913400003"}, "type": "Feature"}
{"geometry": {"coordinates": [-119.10856, 47.690317], "type": "Point"}, "id": "Qc9GDS2PBGoZ7AQBJSFQ8j0vdOE=", "properties": {"@source_uri": "https://tools.usps.com/UspsToolsRestServices/rest/POLocator/findLocations", "@spider": "usps_collection_boxes", "addr:city": "HARTLINE", "addr:country": "US", "addr:postcode": "99135", "addr:state": "WA", "addr:street_address": "867 WILLARD ST", "amenity": "post_box", "collection_times": "Mo-Fr 13:00; Sa 10:00", "note": "ON 12/24 AND 12/31, THIS BOX MAY BE COLLECTED AS EARLY AS 12 NOON.", "nsi_id": "unitedstatespostalservice-a77078", "operator": "United States Postal Service", "operator:short": "USPS", "operator:type": "public", "operator:wikidata": "Q668687", "ref": "9913500001"}, "type": "Feature"}
{"geometry": {"coordinates": [-119.10856, 47.690317], "type": "Point"}, "id": "Wt_rTZrP7eWjvRDawIZQbu1pvh4=", "properties": {"@source_uri": "https://tools.usps.com/UspsToolsRestServices/rest/POLocator/findLocations", "@spider": "usps_collection_boxes", "addr:city": "HARTLINE", "addr:country": "US", "addr:postcode": "99135", "addr:state": "WA", "addr:street_address": "867 WILLARD ST", "amenity": "post_box", "collection_times": "Mo-Fr 12:45; Sa 10:00", "indoor": "yes", "note": "ON 12/24 AND 12/31, THIS BOX MAY BE COLLECTED AS EARLY AS 12 NOON.", "nsi_id": "unitedstatespostalservice-a77078", "operator": "United States Postal Service", "operator:short": "USPS", "operator:type": "public", "operator:wikidata": "Q668687", "ref": "9913500002"}, "type": "Feature"}
{"geometry": {"coordinates": [-119.108560332, 47.690310519], "type": "Point"}, "id": "sD7LCcmn0OnZHOLjhGlWA6prvBc=", "properties": {"@source_uri": "https://tools.usps.com/UspsToolsRestServices/rest/POLocator/findLocations", "@spider": "usps_collection_boxes", "addr:city": "HARTLINE", "addr:country": "US", "addr:postcode": "99135", "addr:state": "WA", "addr:street_address": "867 WILLARD ST", "amenity": "post_box", "collection_times": "Mo-Fr 13:00; Sa 10:00", "indoor": "yes", "note": "ON 12/24 AND 12/31, THIS BOX MAY BE COLLECTED AS EARLY AS 12 NOON.", "nsi_id": "unitedstatespostalservice-a77078", "operator": "United States Postal Service", "operator:short": "USPS", "operator:type": "public", "operator:wikidata": "Q668687", "ref": "9913500003"}, "type": "Feature"}
{"geometry": {"coordinates": [-118.2027299694, 48.117339992], "type": "Point"}, "id": "imTM4aKnbjrOXfXEkHlfLxJIsSk=", "properties": {"@source_uri": "https://tools.usps.com/UspsToolsRestServices/rest/POLocator/findLocations", "@spider": "usps_collection_boxes", "addr:city": "HUNTERS", "addr:country": "US", "addr:postcode": "99137", "addr:state": "WA", "addr:street_address": "4990 HIGHWAY 25 S", "amenity": "post_box", "collection_times": "Mo-Fr 14:45; Sa 12:00", "note": "ON 12/24 AND 12/31, THIS BOX MAY BE COLLECTED AS EARLY AS 12 NOON.", "nsi_id": "unitedstatespostalservice-a77078", "operator": "United States Postal Service", "operator:short": "USPS", "operator:type": "public", "operator:wikidata": "Q668687", "ref": "9913700001"}, "type": "Feature"}
{"geometry": {"coordinates": [-118.2027299694, 48.117339992], "type": "Point"}, "id": "rjd1CchgHzDDjZDz57jBJl1GaXU=", "properties": {"@source_uri": "https://tools.usps.com/UspsToolsRestServices/rest/POLocator/findLocations", "@spider": "usps_collection_boxes", "addr:city": "HUNTERS", "addr:country": "US", "addr:postcode": "99137", "addr:state": "WA", "addr:street_address": "4990 HIGHWAY 25 S", "amenity": "post_box", "collection_times": "Mo-Fr 14:45; Sa 12:00", "indoor": "yes", "note": "ON 12/24 AND 12/31, THIS BOX MAY BE COLLECTED AS EARLY AS 12 NOON.", "nsi_id": "unitedstatespostalservice-a77078", "operator": "United States Postal Service", "operator:short": "USPS", "operator:type": "public", "operator:wikidata": "Q668687", "ref": "9913700002"}, "type": "Feature"}
{"geometry": {"coordinates": [-118.202652031, 48.117364565], "type": "Point"}, "id": "gcdV2bmgg2iNdqGwkzZ9WJ4oHDY=", "properties": {"@source_uri": "https://tools.usps.com/UspsToolsRestServices/rest/POLocator/findLocations", "@spider": "usps_collection_boxes", "addr:city": "HUNTERS", "addr:country": "US", "addr:postcode": "99137", "addr:state": "WA", "addr:street_address": "4990 HIGHWAY 25", "amenity": "post_box", "collection_times": "Mo-Fr 14:45; Sa 12:00", "indoor": "yes", "note": "ON 12/24 AND 12/31, THIS BOX MAY BE COLLECTED AS EARLY AS 12 NOON.", "nsi_id": "unitedstatespostalservice-a77078", "operator": "United States Postal Service", "operator:short": "USPS", "operator:type": "public", "operator:wikidata": "Q668687", "ref": "9913700003"}, "type": "Feature"}
{"geometry": {"coordinates": [-118.1966272368, 48.2981100461], "type": "Point"}, "id": "pYpqrK7GkmJR4u5a2erNKp0wc8o=", "properties": {"@source_uri": "https://tools.usps.com/UspsToolsRestServices/rest/POLocator/findLocations", "@spider": "usps_collection_boxes", "addr:city": "INCHELIUM", "addr:country": "US", "addr:postcode": "99138", "addr:state": "WA", "addr:street_address": "2316 INCHELIUM HWY", "amenity": "post_box", "collection_times": "Mo-Fr 14:00; Sa 11:00", "note": "ON 12/24 AND 12/31, THIS BOX MAY BE COLLECTED AS EARLY AS 12 NOON.", "nsi_id": "unitedstatespostalservice-a77078", "operator": "United States Postal Service", "operator:short": "USPS", "operator:type": "public", "operator:wikidata": "Q668687", "ref": "9913800001"}, "type": "Feature"}
{"geometry": {"coordinates": [-118.22078, 48.457713], "type": "Point"}, "id": "ge29cygssQkNIXOsqzEuHzM0dTk=", "properties": {"@source_uri": "https://tools.usps.com/UspsToolsRestServices/rest/POLocator/findLocations", "@spider": "usps_collection_boxes", "addr:city": "INCHELIUM", "addr:country": "US", "addr:postcode": "99138", "addr:state": "WA", "addr:street_address": "2316 INCHELIUM HWY", "amenity": "post_box", "collection_times": "Mo-Fr 14:00; Sa 11:00", "indoor": "yes", "note": "ON 12/24 AND 12/31, THIS BOX MAY BE COLLECTED AS EARLY AS 12 NOON.", "nsi_id": "unitedstatespostalservice-a77078", "operator": "United States Postal Service", "operator:short": "USPS", "operator:type": "public", "operator:wikidata": "Q668687", "ref": "9913800002"}, "type": "Feature"}
{"geometry": {"coordinates": [-118.196616903, 48.299053141], "type": "Point"}, "id": "6BOm9sFuxery13_MwuI7Ytb47YI=", "properties": {"@source_uri": "https://tools.usps.com/UspsToolsRestServices/rest/POLocator/findLocations", "@spider": "usps_collection_boxes", "addr:city": "INCHELIUM", "addr:country": "US", "addr:postcode": "99138", "addr:state": "WA", "addr:street_address": "2316 INCHELIUM HWY", "amenity": "post_box", "collection_times": "Mo-Fr 14:00; Sa 11:00", "indoor": "yes", "note": "ON 12/24 AND 12/31, THIS BOX MAY BE COLLECTED AS EARLY AS 12 NOON.", "nsi_id": "unitedstatespostalservice-a77078", "operator": "United States Postal Service", "operator:short": "USPS", "operator:type": "public", "operator:wikidata": "Q668687", "ref": "9913800003"}, "type": "Feature"}
{"geometry": {"coordinates": [-117.421377, 48.740893], "type": "Point"}, "id": "9flbzUQNcZEz2LojieB5m6FRGuk=", "properties": {"@source_uri": "https://tools.usps.com/UspsToolsRestServices/rest/POLocator/findLocations", "@spider": "usps_collection_boxes", "addr:city": "IONE", "addr:country": "US", "addr:postcode": "99139", "addr:state": "WA", "addr:street_address": "419 MAIN ST", "amenity": "post_box", "collection_times": "Mo-Fr 16:00; Sa 11:00", "note": "ON 12/24 AND 12/31, THIS BOX MAY BE COLLECTED AS EARLY AS 12 NOON.", "nsi_id": "unitedstatespostalservice-a77078", "operator": "United States Postal Service", "operator:short": "USPS", "operator:type": "public", "operator:wikidata": "Q668687", "ref": "9913900001"}, "type": "Feature"}
{"geometry": {"coordinates": [-117.421377, 48.740893], "type": "Point"}, "id": "H3B2dKW0Q82-GPl3RmdfPET6yMo=", "properties": {"@source_uri": "https://tools.usps.com/UspsToolsRestServices/rest/POLocator/findLocations", "@spider": "usps_collection_boxes", "addr:city": "IONE", "addr:country": "US", "addr:postcode": "99139", "addr:state": "WA", "addr:street_address": "419 MAIN ST", "amenity": "post_box", "collection_times": "Mo-Fr 16:00; Sa 11:00", "indoor": "yes", "note": "ON 12/24 AND 12/31, THIS BOX MAY BE COLLECTED AS EARLY AS 12 NOON.", "nsi_id": "unitedstatespostalservice-a77078", "operator": "United States Postal Service", "operator:short": "USPS", "operator:type": "public", "operator:wikidata": "Q668687", "ref": "9913900002"}, "type": "Feature"}
{"geometry": {"coordinates": [-117.422172, 48.740890507], "type": "Point"}, "id": "Durji37ElUllNgceuQk2z15mKJU=", "properties": {"@source_uri": "https://tools.usps.com/UspsToolsRestServices/rest/POLocator/findLocations", "@spider": "usps_collection_boxes", "addr:city": "IONE", "addr:country": "US", "addr:postcode": "99139", "addr:state": "WA", "addr:street_address": "419 MAIN ST", "amenity": "post_box", "collection_times": "Mo-Fr 16:00", "indoor": "yes", "note": "ON 12/24 AND 12/31, THIS BOX MAY BE COLLECTED AS EARLY AS 12 NOON.", "nsi_id": "unitedstatespostalservice-a77078", "operator": "United States Postal Service", "operator:short": "USPS", "operator:type": "public", "operator:wikidata": "Q668687", "ref": "9913900003"}, "type": "Feature"}
{"geometry": {"coordinates": [-118.685027, 48.078461], "type": "Point"}, "id": "SrrXQBAPlWleqC_hAdWGFsvdg2U=", "properties": {"@source_uri": "https://tools.usps.com/UspsToolsRestServices/rest/POLocator/findLocations", "@spider": "usps_collection_boxes", "addr:city": "KELLER", "addr:country": "US", "addr:postcode": "99140", "addr:state": "WA", "addr:street_address": "11673 S HIGHWAY 21", "amenity": "post_box", "collection_times": "Mo-Fr 11:45; Sa 10:45", "nsi_id": "unitedstatespostalservice-a77078", "operator": "United States Postal Service", "operator:short": "USPS", "operator:type": "public", "operator:wikidata": "Q668687", "ref": "9914000001"}, "type": "Feature"}
{"geometry": {"coordinates": [-118.68308, 48.077679], "type": "Point"}, "id": "6_BEuh3bwsjqXTz35SJl_Hiiuz8=", "properties": {"@source_uri": "https://tools.usps.com/UspsToolsRestServices/rest/POLocator/findLocations", "@spider": "usps_collection_boxes", "addr:city": "KELLER", "addr:country": "US", "addr:postcode": "99140", "addr:state": "WA", "addr:street_address": "11673 S HIGHWAY 21", "amenity": "post_box", "collection_times": "Mo-Fr 11:30; Sa 11:00", "indoor": "yes", "nsi_id": "unitedstatespostalservice-a77078", "operator": "United States Postal Service", "operator:short": "USPS", "operator:type": "public", "operator:wikidata": "Q668687", "ref": "9914000002"}, "type": "Feature"}
{"geometry": {"coordinates": [-118.683101845, 48.077637288], "type": "Point"}, "id": "OSYE3SzH03c5XyQ5gFfHqqOGAsI=", "properties": {"@source_uri": "https://tools.usps.com/UspsToolsRestServices/rest/POLocator/findLocations", "@spider": "usps_collection_boxes", "addr:city": "KELLER", "addr:country": "US", "addr:postcode": "99140", "addr:state": "WA", "addr:street_address": "11673 S HIGHWAY 21", "amenity": "post_box", "collection_times": "Mo-Fr 12:00; Sa 11:00", "indoor": "yes", "nsi_id": "unitedstatespostalservice-a77078", "operator": "United States Postal Service", "operator:short": "USPS", "operator:type": "public", "operator:wikidata": "Q668687", "ref": "9914000003"}, "type": "Feature"}
{"geometry": {"coordinates": [-118.056436, 48.608639], "type": "Point"}, "id": "l7neGQBf8hm84KaaXvq8bK7iQsM=", "properties": {"@source_uri": "https://tools.usps.com/UspsToolsRestServices/rest/POLocator/findLocations", "@spider": "usps_collection_boxes", "addr:city": "KETTLE FALLS", "addr:country": "US", "addr:postcode": "99141", "addr:state": "WA", "addr:street_address": "510 MEYERS ST", "amenity": "post_box", "collection_times": "Mo-Fr 16:45; Sa 15:45", "note": "ON 12/24 AND 12/31, THIS BOX MAY BE COLLECTED AS EARLY AS 12 NOON.", "nsi_id": "unitedstatespostalservice-a77078", "operator": "United States Postal Service", "operator:short": "USPS", "operator:type": "public", "operator:wikidata": "Q668687", "ref": "9914100001"}, "type": "Feature"}
{"geometry": {"coordinates": [-118.056556, 48.608654], "type": "Point"}, "id": "RAVVcd-v-OEivQN0oxG5BicEw7Q=", "properties": {"@source_uri": "https://tools.usps.com/UspsToolsRestServices/rest/POLocator/findLocations", "@spider": "usps_collection_boxes", "addr:city": "KETTLE FALLS", "addr:country": "US", "addr:postcode": "99141", "addr:state": "WA", "addr:street_address": "510 MEYERS ST", "amenity": "post_box", "collection_times": "Mo-Fr 17:00; Sa 16:00", "indoor": "yes", "note": "ON 12/24 AND 12/31, THIS BOX MAY BE COLLECTED AS EARLY AS 12 NOON.", "nsi_id": "unitedstatespostalservice-a77078", "operator": "United States Postal Service", "operator:short": "USPS", "operator:type": "public", "operator:wikidata": "Q668687", "ref": "9914100002"}, "type": "Feature"}
{"geometry": {"coordinates": [-118.059003, 48.611332], "type": "Point"}, "id": "pAXdEQh3EhgNJPgZkqBd6bZftyk=", "properties": {"@source_uri": "https://tools.usps.com/UspsToolsRestServices/rest/POLocator/findLocations", "@spider": "usps_collection_boxes", "addr:city": "KETTLE FALLS", "addr:country": "US", "addr:postcode": "99141", "addr:state": "WA", "addr:street_address": "280 W 3RD AVE", "amenity": "post_box", "collection_times": "Mo-Sa 14:15", "note": "ON 12/24 AND 12/31, THIS BOX MAY BE COLLECTED AS EARLY AS 12 NOON.", "nsi_id": "unitedstatespostalservice-a77078", "operator": "United States Postal Service", "operator:short": "USPS", "operator:type": "public", "operator:wikidata": "Q668687", "ref": "9914100003"}, "type": "Feature"}
{"geometry": {"coordinates": [-118.056230985, 48.608647313], "type": "Point"}, "id": "Jv6viCgRzlbVZAnKCuVK-mSbcQs=", "properties": {"@source_uri": "https://tools.usps.com/UspsToolsRestServices/rest/POLocator/findLocations", "@spider": "usps_collection_boxes", "addr:city": "KETTLE FALLS", "addr:country": "US", "addr:postcode": "99141", "addr:state": "WA", "addr:street_address": "510 MEYERS ST", "amenity": "post_box", "collection_times": "Mo-Fr 17:00; Sa 11:30", "indoor": "yes", "note": "ON 12/24 AND 12/31, THIS BOX MAY BE COLLECTED AS EARLY AS 12 NOON.", "nsi_id": "unitedstatespostalservice-a77078", "operator": "United States Postal Service", "operator:short": "USPS", "operator:type": "public", "operator:wikidata": "Q668687", "ref": "9914100004"}, "type": "Feature"}
{"geometry": {"coordinates": [-117.881101, 46.814183], "type": "Point"}, "id": "IQxF6u15f_1uD00wTpSe9_GjD_w=", "properties": {"@source_uri": "https://tools.usps.com/UspsToolsRestServices/rest/POLocator/findLocations", "@spider": "usps_collection_boxes", "addr:city": "LACROSSE", "addr:country": "US", "addr:postcode": "99143", "addr:state": "WA", "addr:street_address": "219 S MAIN ST", "amenity": "post_box", "collection_times": "Mo-Fr 16:30; Sa 10:00", "indoor": "yes", "note": "ON 12/24 AND 12/31, THIS BOX MAY BE COLLECTED AS EARLY AS 12 NOON.", "nsi_id": "unitedstatespostalservice-a77078", "operator": "United States Postal Service", "operator:short": "USPS", "operator:type": "public", "operator:wikidata": "Q668687", "ref": "9914300001"}, "type": "Feature"}
{"geometry": {"coordinates": [-117.8805362589, 46.8147323967], "type": "Point"}, "id": "ph2IlKH6LhSRr9XfaAIJBvSIQPg=", "properties": {"@source_uri": "https://tools.usps.com/UspsToolsRestServices/rest/POLocator/findLocations", "@spider": "usps_collection_boxes", "addr:city": "LACROSSE", "addr:country": "US", "addr:postcode": "99143", "addr:state": "WA", "addr:street_address": "219 S MAIN ST", "amenity": "post_box", "collection_times": "Mo-Fr 16:30", "indoor": "yes", "note": "ON 12/24 AND 12/31, THIS BOX MAY BE COLLECTED AS EARLY AS 12 NOON.", "nsi_id": "unitedstatespostalservice-a77078", "operator": "United States Postal Service", "operator:short": "USPS", "operator:type": "public", "operator:wikidata": "Q668687", "ref": "9914300002"}, "type": "Feature"}
{"geometry": {"coordinates": [-118.224377, 48.998421], "type": "Point"}, "id": "0OMqbX95o1n0erIPJzIwXjtfWL8=", "properties": {"@source_uri": "https://tools.usps.com/UspsToolsRestServices/rest/POLocator/findLocations", "@spider": "usps_collection_boxes", "addr:city": "LAURIER", "addr:country": "US", "addr:postcode": "99146", "addr:state": "WA", "addr:street_address": "27007 N HIGHWAY 395", "amenity": "post_box", "collection_times": "Mo-Fr 13:30; Sa 11:00", "note": "ON 12/24 AND 12/31, THIS BOX MAY BE COLLECTED AS EARLY AS 12 NOON.", "nsi_id": "unitedstatespostalservice-a77078", "operator": "United States Postal Service", "operator:short": "USPS", "operator:type": "public", "operator:wikidata": "Q668687", "ref": "9914600001"}, "type": "Feature"}
{"geometry": {"coordinates": [-118.224377, 48.998421], "type": "Point"}, "id": "qYx-43JmMv88H-NyZpbNfGVb8V0=", "properties": {"@source_uri": "https://tools.usps.com/UspsToolsRestServices/rest/POLocator/findLocations", "@spider": "usps_collection_boxes", "addr:city": "LAURIER", "addr:country": "US", "addr:postcode": "99146", "addr:state": "WA", "addr:street_address": "27007 N HIGHWAY 395 STE 1", "amenity": "post_box", "collection_times": "Mo-Fr 13:45; Sa 11:15", "indoor": "yes", "note": "ON 12/24 AND 12/31, THIS BOX MAY BE COLLECTED AS EARLY AS 12 NOON.", "nsi_id": "unitedstatespostalservice-a77078", "operator": "United States Postal Service", "operator:short": "USPS", "operator:type": "public", "operator:wikidata": "Q668687", "ref": "9914600002"}, "type": "Feature"}
{"geometry": {"coordinates": [-118.22446455, 48.998152554], "type": "Point"}, "id": "BdmhuHpfsfnl6AzptGozb8UYOYY=", "properties": {"@source_uri": "https://tools.usps.com/UspsToolsRestServices/rest/POLocator/findLocations", "@spider": "usps_collection_boxes", "addr:city": "LAURIER", "addr:country": "US", "addr:postcode": "99146", "addr:state": "WA", "addr:street_address": "27007 N HIGHWAY 395 STE 1", "amenity": "post_box", "collection_times": "Mo-Fr 14:00; Sa 11:00", "indoor": "yes", "note": "ON 12/24 AND 12/31, THIS BOX MAY BE COLLECTED AS EARLY AS 12 NOON.", "nsi_id": "unitedstatespostalservice-a77078", "operator": "United States Postal Service", "operator:short": "USPS", "operator:type": "public", "operator:wikidata": "Q668687", "ref": "9914600003"}, "type": "Feature"}
{"geometry": {"coordinates": [-117.629391, 48.062756], "type": "Point"}, "id": "Th2vGCC0Oq05RWOvbOi6upBku9g=", "properties": {"@source_uri": "https://tools.usps.com/UspsToolsRestServices/rest/POLocator/findLocations", "@spider": "usps_collection_boxes", "addr:city": "LOON LAKE", "addr:country": "US", "addr:postcode": "99148", "addr:state": "WA", "addr:street_address": "3992 COLVILLE RD", "amenity": "post_box", "collection_times": "Mo-Fr 16:45; Sa 12:15", "indoor": "yes", "note": "ON 12/24 AND 12/31, THIS BOX MAY BE COLLECTED AS EARLY AS 12 NOON.", "nsi_id": "unitedstatespostalservice-a77078", "operator": "United States Postal Service", "operator:short": "USPS", "operator:type": "public", "operator:wikidata": "Q668687", "ref": "9914800001"}, "type": "Feature"}
{"geometry": {"coordinates": [-117.6293924162, 48.0627524572], "type": "Point"}, "id": "sRbN2BIkWHyu40LzqS2ESzsMb1Q=", "properties": {"@source_uri": "https://tools.usps.com/UspsToolsRestServices/rest/POLocator/findLocations", "@spider": "usps_collection_boxes", "addr:city": "LOON LAKE", "addr:country": "US", "addr:postcode": "99148", "addr:state": "WA", "addr:street_address": "3992 COLVILLE RD", "amenity": "post_box", "collection_times": "Mo-Fr 16:45; Sa 12:15", "note": "ON 12/24 AND 12/31, THIS BOX MAY BE COLLECTED AS EARLY AS 12 NOON.", "nsi_id": "unitedstatespostalservice-a77078", "operator": "United States Postal Service", "operator:short": "USPS", "operator:type": "public", "operator:wikidata": "Q668687", "ref": "9914800003"}, "type": "Feature"}
{"geometry": {"coordinates": [-117.6293924162, 48.0627524572], "type": "Point"}, "id": "tD6LORZG_sitFN4v7uGWZQTFSKw=", "properties": {"@source_uri": "https://tools.usps.com/UspsToolsRestServices/rest/POLocator/findLocations", "@spider": "usps_collection_boxes", "addr:city": "LOON LAKE", "addr:country": "US", "addr:postcode": "99148", "addr:state": "WA", "addr:street_address": "3992 COLVILLE RD", "amenity": "post_box", "collection_times": "Mo-Fr 16:45; Sa 12:00", "indoor": "yes", "note": "ON 12/24 AND 12/31, THIS BOX MAY BE COLLECTED AS EARLY AS 12 NOON.", "nsi_id": "unitedstatespostalservice-a77078", "operator": "United States Postal Service", "operator:short": "USPS", "operator:type": "public", "operator:wikidata": "Q668687", "ref": "9914800004"}, "type": "Feature"}
{"geometry": {"coordinates": [-117.4780375, 47.2297593], "type": "Point"}, "id": "5ydcQwnD_yc0aaFvR6Bd_g9xhlk=", "properties": {"@source_uri": "https://tools.usps.com/UspsToolsRestServices/rest/POLocator/findLocations", "@spider": "usps_collection_boxes", "addr:city": "MALDEN", "addr:country": "US", "addr:postcode": "99149", "addr:state": "WA", "addr:street_address": "14 W MORELAND AVE", "amenity": "post_box", "collection_times": "Mo-Fr 16:30; Sa 11:45", "note": "ON 12/24 AND 12/31, THIS BOX MAY BE COLLECTED AS EARLY AS 12 NOON.", "nsi_id": "unitedstatespostalservice-a77078", "operator": "United States Postal Service", "operator:short": "USPS", "operator:type": "public", "operator:wikidata": "Q668687", "ref": "9914900001"}, "type": "Feature"}
{"geometry": {"coordinates": [-117.4780375, 47.2297593], "type": "Point"}, "id": "gxy9LzIpcZlqmG3m-tGq-YEVF1s=", "properties": {"@source_uri": "https://tools.usps.com/UspsToolsRestServices/rest/POLocator/findLocations", "@spider": "usps_collection_boxes", "addr:city": "MALDEN", "addr:country": "US", "addr:postcode": "99149", "addr:state": "WA", "addr:street_address": "14 W MORELAND AVE", "amenity": "post_box", "collection_times": "Mo-Sa 12:00", "indoor": "yes", "nsi_id": "unitedstatespostalservice-a77078", "operator": "United States Postal Service", "operator:short": "USPS", "operator:type": "public", "operator:wikidata": "Q668687", "ref": "9914900004"}, "type": "Feature"}
{"geometry": {"coordinates": [-117.4780375, 47.2297593], "type": "Point"}, "id": "5l1wGxRu-eJvoRSB-inCuIg_zaA=", "properties": {"@source_uri": "https://tools.usps.com/UspsToolsRestServices/rest/POLocator/findLocations", "@spider": "usps_collection_boxes", "addr:city": "MALDEN", "addr:country": "US", "addr:postcode": "99149", "addr:state": "WA", "addr:street_address": "14 W MORELAND AVE", "amenity": "post_box", "collection_times": "Mo-Sa 12:00", "indoor": "yes", "nsi_id": "unitedstatespostalservice-a77078", "operator": "United States Postal Service", "operator:short": "USPS", "operator:type": "public", "operator:wikidata": "Q668687", "ref": "9914900005"}, "type": "Feature"}
{"geometry": {"coordinates": [-118.609765, 48.800351], "type": "Point"}, "id": "QC3vByhi5PTNLywM99DdJ4rXaao=", "properties": {"@source_uri": "https://tools.usps.com/UspsToolsRestServices/rest/POLocator/findLocations", "@spider": "usps_collection_boxes", "addr:city": "MALO", "addr:country": "US", "addr:postcode": "99150", "addr:state": "WA", "addr:street_address": "17500 N HIGHWAY 21", "amenity": "post_box", "collection_times": "Mo-Fr 14:15; Sa 10:00", "note": "ON 12/24 AND 12/31, THIS BOX MAY BE COLLECTED AS EARLY AS 12 NOON.", "nsi_id": "unitedstatespostalservice-a77078", "operator": "United States Postal Service", "operator:short": "USPS", "operator:type": "public", "operator:wikidata": "Q668687", "ref": "9915000001"}, "type": "Feature"}
{"geometry": {"coordinates": [-118.629538, 48.780288], "type": "Point"}, "id": "UdgCDSflrtiTgJMG1Tk11QDHyzg=", "properties": {"@source_uri": "https://tools.usps.com/UspsToolsRestServices/rest/POLocator/findLocations", "@spider": "usps_collection_boxes", "addr:city": "MALO", "addr:country": "US", "addr:postcode": "99150", "addr:state": "WA", "addr:street_address": "17500 N HIGHWAY 21", "amenity": "post_box", "collection_times": "Mo-Fr 13:15; Sa 10:00", "indoor": "yes", "note": "ON 12/24 AND 12/31, THIS BOX MAY BE COLLECTED AS EARLY AS 12 NOON.", "nsi_id": "unitedstatespostalservice-a77078", "operator": "United States Postal Service", "operator:short": "USPS", "operator:type": "public", "operator:wikidata": "Q668687", "ref": "9915000002"}, "type": "Feature"}
{"geometry": {"coordinates": [-118.6020718287, 48.8072078648], "type": "Point"}, "id": "H6xuM1OEVRbKA5e4qK7FReanfSg=", "properties": {"@source_uri": "https://tools.usps.com/UspsToolsRestServices/rest/POLocator/findLocations", "@spider": "usps_collection_boxes", "addr:city": "MALO", "addr:country": "US", "addr:postcode": "99150", "addr:state": "WA", "addr:street_address": "17500 N HIGHWAY 21", "amenity": "post_box", "collection_times": "Mo-Fr 13:30; Sa 10:00", "indoor": "yes", "note": "ON 12/24 AND 12/31, THIS BOX MAY BE COLLECTED AS EARLY AS 12 NOON.", "nsi_id": "unitedstatespostalservice-a77078", "operator": "United States Postal Service", "operator:short": "USPS", "operator:type": "public", "operator:wikidata": "Q668687", "ref": "9915000003"}, "type": "Feature"}
{"geometry": {"coordinates": [-118.059448, 48.664071], "type": "Point"}, "id": "gVdnlKCJabzqGkzRMt3sKrc7070=", "properties": {"@source_uri": "https://tools.usps.com/UspsToolsRestServices/rest/POLocator/findLocations", "@spider": "usps_collection_boxes", "addr:city": "MARCUS", "addr:country": "US", "addr:postcode": "99151", "addr:state": "WA", "addr:street_address": "1309 CIDER ST", "amenity": "post_box", "collection_times": "Mo-Fr 15:00; Sa 10:30", "indoor": "yes", "note": "ON 12/24 AND 12/31, THIS BOX MAY BE COLLECTED AS EARLY AS 12 NOON.", "nsi_id": "unitedstatespostalservice-a77078", "operator": "United States Postal Service", "operator:short": "USPS", "operator:type": "public", "operator:wikidata": "Q668687", "ref": "9915100002"}, "type": "Feature"}
{"geometry": {"coordinates": [-118.059086602, 48.664166257], "type": "Point"}, "id": "7lslxQhLoFSE9n0axaeBS1fkMTw=", "properties": {"@source_uri": "https://tools.usps.com/UspsToolsRestServices/rest/POLocator/findLocations", "@spider": "usps_collection_boxes", "addr:city": "MARCUS", "addr:country": "US", "addr:postcode": "99151", "addr:state": "WA", "addr:street_address": "1309 CIDER ST", "amenity": "post_box", "collection_times": "Mo-Fr 15:30; Sa 10:30", "indoor": "yes", "note": "ON 12/24 AND 12/31, THIS BOX MAY BE COLLECTED AS EARLY AS 12 NOON.", "nsi_id": "unitedstatespostalservice-a77078", "operator": "United States Postal Service", "operator:short": "USPS", "operator:type": "public", "operator:wikidata": "Q668687", "ref": "9915100003"}, "type": "Feature"}
{"geometry": {"coordinates": [-117.38905, 48.850009], "type": "Point"}, "id": "vnturQkJmahmL8956auGcW2KV_k=", "properties": {"@source_uri": "https://tools.usps.com/UspsToolsRestServices/rest/POLocator/findLocations", "@spider": "usps_collection_boxes", "addr:city": "METALINE", "addr:country": "US", "addr:postcode": "99152", "addr:state": "WA", "addr:street_address": "101 N MAIN ST", "amenity": "post_box", "collection_times": "Mo-Fr 15:45; Sa 11:00", "note": "ON 12/24 AND 12/31, THIS BOX MAY BE COLLECTED AS EARLY AS 12 NOON.", "nsi_id": "unitedstatespostalservice-a77078", "operator": "United States Postal Service", "operator:short": "USPS", "operator:type": "public", "operator:wikidata": "Q668687", "ref": "9915200001"}, "type": "Feature"}
{"geometry": {"coordinates": [-117.38905, 48.850009], "type": "Point"}, "id": "DXn9G7Q17OZbgJnfJ1VGPs5Mcd8=", "properties": {"@source_uri": "https://tools.usps.com/UspsToolsRestServices/rest/POLocator/findLocations", "@spider": "usps_collection_boxes", "addr:city": "METALINE", "addr:country": "US", "addr:postcode": "99152", "addr:state": "WA", "addr:street_address": "101 N MAIN ST", "amenity": "post_box", "collection_times": "Mo-Fr 12:00; Sa 11:00", "indoor": "yes", "nsi_id": "unitedstatespostalservice-a77078", "operator": "United States Postal Service", "operator:short": "USPS", "operator:type": "public", "operator:wikidata": "Q668687", "ref": "9915200002"}, "type": "Feature"}
{"geometry": {"coordinates": [-117.389000513, 48.850123243], "type": "Point"}, "id": "8rACfzKdZz8sF5yMHajgmBXrFN4=", "properties": {"@source_uri": "https://tools.usps.com/UspsToolsRestServices/rest/POLocator/findLocations", "@spider": "usps_collection_boxes", "addr:city": "METALINE", "addr:country": "US", "addr:postcode": "99152", "addr:state": "WA", "addr:street_address": "101 N MAIN ST", "amenity": "post_box", "collection_times": "Mo-Fr 12:00; Sa 11:00", "indoor": "yes", "nsi_id": "unitedstatespostalservice-a77078", "operator": "United States Postal Service", "operator:short": "USPS", "operator:type": "public", "operator:wikidata": "Q668687", "ref": "9915200003"}, "type": "Feature"}
{"geometry": {"coordinates": [-117.370746, 48.862248], "type": "Point"}, "id": "a7dsq_u5CyXs9pOgjPqV0VxAkgo=", "properties": {"@source_uri": "https://tools.usps.com/UspsToolsRestServices/rest/POLocator/findLocations", "@spider": "usps_collection_boxes", "addr:city": "METALINE FALLS", "addr:country": "US", "addr:postcode": "99153", "addr:state": "WA", "addr:street_address": "224 E 5TH AVE", "amenity": "post_box", "collection_times": "Mo-Fr 15:45; Sa 11:00", "note": "ON 12/24 AND 12/31, THIS BOX MAY BE COLLECTED AS EARLY AS 12 NOON.", "nsi_id": "unitedstatespostalservice-a77078", "operator": "United States Postal Service", "operator:short": "USPS", "operator:type": "public", "operator:wikidata": "Q668687", "ref": "9915300001"}, "type": "Feature"}
{"geometry": {"coordinates": [-117.370746, 48.862248], "type": "Point"}, "id": "lcPXuSfR0I0BWRMSXkttTisaJyE=", "properties": {"@source_uri": "https://tools.usps.com/UspsToolsRestServices/rest/POLocator/findLocations", "@spider": "usps_collection_boxes", "addr:city": "METALINE FALLS", "addr:country": "US", "addr:postcode": "99153", "addr:state": "WA", "addr:street_address": "224 E 5TH AVE", "amenity": "post_box", "collection_times": "Mo-Fr 15:45; Sa 11:00", "indoor": "yes", "note": "ON 12/24 AND 12/31, THIS BOX MAY BE COLLECTED AS EARLY AS 12 NOON.", "nsi_id": "unitedstatespostalservice-a77078", "operator": "United States Postal Service", "operator:short": "USPS", "operator:type": "public", "operator:wikidata": "Q668687", "ref": "9915300002"}, "type": "Feature"}
{"geometry": {"coordinates": [-117.3699708357, 48.8620169914], "type": "Point"}, "id": "k4diHG2vTWzbDJ4g4eUFg3GsE-g=", "properties": {"@source_uri": "https://tools.usps.com/UspsToolsRestServices/rest/POLocator/findLocations", "@spider": "usps_collection_boxes", "addr:city": "METALINE FALLS", "addr:country": "US", "addr:postcode": "99153", "addr:state": "WA", "addr:street_address": "224 E 5TH AVE", "amenity": "post_box", "collection_times": "Mo-Fr 15:45", "indoor": "yes", "note": "ON 12/24 AND 12/31, THIS BOX MAY BE COLLECTED AS EARLY AS 12 NOON.", "nsi_id": "unitedstatespostalservice-a77078", "operator": "United States Postal Service", "operator:short": "USPS", "operator:type": "public", "operator:wikidata": "Q668687", "ref": "9915300003"}, "type": "Feature"}
{"geometry": {"coordinates": [-118.9767423683, 48.167833157], "type": "Point"}, "id": "0wK8ldh55b2dnqu3v1ufohRbb94=", "properties": {"@source_uri": "https://tools.usps.com/UspsToolsRestServices/rest/POLocator/findLocations", "@spider": "usps_collection_boxes", "addr:city": "NESPELEM", "addr:country": "US", "addr:postcode": "99155", "addr:state": "WA", "addr:street_address": "100 9TH ST", "amenity": "post_box", "collection_times": "Mo-Fr 14:00; Sa 10:45", "note": "ON 12/24 AND 12/31, THIS BOX MAY BE COLLECTED AS EARLY AS 12 NOON.", "nsi_id": "unitedstatespostalservice-a77078", "operator": "United States Postal Service", "operator:short": "USPS", "operator:type": "public", "operator:wikidata": "Q668687", "ref": "9915500001"}, "type": "Feature"}
{"geometry": {"coordinates": [-118.9767423683, 48.167833157], "type": "Point"}, "id": "7Y4VbFc41ayXSmlwypLivkBYGD0=", "properties": {"@source_uri": "https://tools.usps.com/UspsToolsRestServices/rest/POLocator/findLocations", "@spider": "usps_collection_boxes", "addr:city": "NESPELEM", "addr:country": "US", "addr:postcode": "99155", "addr:state": "WA", "addr:street_address": "100 9TH ST", "amenity": "post_box", "collection_times": "Mo-Fr 15:15; Sa 10:45", "indoor": "yes", "note": "ON 12/24 AND 12/31, THIS BOX MAY BE COLLECTED AS EARLY AS 12 NOON.", "nsi_id": "unitedstatespostalservice-a77078", "operator": "United States Postal Service", "operator:short": "USPS", "operator:type": "public", "operator:wikidata": "Q668687", "ref": "9915500002"}, "type": "Feature"}
{"geometry": {"coordinates": [-118.9767423683, 48.167833157], "type": "Point"}, "id": "fLKEEJMI8sYsS6T7gtS0JGpzc1A=", "properties": {"@source_uri": "https://tools.usps.com/UspsToolsRestServices/rest/POLocator/findLocations", "@spider": "usps_collection_boxes", "addr:city": "NESPELEM", "addr:country": "US", "addr:postcode": "99155", "addr:state": "WA", "addr:street_address": "100 9TH ST", "amenity": "post_box", "collection_times": "Mo-Fr 15:15; Sa 11:00", "indoor": "yes", "note": "ON 12/24 AND 12/31, THIS BOX MAY BE COLLECTED AS EARLY AS 12 NOON.", "nsi_id": "unitedstatespostalservice-a77078", "operator": "United States Postal Service", "operator:short": "USPS", "operator:type": "public", "operator:wikidata": "Q668687", "ref": "9915500003"}, "type": "Feature"}
{"geometry": {"coordinates": [-117.042922, 48.18108], "type": "Point"}, "id": "5tqDZJ_d22E6qU_tDwVIXHL9XdY=", "properties": {"@source_uri": "https://tools.usps.com/UspsToolsRestServices/rest/POLocator/findLocations", "@spider": "usps_collection_boxes", "addr:city": "NEWPORT", "addr:country": "US", "addr:postcode": "99156", "addr:state": "WA", "addr:street_address": "320 W 1ST ST", "amenity": "post_box", "collection_times": "Mo-Fr 17:15; Sa 11:15", "note": "ON 12/24 AND 12/31, THIS BOX MAY BE COLLECTED AS EARLY AS 12 NOON.", "nsi_id": "unitedstatespostalservice-a77078", "operator": "United States Postal Service", "operator:short": "USPS", "operator:type": "public", "operator:wikidata": "Q668687", "ref": "9915600004"}, "type": "Feature"}
{"geometry": {"coordinates": [-117.043978, 48.181348], "type": "Point"}, "id": "mpWDuT9wkd6OpUv-XY9NyFtmqE4=", "properties": {"@source_uri": "https://tools.usps.com/UspsToolsRestServices/rest/POLocator/findLocations", "@spider": "usps_collection_boxes", "addr:city": "NEWPORT", "addr:country": "US", "addr:postcode": "99156", "addr:state": "WA", "addr:street_address": "100 N WASHINGTON AVE", "amenity": "post_box", "collection_times": "Mo-Fr 17:15; Sa 11:15", "indoor": "yes", "note": "ON 12/24 AND 12/31, THIS BOX MAY BE COLLECTED AS EARLY AS 12 NOON.", "nsi_id": "unitedstatespostalservice-a77078", "operator": "United States Postal Service", "operator:short": "USPS", "operator:type": "public", "operator:wikidata": "Q668687", "ref": "9915600006"}, "type": "Feature"}
{"geometry": {"coordinates": [-117.044218, 48.178918], "type": "Point"}, "id": "YjURg4iDfdlvSdfLWVctbs1n4Ug=", "properties": {"@source_uri": "https://tools.usps.com/UspsToolsRestServices/rest/POLocator/findLocations", "@spider": "usps_collection_boxes", "addr:city": "NEWPORT", "addr:country": "US", "addr:postcode": "99156", "addr:state": "WA", "addr:street_address": "301 S WASHINGTON AVE", "amenity": "post_box", "collection_times": "Mo-Sa 09:30", "nsi_id": "unitedstatespostalservice-a77078", "operator": "United States Postal Service", "operator:short": "USPS", "operator:type": "public", "operator:wikidata": "Q668687", "ref": "9915600012"}, "type": "Feature"}
{"geometry": {"coordinates": [-117.040064, 48.183501], "type": "Point"}, "id": "4EsBcvQaeQEorLM5Z1wJ_3iu6Ho=", "properties": {"@source_uri": "https://tools.usps.com/UspsToolsRestServices/rest/POLocator/findLocations", "@spider": "usps_collection_boxes", "addr:city": "NEWPORT", "addr:country": "US", "addr:postcode": "99156", "addr:state": "WA", "addr:street_address": "121 W WALNUT ST", "amenity": "post_box", "collection_times": "Mo-Sa 09:30", "nsi_id": "unitedstatespostalservice-a77078", "operator": "United States Postal Service", "operator:short": "USPS", "operator:type": "public", "operator:wikidata": "Q668687", "ref": "9915600013"}, "type": "Feature"}
{"geometry": {"coordinates": [-117.043979799, 48.181346717], "type": "Point"}, "id": "p6daW0yxdtaqSUXJjZfLPov3CeM=", "properties": {"@source_uri": "https://tools.usps.com/UspsToolsRestServices/rest/POLocator/findLocations", "@spider": "usps_collection_boxes", "addr:city": "NEWPORT", "addr:country": "US", "addr:postcode": "99156", "addr:state": "WA", "addr:street_address": "100 N WASHINGTON AVE", "amenity": "post_box", "collection_times": "Mo-Fr 17:00; Sa 16:00", "indoor": "yes", "note": "ON 12/24 AND 12/31, THIS BOX MAY BE COLLECTED AS EARLY AS 12 NOON.", "nsi_id": "unitedstatespostalservice-a77078", "operator": "United States Postal Service", "operator:short": "USPS", "operator:type": "public", "operator:wikidata": "Q668687", "ref": "9915600014"}, "type": "Feature"}
{"geometry": {"coordinates": [-117.781824, 48.91603], "type": "Point"}, "id": "WUHeuPo4Uf-vRPouw4Qa6t1y9nU=", "properties": {"@source_uri": "https://tools.usps.com/UspsToolsRestServices/rest/POLocator/findLocations", "@spider": "usps_collection_boxes", "addr:city": "NORTHPORT", "addr:country": "US", "addr:postcode": "99157", "addr:state": "WA", "addr:street_address": "409 CENTER AVE", "amenity": "post_box", "collection_times": "Mo-Sa 14:30", "note": "ON 12/24 AND 12/31, THIS BOX MAY BE COLLECTED AS EARLY AS 12 NOON.", "nsi_id": "unitedstatespostalservice-a77078", "operator": "United States Postal Service", "operator:short": "USPS", "operator:type": "public", "operator:wikidata": "Q668687", "ref": "9915700001"}, "type": "Feature"}
{"geometry": {"coordinates": [-117.781743, 48.91609], "type": "Point"}, "id": "G-JKMnKuClgCubWDy7IdX0Vd-2U=", "properties": {"@source_uri": "https://tools.usps.com/UspsToolsRestServices/rest/POLocator/findLocations", "@spider": "usps_collection_boxes", "addr:city": "NORTHPORT", "addr:country": "US", "addr:postcode": "99157", "addr:state": "WA", "addr:street_address": "409 CENTER AVE", "amenity": "post_box", "collection_times": "Mo-Sa 14:45", "indoor": "yes", "note": "ON 12/24 AND 12/31, THIS BOX MAY BE COLLECTED AS EARLY AS 12 NOON.", "nsi_id": "unitedstatespostalservice-a77078", "operator": "United States Postal Service", "operator:short": "USPS", "operator:type": "public", "operator:wikidata": "Q668687", "ref": "9915700002"}, "type": "Feature"}
{"geometry": {"coordinates": [-117.782371065, 48.915838196], "type": "Point"}, "id": "wgUD7tLtFikzz2uKhEG8g90_QxU=", "properties": {"@source_uri": "https://tools.usps.com/UspsToolsRestServices/rest/POLocator/findLocations", "@spider": "usps_collection_boxes", "addr:city": "NORTHPORT", "addr:country": "US", "addr:postcode": "99157", "addr:state": "WA", "addr:street_address": "409 CENTER AVE", "amenity": "post_box", "collection_times": "Mo-Fr 14:45; Sa 14:15", "indoor": "yes", "note": "ON 12/24 AND 12/31, THIS BOX MAY BE COLLECTED AS EARLY AS 12 NOON.", "nsi_id": "unitedstatespostalservice-a77078", "operator": "United States Postal Service", "operator:short": "USPS", "operator:type": "public", "operator:wikidata": "Q668687", "ref": "9915700003"}, "type": "Feature"}
{"geometry": {"coordinates": [-117.242819, 47.128264], "type": "Point"}, "id": "YsCITltzkG7SSNaJxK30pSozym8=", "properties": {"@source_uri": "https://tools.usps.com/UspsToolsRestServices/rest/POLocator/findLocations", "@spider": "usps_collection_boxes", "addr:city": "OAKESDALE", "addr:country": "US", "addr:postcode": "99158", "addr:state": "WA", "addr:street_address": "106 W STEPTOE AVE", "amenity": "post_box", "collection_times": "Mo-Fr 16:30; Sa 10:30", "indoor": "yes", "note": "ON 12/24 AND 12/31, THIS BOX MAY BE COLLECTED AS EARLY AS 12 NOON.", "nsi_id": "unitedstatespostalservice-a77078", "operator": "United States Postal Service", "operator:short": "USPS", "operator:type": "public", "operator:wikidata": "Q668687", "ref": "9915800001"}, "type": "Feature"}
{"geometry": {"coordinates": [-117.242779863, 47.12832395], "type": "Point"}, "id": "uya9OL4DMCevlLSL9-zlPtPc86U=", "properties": {"@source_uri": "https://tools.usps.com/UspsToolsRestServices/rest/POLocator/findLocations", "@spider": "usps_collection_boxes", "addr:city": "OAKESDALE", "addr:country": "US", "addr:postcode": "99158", "addr:state": "WA", "addr:street_address": "106 W STEPTOE AVE", "amenity": "post_box", "collection_times": "Mo-Fr 16:30", "indoor": "yes", "note": "ON 12/24 AND 12/31, THIS BOX MAY BE COLLECTED AS EARLY AS 12 NOON.", "nsi_id": "unitedstatespostalservice-a77078", "operator": "United States Postal Service", "operator:short": "USPS", "operator:type": "public", "operator:wikidata": "Q668687", "ref": "9915800002"}, "type": "Feature"}
{"geometry": {"coordinates": [-118.69414, 47.333351], "type": "Point"}, "id": "wO4IzVY4ulgoguOO2uWrLfVBOp8=", "properties": {"@source_uri": "https://tools.usps.com/UspsToolsRestServices/rest/POLocator/findLocations", "@spider": "usps_collection_boxes", "addr:city": "ODESSA", "addr:country": "US", "addr:postcode": "99159", "addr:state": "WA", "addr:street_address": "203 W 1ST AVE", "amenity": "post_box", "collection_times": "Mo-Fr 15:15; Sa 10:30", "note": "ON 12/24 AND 12/31, THIS BOX MAY BE COLLECTED AS EARLY AS 12 NOON.", "nsi_id": "unitedstatespostalservice-a77078", "operator": "United States Postal Service", "operator:short": "USPS", "operator:type": "public", "operator:wikidata": "Q668687", "ref": "9915900001"}, "type": "Feature"}
{"geometry": {"coordinates": [-118.69414, 47.333351], "type": "Point"}, "id": "hqPeYNDav4XQqVYunezKoKCqtsQ=", "properties": {"@source_uri": "https://tools.usps.com/UspsToolsRestServices/rest/POLocator/findLocations", "@spider": "usps_collection_boxes", "addr:city": "ODESSA", "addr:country": "US", "addr:postcode": "99159", "addr:state": "WA", "addr:street_address": "203 W 1ST AVE", "amenity": "post_box", "collection_times": "Mo-Fr 15:15; Sa 10:30", "indoor": "yes", "note": "ON 12/24 AND 12/31, THIS BOX MAY BE COLLECTED AS EARLY AS 12 NOON.", "nsi_id": "unitedstatespostalservice-a77078", "operator": "United States Postal Service", "operator:short": "USPS", "operator:type": "public", "operator:wikidata": "Q668687", "ref": "9915900002"}, "type": "Feature"}
{"geometry": {"coordinates": [-118.694141497, 47.3333505], "type": "Point"}, "id": "qmPRcd_6Lwr6nY4-xeH8liNDsVY=", "properties": {"@source_uri": "https://tools.usps.com/UspsToolsRestServices/rest/POLocator/findLocations", "@spider": "usps_collection_boxes", "addr:city": "ODESSA", "addr:country": "US", "addr:postcode": "99159", "addr:state": "WA", "addr:street_address": "203 W 1ST AVE", "amenity": "post_box", "collection_times": "Mo-Fr 16:00", "indoor": "yes", "note": "ON 12/24 AND 12/31, THIS BOX MAY BE COLLECTED AS EARLY AS 12 NOON.", "nsi_id": "unitedstatespostalservice-a77078", "operator": "United States Postal Service", "operator:short": "USPS", "operator:type": "public", "operator:wikidata": "Q668687", "ref": "9915900005"}, "type": "Feature"}
{"geometry": {"coordinates": [-117.074492, 46.909916], "type": "Point"}, "id": "tfTLXcPHKTL86dNNfOBYwb3APLw=", "properties": {"@source_uri": "https://tools.usps.com/UspsToolsRestServices/rest/POLocator/findLocations", "@spider": "usps_collection_boxes", "addr:city": "PALOUSE", "addr:country": "US", "addr:postcode": "99161", "addr:state": "WA", "addr:street_address": "300 E MAIN ST", "amenity": "post_box", "collection_times": "Mo-Fr 16:15; Sa 10:30", "note": "ON 12/24 AND 12/31, THIS BOX MAY BE COLLECTED AS EARLY AS 12 NOON.", "nsi_id": "unitedstatespostalservice-a77078", "operator": "United States Postal Service", "operator:short": "USPS", "operator:type": "public", "operator:wikidata": "Q668687", "ref": "9916100001"}, "type": "Feature"}
{"geometry": {"coordinates": [-117.074492, 46.909916], "type": "Point"}, "id": "OIC7frt0t0cQO73CxjJ7U_-vUR4=", "properties": {"@source_uri": "https://tools.usps.com/UspsToolsRestServices/rest/POLocator/findLocations", "@spider": "usps_collection_boxes", "addr:city": "PALOUSE", "addr:country": "US", "addr:postcode": "99161", "addr:state": "WA", "addr:street_address": "300 E MAIN ST", "amenity": "post_box", "collection_times": "Mo-Fr 16:15; Sa 10:30", "indoor": "yes", "note": "ON 12/24 AND 12/31, THIS BOX MAY BE COLLECTED AS EARLY AS 12 NOON.", "nsi_id": "unitedstatespostalservice-a77078", "operator": "United States Postal Service", "operator:short": "USPS", "operator:type": "public", "operator:wikidata": "Q668687", "ref": "9916100002"}, "type": "Feature"}
{"geometry": {"coordinates": [-117.074546294, 46.909961139], "type": "Point"}, "id": "37Ng04COq5CHE9bpXdLCH2qXFxE=", "properties": {"@source_uri": "https://tools.usps.com/UspsToolsRestServices/rest/POLocator/findLocations", "@spider": "usps_collection_boxes", "addr:city": "PALOUSE", "addr:country": "US", "addr:postcode": "99161", "addr:state": "WA", "addr:street_address": "300 E MAIN ST", "amenity": "post_box", "collection_times": "Mo-Fr 16:15", "indoor": "yes", "note": "ON 12/24 AND 12/31, THIS BOX MAY BE COLLECTED AS EARLY AS 12 NOON.", "nsi_id": "unitedstatespostalservice-a77078", "operator": "United States Postal Service", "operator:short": "USPS", "operator:type": "public", "operator:wikidata": "Q668687", "ref": "9916100003"}, "type": "Feature"}
{"geometry": {"coordinates": [-117.184085, 46.719738], "type": "Point"}, "id": "CEJteazxzGRZWIdf6May5i-TXPM=", "properties": {"@source_uri": "https://tools.usps.com/UspsToolsRestServices/rest/POLocator/findLocations", "@spider": "usps_collection_boxes", "addr:city": "PULLMAN", "addr:country": "US", "addr:postcode": "99163", "addr:state": "WA", "addr:street_address": "1135 S GRAND AVE", "amenity": "post_box", "collection_times": "Mo-Fr 17:30; Sa 16:00", "indoor": "yes", "note": "ON 12/24 AND 12/31, THIS BOX MAY BE COLLECTED AS EARLY AS 12 NOON.", "nsi_id": "unitedstatespostalservice-a77078", "operator": "United States Postal Service", "operator:short": "USPS", "operator:type": "public", "operator:wikidata": "Q668687", "ref": "9916300002"}, "type": "Feature"}
{"geometry": {"coordinates": [-117.180866, 46.714122], "type": "Point"}, "id": "QEG3uX5tXDQBbejhVbE9mpaGNVc=", "properties": {"@source_uri": "https://tools.usps.com/UspsToolsRestServices/rest/POLocator/findLocations", "@spider": "usps_collection_boxes", "addr:city": "PULLMAN", "addr:country": "US", "addr:postcode": "99163", "addr:state": "WA", "addr:street_address": "1600 S GRAND AVE", "amenity": "post_box", "collection_times": "Mo-Fr 16:30; Sa 15:30", "note": "ON 12/24 AND 12/31, THIS BOX MAY BE COLLECTED AS EARLY AS 12 NOON.", "nsi_id": "unitedstatespostalservice-a77078", "operator": "United States Postal Service", "operator:short": "USPS", "operator:type": "public", "operator:wikidata": "Q668687", "ref": "9916300004"}, "type": "Feature"}
{"geometry": {"coordinates": [-117.1968408101, 46.7119601443], "type": "Point"}, "id": "PaQxo1dDGG_V-226Q7DcbDBxvsM=", "properties": {"@source_uri": "https://tools.usps.com/UspsToolsRestServices/rest/POLocator/findLocations", "@spider": "usps_collection_boxes", "addr:city": "PULLMAN", "addr:country": "US", "addr:postcode": "99163", "addr:state": "WA", "addr:street_address": "375 S GRAND AVE", "amenity": "post_box", "collection_times": "Mo-Fr 17:00; Sa 15:30", "note": "ON 12/24 AND 12/31, THIS BOX MAY BE COLLECTED AS EARLY AS 12 NOON.", "nsi_id": "unitedstatespostalservice-a77078", "operator": "United States Postal Service", "operator:short": "USPS", "operator:type": "public", "operator:wikidata": "Q668687", "ref": "9916300006"}, "type": "Feature"}
{"geometry": {"coordinates": [-117.152532, 46.743274], "type": "Point"}, "id": "QJaNFh7B3MrEFkG9Y7II0Kgtcnw=", "properties": {"@source_uri": "https://tools.usps.com/UspsToolsRestServices/rest/POLocator/findLocations", "@spider": "usps_collection_boxes", "addr:city": "PULLMAN", "addr:country": "US", "addr:postcode": "99163", "addr:state": "WA", "addr:street_address": "2024 NE TERRE VIEW DR", "amenity": "post_box", "collection_times": "Mo-Sa 10:00", "nsi_id": "unitedstatespostalservice-a77078", "operator": "United States Postal Service", "operator:short": "USPS", "operator:type": "public", "operator:wikidata": "Q668687", "ref": "9916300010"}, "type": "Feature"}
{"geometry": {"coordinates": [-117.165338, 46.718433], "type": "Point"}, "id": "AvcXdNa8hic3rrgCD7yXjIOKeso=", "properties": {"@source_uri": "https://tools.usps.com/UspsToolsRestServices/rest/POLocator/findLocations", "@spider": "usps_collection_boxes", "addr:city": "PULLMAN", "addr:country": "US", "addr:postcode": "99163", "addr:state": "WA", "addr:street_address": "1205 SE PROFESSIONAL MALL BLVD", "amenity": "post_box", "collection_times": "Mo-Fr 16:30; Sa 15:30", "note": "ON 12/24 AND 12/31, THIS BOX MAY BE COLLECTED AS EARLY AS 12 NOON.", "nsi_id": "unitedstatespostalservice-a77078", "operator": "United States Postal Service", "operator:short": "USPS", "operator:type": "public", "operator:wikidata": "Q668687", "ref": "9916300013"}, "type": "Feature"}
{"geometry": {"coordinates": [-117.161428, 46.730765], "type": "Point"}, "id": "QomFg0RhIWqu809jcW38O9MsVCE=", "properties": {"@source_uri": "https://tools.usps.com/UspsToolsRestServices/rest/POLocator/findLocations", "@spider": "usps_collection_boxes", "addr:city": "PULLMAN", "addr:country": "US", "addr:postcode": "99163", "addr:state": "WA", "addr:street_address": "1460 NE WILSON ST", "amenity": "post_box", "collection_times": "Mo-Fr 16:45; Sa 15:30", "note": "ON 12/24 AND 12/31, THIS BOX MAY BE COLLECTED AS EARLY AS 12 NOON.", "nsi_id": "unitedstatespostalservice-a77078", "operator": "United States Postal Service", "operator:short": "USPS", "operator:type": "public", "operator:wikidata": "Q668687", "ref": "9916300015"}, "type": "Feature"}
{"geometry": {"coordinates": [-117.183905, 46.719828], "type": "Point"}, "id": "feffglBOsGbS7jKGdUn6b4EUWwg=", "properties": {"@source_uri": "https://tools.usps.com/UspsToolsRestServices/rest/POLocator/findLocations", "@spider": "usps_collection_boxes", "addr:city": "PULLMAN", "addr:country": "US", "addr:postcode": "99163", "addr:state": "WA", "addr:street_address": "1135 S GRAND AVE", "amenity": "post_box", "collection_times": "Mo-Fr 17:30; Sa 16:00", "note": "ON 12/24 AND 12/31, THIS BOX MAY BE COLLECTED AS EARLY AS 12 NOON.", "nsi_id": "unitedstatespostalservice-a77078", "operator": "United States Postal Service", "operator:short": "USPS", "operator:type": "public", "operator:wikidata": "Q668687", "ref": "9916300017"}, "type": "Feature"}
{"geometry": {"coordinates": [-117.158784, 46.730811], "type": "Point"}, "id": "FuT64GgwJKOEGx2YLQsBgiMjcxU=", "properties": {"@source_uri": "https://tools.usps.com/UspsToolsRestServices/rest/POLocator/findLocations", "@spider": "usps_collection_boxes", "addr:city": "PULLMAN", "addr:country": "US", "addr:postcode": "99163", "addr:state": "WA", "addr:street_address": "1621 NE WILSON ST", "amenity": "post_box", "collection_times": "Mo-Fr 16:30; Sa 15:30", "note": "ON 12/24 AND 12/31, THIS BOX MAY BE COLLECTED AS EARLY AS 12 NOON.", "nsi_id": "unitedstatespostalservice-a77078", "operator": "United States Postal Service", "operator:short": "USPS", "operator:type": "public", "operator:wikidata": "Q668687", "ref": "9916300029"}, "type": "Feature"}
{"geometry": {"coordinates": [-117.184112282, 46.71973751], "type": "Point"}, "id": "EgM0DcrlGAfJbrMI7TLVVWFyK6c=", "properties": {"@source_uri": "https://tools.usps.com/UspsToolsRestServices/rest/POLocator/findLocations", "@spider": "usps_collection_boxes", "addr:city": "PULLMAN", "addr:country": "US", "addr:postcode": "99163", "addr:state": "WA", "addr:street_address": "1135 S GRAND AVE", "amenity": "post_box", "collection_times": "Mo-Fr 17:00; Sa 13:00", "indoor": "yes", "note": "ON 12/24 AND 12/31, THIS BOX MAY BE COLLECTED AS EARLY AS 12 NOON.", "nsi_id": "unitedstatespostalservice-a77078", "operator": "United States Postal Service", "operator:short": "USPS", "operator:type": "public", "operator:wikidata": "Q668687", "ref": "9916300030"}, "type": "Feature"}
{"geometry": {"coordinates": [-118.7382, 48.649033], "type": "Point"}, "id": "062Z81V_qzlf_LyEA8hiuM0RJv0=", "properties": {"@source_uri": "https://tools.usps.com/UspsToolsRestServices/rest/POLocator/findLocations", "@spider": "usps_collection_boxes", "addr:city": "REPUBLIC", "addr:country": "US", "addr:postcode": "99166", "addr:state": "WA", "addr:street_address": "128 N CLARK ST", "amenity": "post_box", "collection_times": "Mo-Fr 15:30; Sa 13:30", "note": "ON 12/24 AND 12/31, THIS BOX MAY BE COLLECTED AS EARLY AS 12 NOON.", "nsi_id": "unitedstatespostalservice-a77078", "operator": "United States Postal Service", "operator:short": "USPS", "operator:type": "public", "operator:wikidata": "Q668687", "ref": "9916600001"}, "type": "Feature"}
{"geometry": {"coordinates": [-118.7382, 48.649033], "type": "Point"}, "id": "wjFIS5sPP_BLunpNibBlb-sM0Vc=", "properties": {"@source_uri": "https://tools.usps.com/UspsToolsRestServices/rest/POLocator/findLocations", "@spider": "usps_collection_boxes", "addr:city": "REPUBLIC", "addr:country": "US", "addr:postcode": "99166", "addr:state": "WA", "addr:street_address": "128 N CLARK ST", "amenity": "post_box", "collection_times": "Mo-Fr 15:45; Sa 13:30", "indoor": "yes", "note": "ON 12/24 AND 12/31, THIS BOX MAY BE COLLECTED AS EARLY AS 12 NOON.", "nsi_id": "unitedstatespostalservice-a77078", "operator": "United States Postal Service", "operator:short": "USPS", "operator:type": "public", "operator:wikidata": "Q668687", "ref": "9916600004"}, "type": "Feature"}
{"geometry": {"coordinates": [-118.737535, 48.645252], "type": "Point"}, "id": "GmseiQdDJCsEGVWTPG56IQwQK_M=", "properties": {"@source_uri": "https://tools.usps.com/UspsToolsRestServices/rest/POLocator/findLocations", "@spider": "usps_collection_boxes", "addr:city": "REPUBLIC", "addr:country": "US", "addr:postcode": "99166", "addr:state": "WA", "addr:street_address": "852 S CLARK AVE", "amenity": "post_box", "collection_times": "Mo-Fr 15:00; Sa 14:30", "note": "ON 12/24 AND 12/31, THIS BOX MAY BE COLLECTED AS EARLY AS 12 NOON.", "nsi_id": "unitedstatespostalservice-a77078", "operator": "United States Postal Service", "operator:short": "USPS", "operator:type": "public", "operator:wikidata": "Q668687", "ref": "9916600005"}, "type": "Feature"}
{"geometry": {"coordinates": [-118.733904, 48.649139], "type": "Point"}, "id": "QfT_mPduO09AlaiNHv1CinIcUpU=", "properties": {"@source_uri": "https://tools.usps.com/UspsToolsRestServices/rest/POLocator/findLocations", "@spider": "usps_collection_boxes", "addr:city": "REPUBLIC", "addr:country": "US", "addr:postcode": "99166", "addr:state": "WA", "addr:street_address": "350 E DELAWARE AVE", "amenity": "post_box", "collection_times": "Mo-Fr 14:30; Sa 14:00", "note": "ON 12/24 AND 12/31, THIS BOX MAY BE COLLECTED AS EARLY AS 12 NOON.", "nsi_id": "unitedstatespostalservice-a77078", "operator": "United States Postal Service", "operator:short": "USPS", "operator:type": "public", "operator:wikidata": "Q668687", "ref": "9916600006"}, "type": "Feature"}
{"geometry": {"coordinates": [-118.684869, 48.651092], "type": "Point"}, "id": "_389phr8tf1-ab_sB34iPzw1fKI=", "properties": {"@source_uri": "https://tools.usps.com/UspsToolsRestServices/rest/POLocator/findLocations", "@spider": "usps_collection_boxes", "addr:city": "REPUBLIC", "addr:country": "US", "addr:postcode": "99166", "addr:state": "WA", "addr:street_address": "16267 N HIGHWAY 21", "amenity": "post_box", "collection_times": "Mo-Fr 14:30; Sa 14:00", "note": "ON 12/24 AND 12/31, THIS BOX MAY BE COLLECTED AS EARLY AS 12 NOON.", "nsi_id": "unitedstatespostalservice-a77078", "operator": "United States Postal Service", "operator:short": "USPS", "operator:type": "public", "operator:wikidata": "Q668687", "ref": "9916600009"}, "type": "Feature"}
{"geometry": {"coordinates": [-118.738200361, 48.649036201], "type": "Point"}, "id": "u6ZckqaWYZZSbgo9micZBRbhjIw=", "properties": {"@source_uri": "https://tools.usps.com/UspsToolsRestServices/rest/POLocator/findLocations", "@spider": "usps_collection_boxes", "addr:city": "REPUBLIC", "addr:country": "US", "addr:postcode": "99166", "addr:state": "WA", "addr:street_address": "128 N CLARK ST", "amenity": "post_box", "collection_times": "Mo-Fr 16:00", "indoor": "yes", "note": "ON 12/24 AND 12/31, THIS BOX MAY BE COLLECTED AS EARLY AS 12 NOON.", "nsi_id": "unitedstatespostalservice-a77078", "operator": "United States Postal Service", "operator:short": "USPS", "operator:type": "public", "operator:wikidata": "Q668687", "ref": "9916600010"}, "type": "Feature"}
{"geometry": {"coordinates": [-118.170768, 48.427912], "type": "Point"}, "id": "xbTdvF18LRNitqoU13SVZtNv1CY=", "properties": {"@source_uri": "https://tools.usps.com/UspsToolsRestServices/rest/POLocator/findLocations", "@spider": "usps_collection_boxes", "addr:city": "RICE", "addr:country": "US", "addr:postcode": "99167", "addr:state": "WA", "addr:street_address": "2529 HIGHWAY 25 S", "amenity": "post_box", "collection_times": "Mo-Sa 12:15", "note": "ON 12/24 AND 12/31, THIS BOX MAY BE COLLECTED AS EARLY AS 12 NOON.", "nsi_id": "unitedstatespostalservice-a77078", "operator": "United States Postal Service", "operator:short": "USPS", "operator:type": "public", "operator:wikidata": "Q668687", "ref": "9916700002"}, "type": "Feature"}
{"geometry": {"coordinates": [-118.38126413, 47.127203685], "type": "Point"}, "id": "QpQ5zVK7uYGyPl-AZkWqEiH6pqU=", "properties": {"@source_uri": "https://tools.usps.com/UspsToolsRestServices/rest/POLocator/findLocations", "@spider": "usps_collection_boxes", "addr:city": "RITZVILLE", "addr:country": "US", "addr:postcode": "99169", "addr:state": "WA", "addr:street_address": "210 N WASHINGTON ST", "amenity": "post_box", "collection_times": "Mo-Fr 17:00; Sa 12:00", "note": "ON 12/24 AND 12/31, THIS BOX MAY BE COLLECTED AS EARLY AS 12 NOON.", "nsi_id": "unitedstatespostalservice-a77078", "operator": "United States Postal Service", "operator:short": "USPS", "operator:type": "public", "operator:wikidata": "Q668687", "ref": "9916900008"}, "type": "Feature"}
{"geometry": {"coordinates": [-118.381366, 47.127265], "type": "Point"}, "id": "kn2m35RY3m3Zh9z9WfldnEH6yX4=", "properties": {"@source_uri": "https://tools.usps.com/UspsToolsRestServices/rest/POLocator/findLocations", "@spider": "usps_collection_boxes", "addr:city": "RITZVILLE", "addr:country": "US", "addr:postcode": "99169", "addr:state": "WA", "addr:street_address": "210 N WASHINGTON ST", "amenity": "post_box", "collection_times": "Mo-Fr 16:45; Sa 12:00", "indoor": "yes", "note": "ON 12/24 AND 12/31, THIS BOX MAY BE COLLECTED AS EARLY AS 12 NOON.", "nsi_id": "unitedstatespostalservice-a77078", "operator": "United States Postal Service", "operator:short": "USPS", "operator:type": "public", "operator:wikidata": "Q668687", "ref": "9916900009"}, "type": "Feature"}
{"geometry": {"coordinates": [-118.381367903, 47.127260755], "type": "Point"}, "id": "EX8j5PVROyst1mV1DoPDDakN9v4=", "properties": {"@source_uri": "https://tools.usps.com/UspsToolsRestServices/rest/POLocator/findLocations", "@spider": "usps_collection_boxes", "addr:city": "RITZVILLE", "addr:country": "US", "addr:postcode": "99169", "addr:state": "WA", "addr:street_address": "210 N WASHINGTON ST", "amenity": "post_box", "collection_times": "Mo-Fr 17:00; Sa 12:00", "indoor": "yes", "note": "ON 12/24 AND 12/31, THIS BOX MAY BE COLLECTED AS EARLY AS 12 NOON.", "nsi_id": "unitedstatespostalservice-a77078", "operator": "United States Postal Service", "operator:short": "USPS", "operator:type": "public", "operator:wikidata": "Q668687", "ref": "9916900010"}, "type": "Feature"}
{"geometry": {"coordinates": [-117.370049, 47.235407], "type": "Point"}, "id": "CEXsRmBOYHC-vJcSEPEpXUrvfCk=", "properties": {"@source_uri": "https://tools.usps.com/UspsToolsRestServices/rest/POLocator/findLocations", "@spider": "usps_collection_boxes", "addr:city": "ROSALIA", "addr:country": "US", "addr:postcode": "99170", "addr:state": "WA", "addr:street_address": "511 S WHITMAN AVE", "amenity": "post_box", "collection_times": "Mo-Fr 16:45; Sa 13:00", "note": "ON 12/24 AND 12/31, THIS BOX MAY BE COLLECTED AS EARLY AS 12 NOON.", "nsi_id": "unitedstatespostalservice-a77078", "operator": "United States Postal Service", "operator:short": "USPS", "operator:type": "public", "operator:wikidata": "Q668687", "ref": "9917000001"}, "type": "Feature"}
{"geometry": {"coordinates": [-117.369946, 47.23545], "type": "Point"}, "id": "LI5BupoC7fTsFZlOqu8zqEJahRE=", "properties": {"@source_uri": "https://tools.usps.com/UspsToolsRestServices/rest/POLocator/findLocations", "@spider": "usps_collection_boxes", "addr:city": "ROSALIA", "addr:country": "US", "addr:postcode": "99170", "addr:state": "WA", "addr:street_address": "511 S WHITMAN AVE", "amenity": "post_box", "collection_times": "Mo-Fr 16:45; Sa 13:00", "indoor": "yes", "note": "ON 12/24 AND 12/31, THIS BOX MAY BE COLLECTED AS EARLY AS 12 NOON.", "nsi_id": "unitedstatespostalservice-a77078", "operator": "United States Postal Service", "operator:short": "USPS", "operator:type": "public", "operator:wikidata": "Q668687", "ref": "9917000002"}, "type": "Feature"}
{"geometry": {"coordinates": [-117.370022489, 47.235739816], "type": "Point"}, "id": "v6Q_GxbpaHVJP2ALaiX4Enwn1xk=", "properties": {"@source_uri": "https://tools.usps.com/UspsToolsRestServices/rest/POLocator/findLocations", "@spider": "usps_collection_boxes", "addr:city": "ROSALIA", "addr:country": "US", "addr:postcode": "99170", "addr:state": "WA", "addr:street_address": "511 S WHITMAN AVE", "amenity": "post_box", "collection_times": "Mo-Fr 16:45", "indoor": "yes", "note": "ON 12/24 AND 12/31, THIS BOX MAY BE COLLECTED AS EARLY AS 12 NOON.", "nsi_id": "unitedstatespostalservice-a77078", "operator": "United States Postal Service", "operator:short": "USPS", "operator:type": "public", "operator:wikidata": "Q668687", "ref": "9917000003"}, "type": "Feature"}
{"geometry": {"coordinates": [-117.581671, 47.092326], "type": "Point"}, "id": "ZeSSYGLu6m51NHddRePvGy00s8E=", "properties": {"@source_uri": "https://tools.usps.com/UspsToolsRestServices/rest/POLocator/findLocations", "@spider": "usps_collection_boxes", "addr:city": "SAINT JOHN", "addr:country": "US", "addr:postcode": "99171", "addr:state": "WA", "addr:street_address": "5 N PARK ST", "amenity": "post_box", "collection_times": "Mo-Fr 16:15; Sa 13:00", "indoor": "yes", "note": "ON 12/24 AND 12/31, THIS BOX MAY BE COLLECTED AS EARLY AS 12 NOON.", "nsi_id": "unitedstatespostalservice-a77078", "operator": "United States Postal Service", "operator:short": "USPS", "operator:type": "public", "operator:wikidata": "Q668687", "ref": "9917100001"}, "type": "Feature"}
{"geometry": {"coordinates": [-117.39084, 47.121838], "type": "Point"}, "id": "qHkYj1c42hIdFme6nOyYMDKcEIc=", "properties": {"@source_uri": "https://tools.usps.com/UspsToolsRestServices/rest/POLocator/findLocations", "@spider": "usps_collection_boxes", "addr:city": "SAINT JOHN", "addr:country": "US", "addr:postcode": "99171", "addr:state": "WA", "addr:street_address": "100 STATE ROUTE 21 N", "amenity": "post_box", "collection_times": "Mo-Fr 12:00; Sa 11:00", "nsi_id": "unitedstatespostalservice-a77078", "operator": "United States Postal Service", "operator:short": "USPS", "operator:type": "public", "operator:wikidata": "Q668687", "ref": "9917100002"}, "type": "Feature"}
{"geometry": {"coordinates": [-117.581587, 47.092274], "type": "Point"}, "id": "LyKqgWyIoPVvVE0aINPqseCxQqs=", "properties": {"@source_uri": "https://tools.usps.com/UspsToolsRestServices/rest/POLocator/findLocations", "@spider": "usps_collection_boxes", "addr:city": "SAINT JOHN", "addr:country": "US", "addr:postcode": "99171", "addr:state": "WA", "addr:street_address": "5 N PARK ST", "amenity": "post_box", "collection_times": "Mo-Fr 16:15", "note": "ON 12/24 AND 12/31, THIS BOX MAY BE COLLECTED AS EARLY AS 12 NOON.", "nsi_id": "unitedstatespostalservice-a77078", "operator": "United States Postal Service", "operator:short": "USPS", "operator:type": "public", "operator:wikidata": "Q668687", "ref": "9917100003"}, "type": "Feature"}
{"geometry": {"coordinates": [-117.581479807, 47.091922818], "type": "Point"}, "id": "qK-xvC2_0pygjIvPqTJ_79fDzdM=", "properties": {"@source_uri": "https://tools.usps.com/UspsToolsRestServices/rest/POLocator/findLocations", "@spider": "usps_collection_boxes", "addr:city": "SAINT JOHN", "addr:country": "US", "addr:postcode": "99171", "addr:state": "WA", "addr:street_address": "5 N PARK ST", "amenity": "post_box", "collection_times": "Mo-Fr 16:30", "indoor": "yes", "note": "ON 12/24 AND 12/31, THIS BOX MAY BE COLLECTED AS EARLY AS 12 NOON.", "nsi_id": "unitedstatespostalservice-a77078", "operator": "United States Postal Service", "operator:short": "USPS", "operator:type": "public", "operator:wikidata": "Q668687", "ref": "9917100004"}, "type": "Feature"}
{"geometry": {"coordinates": [-117.741409, 48.054938], "type": "Point"}, "id": "Nfce2rbCCJbrRaW5pFSZdtmQbSU=", "properties": {"@source_uri": "https://tools.usps.com/UspsToolsRestServices/rest/POLocator/findLocations", "@spider": "usps_collection_boxes", "addr:city": "SPRINGDALE", "addr:country": "US", "addr:postcode": "99173", "addr:state": "WA", "addr:street_address": "113 S MAIN ST", "amenity": "post_box", "collection_times": "Mo-Fr 16:00; Sa 10:00", "note": "ON 12/24 AND 12/31, THIS BOX MAY BE COLLECTED AS EARLY AS 12 NOON.", "nsi_id": "unitedstatespostalservice-a77078", "operator": "United States Postal Service", "operator:short": "USPS", "operator:type": "public", "operator:wikidata": "Q668687", "ref": "9917300001"}, "type": "Feature"}
{"geometry": {"coordinates": [-117.741409, 48.054938], "type": "Point"}, "id": "HPYwYp905CLIlwMCjfWiIQQVPRA=", "properties": {"@source_uri": "https://tools.usps.com/UspsToolsRestServices/rest/POLocator/findLocations", "@spider": "usps_collection_boxes", "addr:city": "SPRINGDALE", "addr:country": "US", "addr:postcode": "99173", "addr:state": "WA", "addr:street_address": "113 S MAIN ST", "amenity": "post_box", "collection_times": "Mo-Fr 14:15; Sa 10:00", "indoor": "yes", "note": "ON 12/24 AND 12/31, THIS BOX MAY BE COLLECTED AS EARLY AS 12 NOON.", "nsi_id": "unitedstatespostalservice-a77078", "operator": "United States Postal Service", "operator:short": "USPS", "operator:type": "public", "operator:wikidata": "Q668687", "ref": "9917300002"}, "type": "Feature"}
{"geometry": {"coordinates": [-117.7413994203, 48.0551848848], "type": "Point"}, "id": "RgHc0BkajzAJYxy6nsidarJJhtY=", "properties": {"@source_uri": "https://tools.usps.com/UspsToolsRestServices/rest/POLocator/findLocations", "@spider": "usps_collection_boxes", "addr:city": "SPRINGDALE", "addr:country": "US", "addr:postcode": "99173", "addr:state": "WA", "addr:street_address": "113 S MAIN ST", "amenity": "post_box", "collection_times": "Mo-Fr 16:00", "indoor": "yes", "note": "ON 12/24 AND 12/31, THIS BOX MAY BE COLLECTED AS EARLY AS 12 NOON.", "nsi_id": "unitedstatespostalservice-a77078", "operator": "United States Postal Service", "operator:short": "USPS", "operator:type": "public", "operator:wikidata": "Q668687", "ref": "9917300003"}, "type": "Feature"}
{"geometry": {"coordinates": [-117.354623, 47.00657], "type": "Point"}, "id": "aWO4LRq4QEiHN6x295yD_bvaUQo=", "properties": {"@source_uri": "https://tools.usps.com/UspsToolsRestServices/rest/POLocator/findLocations", "@spider": "usps_collection_boxes", "addr:city": "STEPTOE", "addr:country": "US", "addr:postcode": "99174", "addr:state": "WA", "addr:street_address": "31 STATE ROUTE 23", "amenity": "post_box", "collection_times": "Mo-Sa 10:00", "nsi_id": "unitedstatespostalservice-a77078", "operator": "United States Postal Service", "operator:short": "USPS", "operator:type": "public", "operator:wikidata": "Q668687", "ref": "9917400001"}, "type": "Feature"}
{"geometry": {"coordinates": [-117.087369, 46.539026], "type": "Point"}, "id": "gekNhSkIhy12Q7vrjjcDTpDJ-_w=", "properties": {"@source_uri": "https://tools.usps.com/UspsToolsRestServices/rest/POLocator/findLocations", "@spider": "usps_collection_boxes", "addr:city": "UNIONTOWN", "addr:country": "US", "addr:postcode": "99179", "addr:state": "WA", "addr:street_address": "117 MONTGOMERY ST", "amenity": "post_box", "collection_times": "Mo-Fr 16:00; Sa 10:00", "note": "ON 12/24 AND 12/31, THIS BOX MAY BE COLLECTED AS EARLY AS 12 NOON.", "nsi_id": "unitedstatespostalservice-a77078", "operator": "United States Postal Service", "operator:short": "USPS", "operator:type": "public", "operator:wikidata": "Q668687", "ref": "9917900001"}, "type": "Feature"}
{"geometry": {"coordinates": [-117.087369, 46.539026], "type": "Point"}, "id": "48xPlxLgYmKh66T9IWr-kDLSKOc=", "properties": {"@source_uri": "https://tools.usps.com/UspsToolsRestServices/rest/POLocator/findLocations", "@spider": "usps_collection_boxes", "addr:city": "UNIONTOWN", "addr:country": "US", "addr:postcode": "99179", "addr:state": "WA", "addr:street_address": "117 MONTGOMERY ST", "amenity": "post_box", "collection_times": "Mo-Fr 16:00; Sa 10:00", "indoor": "yes", "note": "ON 12/24 AND 12/31, THIS BOX MAY BE COLLECTED AS EARLY AS 12 NOON.", "nsi_id": "unitedstatespostalservice-a77078", "operator": "United States Postal Service", "operator:short": "USPS", "operator:type": "public", "operator:wikidata": "Q668687", "ref": "9917900002"}, "type": "Feature"}
{"geometry": {"coordinates": [-117.087350443, 46.539016029], "type": "Point"}, "id": "p8Czxt6AJgW1Xwj-LbBHFo1hM0g=", "properties": {"@source_uri": "https://tools.usps.com/UspsToolsRestServices/rest/POLocator/findLocations", "@spider": "usps_collection_boxes", "addr:city": "UNIONTOWN", "addr:country": "US", "addr:postcode": "99179", "addr:state": "WA", "addr:street_address": "117 MONTGOMERY ST", "amenity": "post_box", "collection_times": "Mo-Fr 16:15; Sa 09:30", "indoor": "yes", "note": "ON 12/24 AND 12/31, THIS BOX MAY BE COLLECTED AS EARLY AS 12 NOON.", "nsi_id": "unitedstatespostalservice-a77078", "operator": "United States Postal Service", "operator:short": "USPS", "operator:type": "public", "operator:wikidata": "Q668687", "ref": "9917900003"}, "type": "Feature"}
{"geometry": {"coordinates": [-117.280409, 48.314064], "type": "Point"}, "id": "P13MpzWz9_CcV4Tue0xG3zqX59I=", "properties": {"@source_uri": "https://tools.usps.com/UspsToolsRestServices/rest/POLocator/findLocations", "@spider": "usps_collection_boxes", "addr:city": "USK", "addr:country": "US", "addr:postcode": "99180", "addr:state": "WA", "addr:street_address": "102 5TH ST", "amenity": "post_box", "collection_times": "Mo-Fr 16:45; Sa 13:00", "note": "ON 12/24 AND 12/31, THIS BOX MAY BE COLLECTED AS EARLY AS 12 NOON.", "nsi_id": "unitedstatespostalservice-a77078", "operator": "United States Postal Service", "operator:short": "USPS", "operator:type": "public", "operator:wikidata": "Q668687", "ref": "9918000001"}, "type": "Feature"}
{"geometry": {"coordinates": [-117.280515, 48.31404], "type": "Point"}, "id": "-XQXBrenIbpnLrt0tW0I3dFEdh4=", "properties": {"@source_uri": "https://tools.usps.com/UspsToolsRestServices/rest/POLocator/findLocations", "@spider": "usps_collection_boxes", "addr:city": "USK", "addr:country": "US", "addr:postcode": "99180", "addr:state": "WA", "addr:street_address": "102 5TH ST", "amenity": "post_box", "collection_times": "Mo-Fr 17:00; Sa 13:00", "indoor": "yes", "note": "ON 12/24 AND 12/31, THIS BOX MAY BE COLLECTED AS EARLY AS 12 NOON.", "nsi_id": "unitedstatespostalservice-a77078", "operator": "United States Postal Service", "operator:short": "USPS", "operator:type": "public", "operator:wikidata": "Q668687", "ref": "9918000002"}, "type": "Feature"}
{"geometry": {"coordinates": [-117.280345042, 48.313883901], "type": "Point"}, "id": "4xuNJtuGKSiMmdF0RpWlkdc7RCY=", "properties": {"@source_uri": "https://tools.usps.com/UspsToolsRestServices/rest/POLocator/findLocations", "@spider": "usps_collection_boxes", "addr:city": "USK", "addr:country": "US", "addr:postcode": "99180", "addr:state": "WA", "addr:street_address": "102 W 5TH ST", "amenity": "post_box", "collection_times": "Mo-Fr 17:00", "indoor": "yes", "note": "ON 12/24 AND 12/31, THIS BOX MAY BE COLLECTED AS EARLY AS 12 NOON.", "nsi_id": "unitedstatespostalservice-a77078", "operator": "United States Postal Service", "operator:short": "USPS", "operator:type": "public", "operator:wikidata": "Q668687", "ref": "9918000003"}, "type": "Feature"}
{"geometry": {"coordinates": [-117.726021, 48.175106], "type": "Point"}, "id": "Pvhd01uD5L2AQ9AnLUqwkSaInOM=", "properties": {"@source_uri": "https://tools.usps.com/UspsToolsRestServices/rest/POLocator/findLocations", "@spider": "usps_collection_boxes", "addr:city": "VALLEY", "addr:country": "US", "addr:postcode": "99181", "addr:state": "WA", "addr:street_address": "3073 3RD AVE", "amenity": "post_box", "collection_times": "Mo-Fr 16:30; Sa 14:00", "note": "ON 12/24 AND 12/31, THIS BOX MAY BE COLLECTED AS EARLY AS 12 NOON.", "nsi_id": "unitedstatespostalservice-a77078", "operator": "United States Postal Service", "operator:short": "USPS", "operator:type": "public", "operator:wikidata": "Q668687", "ref": "9918100001"}, "type": "Feature"}
{"geometry": {"coordinates": [-117.725935, 48.17511], "type": "Point"}, "id": "bHXbrTudVWSyo-ZfY6D-cop1LjQ=", "properties": {"@source_uri": "https://tools.usps.com/UspsToolsRestServices/rest/POLocator/findLocations", "@spider": "usps_collection_boxes", "addr:city": "VALLEY", "addr:country": "US", "addr:postcode": "99181", "addr:state": "WA", "addr:street_address": "3073 3RD AVE", "amenity": "post_box", "collection_times": "Mo-Fr 16:30; Sa 14:00", "indoor": "yes", "note": "ON 12/24 AND 12/31, THIS BOX MAY BE COLLECTED AS EARLY AS 12 NOON.", "nsi_id": "unitedstatespostalservice-a77078", "operator": "United States Postal Service", "operator:short": "USPS", "operator:type": "public", "operator:wikidata": "Q668687", "ref": "9918100002"}, "type": "Feature"}
{"geometry": {"coordinates": [-117.7260903148, 48.1749666706], "type": "Point"}, "id": "zz0S1wys2PoTSWUubhhQC9xEh84=", "properties": {"@source_uri": "https://tools.usps.com/UspsToolsRestServices/rest/POLocator/findLocations", "@spider": "usps_collection_boxes", "addr:city": "VALLEY", "addr:country": "US", "addr:postcode": "99181", "addr:state": "WA", "addr:street_address": "3073 3RD AVE", "amenity": "post_box", "collection_times": "Mo-Fr 16:30; Sa 10:00", "indoor": "yes", "note": "ON 12/24 AND 12/31, THIS BOX MAY BE COLLECTED AS EARLY AS 12 NOON.", "nsi_id": "unitedstatespostalservice-a77078", "operator": "United States Postal Service", "operator:short": "USPS", "operator:type": "public", "operator:wikidata": "Q668687", "ref": "9918100003"}, "type": "Feature"}
{"geometry": {"coordinates": [-118.705997, 47.758322], "type": "Point"}, "id": "jeNtWaeyv71i1Ea2k-bK1VVJVkY=", "properties": {"@source_uri": "https://tools.usps.com/UspsToolsRestServices/rest/POLocator/findLocations", "@spider": "usps_collection_boxes", "addr:city": "WILBUR", "addr:country": "US", "addr:postcode": "99185", "addr:state": "WA", "addr:street_address": "5 SW BROADWAY ST", "amenity": "post_box", "collection_times": "Mo-Fr 16:15; Sa 10:15", "note": "ON 12/24 AND 12/31, THIS BOX MAY BE COLLECTED AS EARLY AS 12 NOON.", "nsi_id": "unitedstatespostalservice-a77078", "operator": "United States Postal Service", "operator:short": "USPS", "operator:type": "public", "operator:wikidata": "Q668687", "ref": "9918500001"}, "type": "Feature"}
{"geometry": {"coordinates": [-118.705997, 47.758322], "type": "Point"}, "id": "x9gG4GoXymqPV1rpCm5LN9B5yos=", "properties": {"@source_uri": "https://tools.usps.com/UspsToolsRestServices/rest/POLocator/findLocations", "@spider": "usps_collection_boxes", "addr:city": "WILBUR", "addr:country": "US", "addr:postcode": "99185", "addr:state": "WA", "addr:street_address": "5 SW BROADWAY ST", "amenity": "post_box", "collection_times": "Mo-Fr 16:15; Sa 10:15", "indoor": "yes", "note": "ON 12/24 AND 12/31, THIS BOX MAY BE COLLECTED AS EARLY AS 12 NOON.", "nsi_id": "unitedstatespostalservice-a77078", "operator": "United States Postal Service", "operator:short": "USPS", "operator:type": "public", "operator:wikidata": "Q668687", "ref": "9918500003"}, "type": "Feature"}
{"geometry": {"coordinates": [-118.68915, 47.928556], "type": "Point"}, "id": "2BV4vfho96LwuyIRmPeNJ5lM7iY=", "properties": {"@source_uri": "https://tools.usps.com/UspsToolsRestServices/rest/POLocator/findLocations", "@spider": "usps_collection_boxes", "addr:city": "WILBUR", "addr:country": "US", "addr:postcode": "99185", "addr:state": "WA", "addr:street_address": "100 STATE ROUTE 21 N", "amenity": "post_box", "collection_times": "Mo-Sa 12:30", "note": "ON 12/24 AND 12/31, THIS BOX MAY BE COLLECTED AS EARLY AS 12 NOON.", "nsi_id": "unitedstatespostalservice-a77078", "operator": "United States Postal Service", "operator:short": "USPS", "operator:type": "public", "operator:wikidata": "Q668687", "ref": "9918500004"}, "type": "Feature"}
{"geometry": {"coordinates": [-118.705999664, 47.758317192], "type": "Point"}, "id": "Py_Jodrz8A_9te4rIjaau1cv7NI=", "properties": {"@source_uri": "https://tools.usps.com/UspsToolsRestServices/rest/POLocator/findLocations", "@spider": "usps_collection_boxes", "addr:city": "WILBUR", "addr:country": "US", "addr:postcode": "99185", "addr:state": "WA", "addr:street_address": "5 SW BROADWAY ST", "amenity": "post_box", "collection_times": "Mo-Fr 16:30", "indoor": "yes", "note": "ON 12/24 AND 12/31, THIS BOX MAY BE COLLECTED AS EARLY AS 12 NOON.", "nsi_id": "unitedstatespostalservice-a77078", "operator": "United States Postal Service", "operator:short": "USPS", "operator:type": "public", "operator:wikidata": "Q668687", "ref": "9918500005"}, "type": "Feature"}
