{"geometry": {"coordinates": [-117.44876596, 47.667645983], "type": "Point"}, "id": "PtY38_lyobjjFN_j4UkR-LXDrk0=", "properties": {"@source_uri": "https://tools.usps.com/UspsToolsRestServices/rest/POLocator/findLocations", "@spider": "usps_collection_boxes", "addr:city": "SPOKANE", "addr:country": "US", "addr:postcode": "99201", "addr:state": "WA", "addr:street_address": "2501 W BOONE AVE", "amenity": "post_box", "collection_times": "Mo-Fr 12:00", "nsi_id": "unitedstatespostalservice-a77078", "operator": "United States Postal Service", "operator:short": "USPS", "operator:type": "public", "operator:wikidata": "Q668687", "ref": "9920100006"}, "type": "Feature"}
{"geometry": {"coordinates": [-117.437277975, 47.664195992], "type": "Point"}, "id": "y9sA6rr3mCEu744PU7Cm0RDcpnA=", "properties": {"@source_uri": "https://tools.usps.com/UspsToolsRestServices/rest/POLocator/findLocations", "@spider": "usps_collection_boxes", "addr:city": "SPOKANE", "addr:country": "US", "addr:postcode": "99201", "addr:state": "WA", "addr:street_address": "1717 W BROADWAY AVE", "amenity": "post_box", "collection_times": "Mo-Fr 15:15", "note": "ON 12/24 AND 12/31, THIS BOX MAY BE COLLECTED AS EARLY AS 12 NOON.", "nsi_id": "unitedstatespostalservice-a77078", "operator": "United States Postal Service", "operator:short": "USPS", "operator:type": "public", "operator:wikidata": "Q668687", "ref": "9920100011"}, "type": "Feature"}
{"geometry": {"coordinates": [-117.418260024, 47.659440016], "type": "Point"}, "id": "7hsihvmsD56KeCJOxtG-pSRZeEk=", "properties": {"@source_uri": "https://tools.usps.com/UspsToolsRestServices/rest/POLocator/findLocations", "@spider": "usps_collection_boxes", "addr:city": "SPOKANE", "addr:country": "US", "addr:postcode": "99201", "addr:state": "WA", "addr:street_address": "207 N WASHINGTON ST", "amenity": "post_box", "collection_times": "Mo-Fr 15:00; Sa 13:00", "note": "ON 12/24 AND 12/31, THIS BOX MAY BE COLLECTED AS EARLY AS 12 NOON.", "nsi_id": "unitedstatespostalservice-a77078", "operator": "United States Postal Service", "operator:short": "USPS", "operator:type": "public", "operator:wikidata": "Q668687", "ref": "9920100020"}, "type": "Feature"}
{"geometry": {"coordinates": [-117.426576, 47.670447], "type": "Point"}, "id": "spGwxbGvKzs851ccNpc3aRx-O7k=", "properties": {"@source_uri": "https://tools.usps.com/UspsToolsRestServices/rest/POLocator/findLocations", "@spider": "usps_collection_boxes", "addr:city": "SPOKANE", "addr:country": "US", "addr:postcode": "99201", "addr:state": "WA", "addr:street_address": "1402 N MONROE ST", "amenity": "post_box", "collection_times": "Mo-Fr 15:30", "note": "ON 12/24 AND 12/31, THIS BOX MAY BE COLLECTED AS EARLY AS 12 NOON.", "nsi_id": "unitedstatespostalservice-a77078", "operator": "United States Postal Service", "operator:short": "USPS", "operator:type": "public", "operator:wikidata": "Q668687", "ref": "9920100023"}, "type": "Feature"}
{"geometry": {"coordinates": [-117.413453, 47.671836], "type": "Point"}, "id": "k4J9Jr1jEVz3r3a_h7PEg4IWHq0=", "properties": {"@source_uri": "https://tools.usps.com/UspsToolsRestServices/rest/POLocator/findLocations", "@spider": "usps_collection_boxes", "addr:city": "SPOKANE", "addr:country": "US", "addr:postcode": "99201", "addr:state": "WA", "addr:street_address": "106 W MISSION AVE", "amenity": "post_box", "collection_times": "Mo-Fr 12:05", "note": "ON 12/24 AND 12/31, THIS BOX MAY BE COLLECTED AS EARLY AS 12 NOON.", "nsi_id": "unitedstatespostalservice-a77078", "operator": "United States Postal Service", "operator:short": "USPS", "operator:type": "public", "operator:wikidata": "Q668687", "ref": "9920100025"}, "type": "Feature"}
{"geometry": {"coordinates": [-117.414868, 47.672354], "type": "Point"}, "id": "ptopMj7bNIFWgHKUbROLnMlmqFE=", "properties": {"@source_uri": "https://tools.usps.com/UspsToolsRestServices/rest/POLocator/findLocations", "@spider": "usps_collection_boxes", "addr:city": "SPOKANE", "addr:country": "US", "addr:postcode": "99201", "addr:state": "WA", "addr:street_address": "222 W MISSION AVE", "amenity": "post_box", "collection_times": "Mo-Sa 12:05", "note": "ON 12/24 AND 12/31, THIS BOX MAY BE COLLECTED AS EARLY AS 12 NOON.", "nsi_id": "unitedstatespostalservice-a77078", "operator": "United States Postal Service", "operator:short": "USPS", "operator:type": "public", "operator:wikidata": "Q668687", "ref": "9920100026"}, "type": "Feature"}
{"geometry": {"coordinates": [-117.430688, 47.657992], "type": "Point"}, "id": "6xIaLGFxyEOD_jhr_ZJ88ST2nes=", "properties": {"@source_uri": "https://tools.usps.com/UspsToolsRestServices/rest/POLocator/findLocations", "@spider": "usps_collection_boxes", "addr:city": "SPOKANE", "addr:country": "US", "addr:postcode": "99201", "addr:state": "WA", "addr:street_address": "1224 W RIVERSIDE AVE", "amenity": "post_box", "collection_times": "Mo-Fr 12:05", "note": "ON 12/24 AND 12/31, THIS BOX MAY BE COLLECTED AS EARLY AS 12 NOON.", "nsi_id": "unitedstatespostalservice-a77078", "operator": "United States Postal Service", "operator:short": "USPS", "operator:type": "public", "operator:wikidata": "Q668687", "ref": "9920100035"}, "type": "Feature"}
{"geometry": {"coordinates": [-117.4251150679, 47.6583796352], "type": "Point"}, "id": "jIPjAVJuOYGABzUrotjOen3YkTQ=", "properties": {"@source_uri": "https://tools.usps.com/UspsToolsRestServices/rest/POLocator/findLocations", "@spider": "usps_collection_boxes", "addr:city": "SPOKANE", "addr:country": "US", "addr:postcode": "99201", "addr:state": "WA", "addr:street_address": "117 N LINCOLN ST", "amenity": "post_box", "collection_times": "Mo-Fr 17:00; Sa 16:30", "note": "ON 12/24 AND 12/31, THIS BOX MAY BE COLLECTED AS EARLY AS 12 NOON.", "nsi_id": "unitedstatespostalservice-a77078", "operator": "United States Postal Service", "operator:short": "USPS", "operator:type": "public", "operator:wikidata": "Q668687", "ref": "9920100059"}, "type": "Feature"}
{"geometry": {"coordinates": [-117.4254143971, 47.6581820602], "type": "Point"}, "id": "aVof6lEMtQ4llLxNnRIEdVnM3Ns=", "properties": {"@source_uri": "https://tools.usps.com/UspsToolsRestServices/rest/POLocator/findLocations", "@spider": "usps_collection_boxes", "addr:city": "SPOKANE", "addr:country": "US", "addr:postcode": "99201", "addr:state": "WA", "addr:street_address": "904 W RIVERSIDE AVE", "amenity": "post_box", "collection_times": "Mo-Fr 17:00; Sa 16:30", "note": "ON 12/24 AND 12/31, THIS BOX MAY BE COLLECTED AS EARLY AS 12 NOON.", "nsi_id": "unitedstatespostalservice-a77078", "operator": "United States Postal Service", "operator:short": "USPS", "operator:type": "public", "operator:wikidata": "Q668687", "ref": "9920100061"}, "type": "Feature"}
{"geometry": {"coordinates": [-117.4215950153, 47.6588280116], "type": "Point"}, "id": "mIUPV6R4r7J7dFiRQsDXFuaTv2M=", "properties": {"@source_uri": "https://tools.usps.com/UspsToolsRestServices/rest/POLocator/findLocations", "@spider": "usps_collection_boxes", "addr:city": "SPOKANE", "addr:country": "US", "addr:postcode": "99201", "addr:state": "WA", "addr:street_address": "601 W MAIN AVE", "amenity": "post_box", "collection_times": "Mo-Fr 17:00; Sa 16:30", "note": "ON 12/24 AND 12/31, THIS BOX MAY BE COLLECTED AS EARLY AS 12 NOON.", "nsi_id": "unitedstatespostalservice-a77078", "operator": "United States Postal Service", "operator:short": "USPS", "operator:type": "public", "operator:wikidata": "Q668687", "ref": "9920100066"}, "type": "Feature"}
{"geometry": {"coordinates": [-117.4223189603, 47.6651459968], "type": "Point"}, "id": "4XOCkI0788-80Ez39ukNNTNvqY0=", "properties": {"@source_uri": "https://tools.usps.com/UspsToolsRestServices/rest/POLocator/findLocations", "@spider": "usps_collection_boxes", "addr:city": "SPOKANE", "addr:country": "US", "addr:postcode": "99201", "addr:state": "WA", "addr:street_address": "621 W MALLON AVE", "amenity": "post_box", "collection_times": "Mo-Fr 17:00; Sa 13:00", "note": "ON 12/24 AND 12/31, THIS BOX MAY BE COLLECTED AS EARLY AS 12 NOON.", "nsi_id": "unitedstatespostalservice-a77078", "operator": "United States Postal Service", "operator:short": "USPS", "operator:type": "public", "operator:wikidata": "Q668687", "ref": "9920100069"}, "type": "Feature"}
{"geometry": {"coordinates": [-117.4273230403, 47.6656080073], "type": "Point"}, "id": "CpBhfTt9MApNd175gbVETm_HvFc=", "properties": {"@source_uri": "https://tools.usps.com/UspsToolsRestServices/rest/POLocator/findLocations", "@spider": "usps_collection_boxes", "addr:city": "SPOKANE", "addr:country": "US", "addr:postcode": "99201", "addr:state": "WA", "addr:street_address": "901 N MONROE ST", "amenity": "post_box", "collection_times": "Mo-Fr 17:00; Sa 13:00", "note": "ON 12/24 AND 12/31, THIS BOX MAY BE COLLECTED AS EARLY AS 12 NOON.", "nsi_id": "unitedstatespostalservice-a77078", "operator": "United States Postal Service", "operator:short": "USPS", "operator:type": "public", "operator:wikidata": "Q668687", "ref": "9920100072"}, "type": "Feature"}
{"geometry": {"coordinates": [-117.429584265, 47.664285524], "type": "Point"}, "id": "8JnLFKRf4id0GVsOZEDIy73piwQ=", "properties": {"@source_uri": "https://tools.usps.com/UspsToolsRestServices/rest/POLocator/findLocations", "@spider": "usps_collection_boxes", "addr:city": "SPOKANE", "addr:country": "US", "addr:postcode": "99201", "addr:state": "WA", "addr:street_address": "1199 W BROADWAY AVE", "amenity": "post_box", "collection_times": "Mo-Fr 16:00", "note": "ON 12/24 AND 12/31, THIS BOX MAY BE COLLECTED AS EARLY AS 12 NOON.", "nsi_id": "unitedstatespostalservice-a77078", "operator": "United States Postal Service", "operator:short": "USPS", "operator:type": "public", "operator:wikidata": "Q668687", "ref": "9920100076"}, "type": "Feature"}
{"geometry": {"coordinates": [-117.428294, 47.663130987], "type": "Point"}, "id": "ugbqsqVoxS1TIOMWAwK9Eul6Z7Y=", "properties": {"@source_uri": "https://tools.usps.com/UspsToolsRestServices/rest/POLocator/findLocations", "@spider": "usps_collection_boxes", "addr:city": "SPOKANE", "addr:country": "US", "addr:postcode": "99201", "addr:state": "WA", "addr:street_address": "1101 W COLLEGE AVE", "amenity": "post_box", "collection_times": "Mo-Fr 17:00; Sa 13:00", "note": "ON 12/24 AND 12/31, THIS BOX MAY BE COLLECTED AS EARLY AS 12 NOON.", "nsi_id": "unitedstatespostalservice-a77078", "operator": "United States Postal Service", "operator:short": "USPS", "operator:type": "public", "operator:wikidata": "Q668687", "ref": "9920100078"}, "type": "Feature"}
{"geometry": {"coordinates": [-117.419065022, 47.658201003], "type": "Point"}, "id": "FuoG35_Rw-y-cXflOyFvEDShSUo=", "properties": {"@source_uri": "https://tools.usps.com/UspsToolsRestServices/rest/POLocator/findLocations", "@spider": "usps_collection_boxes", "addr:city": "SPOKANE", "addr:country": "US", "addr:postcode": "99201", "addr:state": "WA", "addr:street_address": "422 W RIVERSIDE AVE", "amenity": "post_box", "collection_times": "Mo-Fr 17:00; Sa 16:00", "note": "ON 12/24 AND 12/31, THIS BOX MAY BE COLLECTED AS EARLY AS 12 NOON.", "nsi_id": "unitedstatespostalservice-a77078", "operator": "United States Postal Service", "operator:short": "USPS", "operator:type": "public", "operator:wikidata": "Q668687", "ref": "9920100093"}, "type": "Feature"}
{"geometry": {"coordinates": [-117.4135806586, 47.6657392679], "type": "Point"}, "id": "-6Jti04422hHWhDQyK30aFDro2Y=", "properties": {"@source_uri": "https://tools.usps.com/UspsToolsRestServices/rest/POLocator/findLocations", "@spider": "usps_collection_boxes", "addr:city": "SPOKANE", "addr:country": "US", "addr:postcode": "99201", "addr:state": "WA", "addr:street_address": "111 W CATALDO AVE", "amenity": "post_box", "collection_times": "Mo-Fr 17:00; Sa 13:00", "note": "ON 12/24 AND 12/31, THIS BOX MAY BE COLLECTED AS EARLY AS 12 NOON.", "nsi_id": "unitedstatespostalservice-a77078", "operator": "United States Postal Service", "operator:short": "USPS", "operator:type": "public", "operator:wikidata": "Q668687", "ref": "9920100095"}, "type": "Feature"}
{"geometry": {"coordinates": [-117.428319, 47.658517], "type": "Point"}, "id": "mriUPIETpx9I4Hn9Ws8bxkqG9cY=", "properties": {"@source_uri": "https://tools.usps.com/UspsToolsRestServices/rest/POLocator/findLocations", "@spider": "usps_collection_boxes", "addr:city": "SPOKANE", "addr:country": "US", "addr:postcode": "99201", "addr:state": "WA", "addr:street_address": "99 N MADISON ST", "amenity": "post_box", "collection_times": "Mo-Fr 15:30", "note": "ON 12/24 AND 12/31, THIS BOX MAY BE COLLECTED AS EARLY AS 12 NOON.", "nsi_id": "unitedstatespostalservice-a77078", "operator": "United States Postal Service", "operator:short": "USPS", "operator:type": "public", "operator:wikidata": "Q668687", "ref": "9920100097"}, "type": "Feature"}
{"geometry": {"coordinates": [-117.422326001, 47.657715984], "type": "Point"}, "id": "J-NtBbeffwl15Jix_ZTddKVpRdY=", "properties": {"@source_uri": "https://tools.usps.com/UspsToolsRestServices/rest/POLocator/findLocations", "@spider": "usps_collection_boxes", "addr:city": "SPOKANE", "addr:country": "US", "addr:postcode": "99201", "addr:state": "WA", "addr:street_address": "701 W RIVERSIDE AVE", "amenity": "post_box", "collection_times": "Mo-Fr 17:00; Sa 13:00", "note": "ON 12/24 AND 12/31, THIS BOX MAY BE COLLECTED AS EARLY AS 12 NOON.", "nsi_id": "unitedstatespostalservice-a77078", "operator": "United States Postal Service", "operator:short": "USPS", "operator:type": "public", "operator:wikidata": "Q668687", "ref": "9920100119"}, "type": "Feature"}
{"geometry": {"coordinates": [-117.425391, 47.657957], "type": "Point"}, "id": "a1MCPivxGdVknDvX2QBx7Odirdo=", "properties": {"@source_uri": "https://tools.usps.com/UspsToolsRestServices/rest/POLocator/findLocations", "@spider": "usps_collection_boxes", "addr:city": "SPOKANE", "addr:country": "US", "addr:postcode": "99201", "addr:state": "WA", "addr:street_address": "904 W RIVERSIDE AVE", "amenity": "post_box", "collection_times": "Mo-Fr 16:30", "indoor": "yes", "note": "ON 12/24 AND 12/31, THIS BOX MAY BE COLLECTED AS EARLY AS 12 NOON.", "nsi_id": "unitedstatespostalservice-a77078", "operator": "United States Postal Service", "operator:short": "USPS", "operator:type": "public", "operator:wikidata": "Q668687", "ref": "9920100129"}, "type": "Feature"}
{"geometry": {"coordinates": [-117.415234, 47.656747], "type": "Point"}, "id": "D5qHs3UlDOcG2taBPmiWa8SOlUM=", "properties": {"@source_uri": "https://tools.usps.com/UspsToolsRestServices/rest/POLocator/findLocations", "@spider": "usps_collection_boxes", "addr:city": "SPOKANE", "addr:country": "US", "addr:postcode": "99201", "addr:state": "WA", "addr:street_address": "221 W 1ST AVE", "amenity": "post_box", "collection_times": "Mo-Fr 10:00", "nsi_id": "unitedstatespostalservice-a77078", "operator": "United States Postal Service", "operator:short": "USPS", "operator:type": "public", "operator:wikidata": "Q668687", "ref": "9920100130"}, "type": "Feature"}
{"geometry": {"coordinates": [-117.4193189095, 47.6564681705], "type": "Point"}, "id": "231DJwrz7j-qYBMOXhyh5iVa-zo=", "properties": {"@source_uri": "https://tools.usps.com/UspsToolsRestServices/rest/POLocator/findLocations", "@spider": "usps_collection_boxes", "addr:city": "SPOKANE", "addr:country": "US", "addr:postcode": "99201", "addr:state": "WA", "addr:street_address": "429 W 1ST AVE", "amenity": "post_box", "collection_times": "Mo-Fr 16:00", "note": "ON 12/24 AND 12/31, THIS BOX MAY BE COLLECTED AS EARLY AS 12 NOON.", "nsi_id": "unitedstatespostalservice-a77078", "operator": "United States Postal Service", "operator:short": "USPS", "operator:type": "public", "operator:wikidata": "Q668687", "ref": "9920100133"}, "type": "Feature"}
{"geometry": {"coordinates": [-117.4218219972, 47.6563820046], "type": "Point"}, "id": "U8m3Z7z2QZfK7SdcWUNDpa3MmXY=", "properties": {"@source_uri": "https://tools.usps.com/UspsToolsRestServices/rest/POLocator/findLocations", "@spider": "usps_collection_boxes", "addr:city": "SPOKANE", "addr:country": "US", "addr:postcode": "99201", "addr:state": "WA", "addr:street_address": "601 W 1ST AVE", "amenity": "post_box", "collection_times": "Mo-Fr 17:00; Sa 13:00", "note": "ON 12/24 AND 12/31, THIS BOX MAY BE COLLECTED AS EARLY AS 12 NOON.", "nsi_id": "unitedstatespostalservice-a77078", "operator": "United States Postal Service", "operator:short": "USPS", "operator:type": "public", "operator:wikidata": "Q668687", "ref": "9920100136"}, "type": "Feature"}
{"geometry": {"coordinates": [-117.429733702, 47.656624372], "type": "Point"}, "id": "mjZgABvzfAkdSHkob0rWjWXnfQo=", "properties": {"@source_uri": "https://tools.usps.com/UspsToolsRestServices/rest/POLocator/findLocations", "@spider": "usps_collection_boxes", "addr:city": "SPOKANE", "addr:country": "US", "addr:postcode": "99201", "addr:state": "WA", "addr:street_address": "1202 W 1ST AVE", "amenity": "post_box", "collection_times": "Mo-Fr 15:30; Sa 13:00", "note": "ON 12/24 AND 12/31, THIS BOX MAY BE COLLECTED AS EARLY AS 12 NOON.", "nsi_id": "unitedstatespostalservice-a77078", "operator": "United States Postal Service", "operator:short": "USPS", "operator:type": "public", "operator:wikidata": "Q668687", "ref": "9920100140"}, "type": "Feature"}
{"geometry": {"coordinates": [-117.4182719168, 47.654629072], "type": "Point"}, "id": "4oyldO-yZk1X4xcLZhuzmrAjmlM=", "properties": {"@source_uri": "https://tools.usps.com/UspsToolsRestServices/rest/POLocator/findLocations", "@spider": "usps_collection_boxes", "addr:city": "SPOKANE", "addr:country": "US", "addr:postcode": "99201", "addr:state": "WA", "addr:street_address": "416 W 2ND AVE", "amenity": "post_box", "collection_times": "Mo-Fr 17:00; Sa 13:00", "note": "ON 12/24 AND 12/31, THIS BOX MAY BE COLLECTED AS EARLY AS 12 NOON.", "nsi_id": "unitedstatespostalservice-a77078", "operator": "United States Postal Service", "operator:short": "USPS", "operator:type": "public", "operator:wikidata": "Q668687", "ref": "9920100143"}, "type": "Feature"}
{"geometry": {"coordinates": [-117.4261420301, 47.6532610029], "type": "Point"}, "id": "qp6vQEwzks9woksvEd9vmHCHtDU=", "properties": {"@source_uri": "https://tools.usps.com/UspsToolsRestServices/rest/POLocator/findLocations", "@spider": "usps_collection_boxes", "addr:city": "SPOKANE", "addr:country": "US", "addr:postcode": "99201", "addr:state": "WA", "addr:street_address": "933 W 3RD AVE", "amenity": "post_box", "collection_times": "Mo-Fr 12:00", "nsi_id": "unitedstatespostalservice-a77078", "operator": "United States Postal Service", "operator:short": "USPS", "operator:type": "public", "operator:wikidata": "Q668687", "ref": "9920100146"}, "type": "Feature"}
{"geometry": {"coordinates": [-117.4209548228, 47.6545873188], "type": "Point"}, "id": "3ekKnl-tAs0UEZns19YyKFaDPC4=", "properties": {"@source_uri": "https://tools.usps.com/UspsToolsRestServices/rest/POLocator/findLocations", "@spider": "usps_collection_boxes", "addr:city": "SPOKANE", "addr:country": "US", "addr:postcode": "99201", "addr:state": "WA", "addr:street_address": "199 S HOWARD ST", "amenity": "post_box", "collection_times": "Mo-Fr 17:00; Sa 16:00", "note": "ON 12/24 AND 12/31, THIS BOX MAY BE COLLECTED AS EARLY AS 12 NOON.", "nsi_id": "unitedstatespostalservice-a77078", "operator": "United States Postal Service", "operator:short": "USPS", "operator:type": "public", "operator:wikidata": "Q668687", "ref": "9920100153"}, "type": "Feature"}
{"geometry": {"coordinates": [-117.42898, 47.657203], "type": "Point"}, "id": "__14D8K6kYFY3sjVThz2dCj3ss4=", "properties": {"@source_uri": "https://tools.usps.com/UspsToolsRestServices/rest/POLocator/findLocations", "@spider": "usps_collection_boxes", "addr:city": "SPOKANE", "addr:country": "US", "addr:postcode": "99201", "addr:state": "WA", "addr:street_address": "1120 W SPRAGUE AVE", "amenity": "post_box", "collection_times": "Mo-Fr 13:00", "note": "ON 12/24 AND 12/31, THIS BOX MAY BE COLLECTED AS EARLY AS 12 NOON.", "nsi_id": "unitedstatespostalservice-a77078", "operator": "United States Postal Service", "operator:short": "USPS", "operator:type": "public", "operator:wikidata": "Q668687", "ref": "9920100163"}, "type": "Feature"}
{"geometry": {"coordinates": [-117.4178366537, 47.6569043648], "type": "Point"}, "id": "--Wdrz8A7dssZJj_3DJW-2NOzOc=", "properties": {"@source_uri": "https://tools.usps.com/UspsToolsRestServices/rest/POLocator/findLocations", "@spider": "usps_collection_boxes", "addr:city": "SPOKANE", "addr:country": "US", "addr:postcode": "99201", "addr:state": "WA", "addr:street_address": "9 S WASHINGTON ST", "amenity": "post_box", "collection_times": "Mo-Fr 16:00", "note": "ON 12/24 AND 12/31, THIS BOX MAY BE COLLECTED AS EARLY AS 12 NOON.", "nsi_id": "unitedstatespostalservice-a77078", "operator": "United States Postal Service", "operator:short": "USPS", "operator:type": "public", "operator:wikidata": "Q668687", "ref": "9920100164"}, "type": "Feature"}
{"geometry": {"coordinates": [-117.4258560396, 47.6564209804], "type": "Point"}, "id": "qDR776NDLJDVGqGG0f1120ZPhsQ=", "properties": {"@source_uri": "https://tools.usps.com/UspsToolsRestServices/rest/POLocator/findLocations", "@spider": "usps_collection_boxes", "addr:city": "SPOKANE", "addr:country": "US", "addr:postcode": "99201", "addr:state": "WA", "addr:street_address": "919 W 1ST AVE", "amenity": "post_box", "collection_times": "Mo-Fr 17:00; Sa 13:00", "note": "ON 12/24 AND 12/31, THIS BOX MAY BE COLLECTED AS EARLY AS 12 NOON.", "nsi_id": "unitedstatespostalservice-a77078", "operator": "United States Postal Service", "operator:short": "USPS", "operator:type": "public", "operator:wikidata": "Q668687", "ref": "9920100185"}, "type": "Feature"}
{"geometry": {"coordinates": [-117.4144520412, 47.6594059857], "type": "Point"}, "id": "hMu0e_paL-V7GsZWo8Tuyuraa1c=", "properties": {"@source_uri": "https://tools.usps.com/UspsToolsRestServices/rest/POLocator/findLocations", "@spider": "usps_collection_boxes", "addr:city": "SPOKANE", "addr:country": "US", "addr:postcode": "99201", "addr:state": "WA", "addr:street_address": "224 W MAIN AVE", "amenity": "post_box", "collection_times": "Mo-Fr 17:00; Sa 13:00", "note": "ON 12/24 AND 12/31, THIS BOX MAY BE COLLECTED AS EARLY AS 12 NOON.", "nsi_id": "unitedstatespostalservice-a77078", "operator": "United States Postal Service", "operator:short": "USPS", "operator:type": "public", "operator:wikidata": "Q668687", "ref": "9920100187"}, "type": "Feature"}
{"geometry": {"coordinates": [-117.420853971, 47.655357987], "type": "Point"}, "id": "6JMKAPJCn6vYAyvS8SE-zD7p18s=", "properties": {"@source_uri": "https://tools.usps.com/UspsToolsRestServices/rest/POLocator/findLocations", "@spider": "usps_collection_boxes", "addr:city": "SPOKANE", "addr:country": "US", "addr:postcode": "99201", "addr:state": "WA", "addr:street_address": "157 S HOWARD ST", "amenity": "post_box", "collection_times": "Mo-Fr 17:00; Sa 13:00", "note": "ON 12/24 AND 12/31, THIS BOX MAY BE COLLECTED AS EARLY AS 12 NOON.", "nsi_id": "unitedstatespostalservice-a77078", "operator": "United States Postal Service", "operator:short": "USPS", "operator:type": "public", "operator:wikidata": "Q668687", "ref": "9920100188"}, "type": "Feature"}
{"geometry": {"coordinates": [-117.4238599732, 47.6570500003], "type": "Point"}, "id": "AdmgHxV5edWzUpAeXZ2shLYV2ZQ=", "properties": {"@source_uri": "https://tools.usps.com/UspsToolsRestServices/rest/POLocator/findLocations", "@spider": "usps_collection_boxes", "addr:city": "SPOKANE", "addr:country": "US", "addr:postcode": "99201", "addr:state": "WA", "addr:street_address": "825 W SPRAGUE AVE", "amenity": "post_box", "collection_times": "Mo-Fr 13:00", "note": "ON 12/24 AND 12/31, THIS BOX MAY BE COLLECTED AS EARLY AS 12 NOON.", "nsi_id": "unitedstatespostalservice-a77078", "operator": "United States Postal Service", "operator:short": "USPS", "operator:type": "public", "operator:wikidata": "Q668687", "ref": "9920100189"}, "type": "Feature"}
{"geometry": {"coordinates": [-117.444554, 47.652495], "type": "Point"}, "id": "Phh-1AkFcaYBJ0dt42gyktNq-nI=", "properties": {"@source_uri": "https://tools.usps.com/UspsToolsRestServices/rest/POLocator/findLocations", "@spider": "usps_collection_boxes", "addr:city": "SPOKANE", "addr:country": "US", "addr:postcode": "99201", "addr:state": "WA", "addr:street_address": "2123 W 4TH AVE", "amenity": "post_box", "collection_times": "Mo-Fr 10:00", "nsi_id": "unitedstatespostalservice-a77078", "operator": "United States Postal Service", "operator:short": "USPS", "operator:type": "public", "operator:wikidata": "Q668687", "ref": "9920100192"}, "type": "Feature"}
{"geometry": {"coordinates": [-117.437159, 47.651872], "type": "Point"}, "id": "6nqy_Gqep5n1LTo6hXoGA0XWDQ8=", "properties": {"@source_uri": "https://tools.usps.com/UspsToolsRestServices/rest/POLocator/findLocations", "@spider": "usps_collection_boxes", "addr:city": "SPOKANE", "addr:country": "US", "addr:postcode": "99201", "addr:state": "WA", "addr:street_address": "430 S ASH ST", "amenity": "post_box", "collection_times": "Mo-Fr 15:15", "note": "ON 12/24 AND 12/31, THIS BOX MAY BE COLLECTED AS EARLY AS 12 NOON.", "nsi_id": "unitedstatespostalservice-a77078", "operator": "United States Postal Service", "operator:short": "USPS", "operator:type": "public", "operator:wikidata": "Q668687", "ref": "9920100193"}, "type": "Feature"}
{"geometry": {"coordinates": [-117.449975, 47.655209], "type": "Point"}, "id": "M8iE_62U2xXh3WYiCRhzFIxRUbk=", "properties": {"@source_uri": "https://tools.usps.com/UspsToolsRestServices/rest/POLocator/findLocations", "@spider": "usps_collection_boxes", "addr:city": "SPOKANE", "addr:country": "US", "addr:postcode": "99201", "addr:state": "WA", "addr:street_address": "178 S COEUR DALENE ST", "amenity": "post_box", "collection_times": "Mo-Fr 12:15; Sa 13:00", "note": "ON 12/24 AND 12/31, THIS BOX MAY BE COLLECTED AS EARLY AS 12 NOON.", "nsi_id": "unitedstatespostalservice-a77078", "operator": "United States Postal Service", "operator:short": "USPS", "operator:type": "public", "operator:wikidata": "Q668687", "ref": "9920100195"}, "type": "Feature"}
{"geometry": {"coordinates": [-117.4462470907, 47.6550126181], "type": "Point"}, "id": "9sWD8RQ1Q-MScXLjdRkRKA0A-nw=", "properties": {"@source_uri": "https://tools.usps.com/UspsToolsRestServices/rest/POLocator/findLocations", "@spider": "usps_collection_boxes", "addr:city": "SPOKANE", "addr:country": "US", "addr:postcode": "99201", "addr:state": "WA", "addr:street_address": "150 S SPRUCE ST", "amenity": "post_box", "collection_times": "Mo-Fr 09:00", "nsi_id": "unitedstatespostalservice-a77078", "operator": "United States Postal Service", "operator:short": "USPS", "operator:type": "public", "operator:wikidata": "Q668687", "ref": "9920100196"}, "type": "Feature"}
{"geometry": {"coordinates": [-117.4392883747, 47.6540280728], "type": "Point"}, "id": "K1Ho5QWc2Q7R8Qau8qGbfzHIbso=", "properties": {"@source_uri": "https://tools.usps.com/UspsToolsRestServices/rest/POLocator/findLocations", "@spider": "usps_collection_boxes", "addr:city": "SPOKANE", "addr:country": "US", "addr:postcode": "99201", "addr:state": "WA", "addr:street_address": "1808 W 3RD AVE", "amenity": "post_box", "collection_times": "Mo-Fr 17:00; Sa 16:15", "note": "ON 12/24 AND 12/31, THIS BOX MAY BE COLLECTED AS EARLY AS 12 NOON.", "nsi_id": "unitedstatespostalservice-a77078", "operator": "United States Postal Service", "operator:short": "USPS", "operator:type": "public", "operator:wikidata": "Q668687", "ref": "9920100198"}, "type": "Feature"}
{"geometry": {"coordinates": [-117.434456962, 47.652846015], "type": "Point"}, "id": "n3-dupa0muM3IWhjPPjVLe9tK90=", "properties": {"@source_uri": "https://tools.usps.com/UspsToolsRestServices/rest/POLocator/findLocations", "@spider": "usps_collection_boxes", "addr:city": "SPOKANE", "addr:country": "US", "addr:postcode": "99201", "addr:state": "WA", "addr:street_address": "1500 W 4TH AVE", "amenity": "post_box", "collection_times": "Mo-Fr 17:00; Sa 13:00", "note": "ON 12/24 AND 12/31, THIS BOX MAY BE COLLECTED AS EARLY AS 12 NOON.", "nsi_id": "unitedstatespostalservice-a77078", "operator": "United States Postal Service", "operator:short": "USPS", "operator:type": "public", "operator:wikidata": "Q668687", "ref": "9920100199"}, "type": "Feature"}
{"geometry": {"coordinates": [-117.4325527777, 47.6567550314], "type": "Point"}, "id": "ZAxLE5sv-DMRhqGF7ZFrCKQiaRA=", "properties": {"@source_uri": "https://tools.usps.com/UspsToolsRestServices/rest/POLocator/findLocations", "@spider": "usps_collection_boxes", "addr:city": "SPOKANE", "addr:country": "US", "addr:postcode": "99201", "addr:state": "WA", "addr:street_address": "10 S CEDAR ST", "amenity": "post_box", "collection_times": "Mo-Fr 13:30", "note": "ON 12/24 AND 12/31, THIS BOX MAY BE COLLECTED AS EARLY AS 12 NOON.", "nsi_id": "unitedstatespostalservice-a77078", "operator": "United States Postal Service", "operator:short": "USPS", "operator:type": "public", "operator:wikidata": "Q668687", "ref": "9920100200"}, "type": "Feature"}
{"geometry": {"coordinates": [-117.425412, 47.65795253], "type": "Point"}, "id": "yvu0QKeAnXA3eUAhTTLhyL0K4mc=", "properties": {"@source_uri": "https://tools.usps.com/UspsToolsRestServices/rest/POLocator/findLocations", "@spider": "usps_collection_boxes", "addr:city": "SPOKANE", "addr:country": "US", "addr:postcode": "99201", "addr:state": "WA", "addr:street_address": "904 W RIVERSIDE AVE STE 109", "amenity": "post_box", "collection_times": "Mo-Fr 17:00", "indoor": "yes", "note": "ON 12/24 AND 12/31, THIS BOX MAY BE COLLECTED AS EARLY AS 12 NOON.", "nsi_id": "unitedstatespostalservice-a77078", "operator": "United States Postal Service", "operator:short": "USPS", "operator:type": "public", "operator:wikidata": "Q668687", "ref": "9920100203"}, "type": "Feature"}
{"geometry": {"coordinates": [-117.4095975682, 47.6545009409], "type": "Point"}, "id": "7MAzd2s4LZ2iGFONO6VeBMjgjPo=", "properties": {"@source_uri": "https://tools.usps.com/UspsToolsRestServices/rest/POLocator/findLocations", "@spider": "usps_collection_boxes", "addr:city": "SPOKANE", "addr:country": "US", "addr:postcode": "99202", "addr:state": "WA", "addr:street_address": "104 E 2ND ST", "amenity": "post_box", "collection_times": "Mo-Fr 18:15; Sa 17:00", "note": "ON 12/24 AND 12/31, THIS BOX MAY BE COLLECTED AS EARLY AS 12 NOON.", "nsi_id": "unitedstatespostalservice-a77078", "operator": "United States Postal Service", "operator:short": "USPS", "operator:type": "public", "operator:wikidata": "Q668687", "ref": "9920200004"}, "type": "Feature"}
{"geometry": {"coordinates": [-117.406884, 47.64995], "type": "Point"}, "id": "EJq9GkP76lw2T-tAV8UNIdoRLZI=", "properties": {"@source_uri": "https://tools.usps.com/UspsToolsRestServices/rest/POLocator/findLocations", "@spider": "usps_collection_boxes", "addr:city": "SPOKANE", "addr:country": "US", "addr:postcode": "99202", "addr:state": "WA", "addr:street_address": "711 S COWLEY ST", "amenity": "post_box", "collection_times": "Mo-Fr 15:00", "note": "ON 12/24 AND 12/31, THIS BOX MAY BE COLLECTED AS EARLY AS 12 NOON.", "nsi_id": "unitedstatespostalservice-a77078", "operator": "United States Postal Service", "operator:short": "USPS", "operator:type": "public", "operator:wikidata": "Q668687", "ref": "9920200008"}, "type": "Feature"}
{"geometry": {"coordinates": [-117.358877, 47.656817], "type": "Point"}, "id": "Qoo1u927_0s4yMlWSvl_X9aHPnM=", "properties": {"@source_uri": "https://tools.usps.com/UspsToolsRestServices/rest/POLocator/findLocations", "@spider": "usps_collection_boxes", "addr:city": "SPOKANE", "addr:country": "US", "addr:postcode": "99202", "addr:state": "WA", "addr:street_address": "15 S FERRALL ST", "amenity": "post_box", "collection_times": "Mo-Fr 17:00; Sa 13:00", "note": "ON 12/24 AND 12/31, THIS BOX MAY BE COLLECTED AS EARLY AS 12 NOON.", "nsi_id": "unitedstatespostalservice-a77078", "operator": "United States Postal Service", "operator:short": "USPS", "operator:type": "public", "operator:wikidata": "Q668687", "ref": "9920200012"}, "type": "Feature"}
{"geometry": {"coordinates": [-117.365648, 47.672128], "type": "Point"}, "id": "_GnMjuZLOgZgT9V-LqLVdk_cAAw=", "properties": {"@source_uri": "https://tools.usps.com/UspsToolsRestServices/rest/POLocator/findLocations", "@spider": "usps_collection_boxes", "addr:city": "SPOKANE", "addr:country": "US", "addr:postcode": "99202", "addr:state": "WA", "addr:street_address": "3035 E MISSION AVE", "amenity": "post_box", "collection_times": "Mo-Fr 10:00", "nsi_id": "unitedstatespostalservice-a77078", "operator": "United States Postal Service", "operator:short": "USPS", "operator:type": "public", "operator:wikidata": "Q668687", "ref": "9920200013"}, "type": "Feature"}
{"geometry": {"coordinates": [-117.401313, 47.669016], "type": "Point"}, "id": "QNXdbWXE0f55asNH81yh7I7OecQ=", "properties": {"@source_uri": "https://tools.usps.com/UspsToolsRestServices/rest/POLocator/findLocations", "@spider": "usps_collection_boxes", "addr:city": "SPOKANE", "addr:country": "US", "addr:postcode": "99202", "addr:state": "WA", "addr:street_address": "1218 N STANDARD ST", "amenity": "post_box", "collection_times": "Mo-Fr 15:00", "note": "ON 12/24 AND 12/31, THIS BOX MAY BE COLLECTED AS EARLY AS 12 NOON.", "nsi_id": "unitedstatespostalservice-a77078", "operator": "United States Postal Service", "operator:short": "USPS", "operator:type": "public", "operator:wikidata": "Q668687", "ref": "9920200029"}, "type": "Feature"}
{"geometry": {"coordinates": [-117.363697, 47.665933], "type": "Point"}, "id": "Hmgn-WA-fu3Z3HffWuV0fBX1G08=", "properties": {"@source_uri": "https://tools.usps.com/UspsToolsRestServices/rest/POLocator/findLocations", "@spider": "usps_collection_boxes", "addr:city": "SPOKANE", "addr:country": "US", "addr:postcode": "99202", "addr:state": "WA", "addr:street_address": "3102 E TRENT AVE", "amenity": "post_box", "collection_times": "Mo-Fr 08:00", "nsi_id": "unitedstatespostalservice-a77078", "operator": "United States Postal Service", "operator:short": "USPS", "operator:type": "public", "operator:wikidata": "Q668687", "ref": "9920200033"}, "type": "Feature"}
{"geometry": {"coordinates": [-117.390042, 47.646705], "type": "Point"}, "id": "mJWo_S_rVXskyNfbGaGLLmC9uEw=", "properties": {"@source_uri": "https://tools.usps.com/UspsToolsRestServices/rest/POLocator/findLocations", "@spider": "usps_collection_boxes", "addr:city": "SPOKANE", "addr:country": "US", "addr:postcode": "99202", "addr:state": "WA", "addr:street_address": "928 S PERRY ST", "amenity": "post_box", "collection_times": "Mo-Fr 16:00", "note": "ON 12/24 AND 12/31, THIS BOX MAY BE COLLECTED AS EARLY AS 12 NOON.", "nsi_id": "unitedstatespostalservice-a77078", "operator": "United States Postal Service", "operator:short": "USPS", "operator:type": "public", "operator:wikidata": "Q668687", "ref": "9920200035"}, "type": "Feature"}
{"geometry": {"coordinates": [-117.396395, 47.669433], "type": "Point"}, "id": "qgZvoEAwKKDpKsXkQek8EgVIz7Q=", "properties": {"@source_uri": "https://tools.usps.com/UspsToolsRestServices/rest/POLocator/findLocations", "@spider": "usps_collection_boxes", "addr:city": "SPOKANE", "addr:country": "US", "addr:postcode": "99202", "addr:state": "WA", "addr:street_address": "1230 N HAMILTON ST", "amenity": "post_box", "collection_times": "Mo-Fr 11:00", "nsi_id": "unitedstatespostalservice-a77078", "operator": "United States Postal Service", "operator:short": "USPS", "operator:type": "public", "operator:wikidata": "Q668687", "ref": "9920200038"}, "type": "Feature"}
{"geometry": {"coordinates": [-117.3868070996, 47.6570463123], "type": "Point"}, "id": "jE1Wco9orbta0-tONb5LIhyCMEs=", "properties": {"@source_uri": "https://tools.usps.com/UspsToolsRestServices/rest/POLocator/findLocations", "@spider": "usps_collection_boxes", "addr:city": "SPOKANE", "addr:country": "US", "addr:postcode": "99202", "addr:state": "WA", "addr:street_address": "1602 E SPRAGUE AVE", "amenity": "post_box", "collection_times": "Mo-Fr 17:00; Sa 15:00", "note": "ON 12/24 AND 12/31, THIS BOX MAY BE COLLECTED AS EARLY AS 12 NOON.", "nsi_id": "unitedstatespostalservice-a77078", "operator": "United States Postal Service", "operator:short": "USPS", "operator:type": "public", "operator:wikidata": "Q668687", "ref": "9920200047"}, "type": "Feature"}
{"geometry": {"coordinates": [-117.407841, 47.662141], "type": "Point"}, "id": "yee2Yh9H8TGs9LkAfjAI36aWdhU=", "properties": {"@source_uri": "https://tools.usps.com/UspsToolsRestServices/rest/POLocator/findLocations", "@spider": "usps_collection_boxes", "addr:city": "SPOKANE", "addr:country": "US", "addr:postcode": "99202", "addr:state": "WA", "addr:street_address": "501 N RIVERPOINT BLVD", "amenity": "post_box", "collection_times": "Mo-Fr 16:30", "note": "ON 12/24 AND 12/31, THIS BOX MAY BE COLLECTED AS EARLY AS 12 NOON.", "nsi_id": "unitedstatespostalservice-a77078", "operator": "United States Postal Service", "operator:short": "USPS", "operator:type": "public", "operator:wikidata": "Q668687", "ref": "9920200049"}, "type": "Feature"}
{"geometry": {"coordinates": [-117.358944, 47.655172], "type": "Point"}, "id": "vCWDXXM6tZTZh7Sjn2vKVW75058=", "properties": {"@source_uri": "https://tools.usps.com/UspsToolsRestServices/rest/POLocator/findLocations", "@spider": "usps_collection_boxes", "addr:city": "SPOKANE", "addr:country": "US", "addr:postcode": "99202", "addr:state": "WA", "addr:street_address": "104 S FREYA ST", "amenity": "post_box", "collection_times": "Mo-Fr 17:00; Sa 13:00", "note": "ON 12/24 AND 12/31, THIS BOX MAY BE COLLECTED AS EARLY AS 12 NOON.", "nsi_id": "unitedstatespostalservice-a77078", "operator": "United States Postal Service", "operator:short": "USPS", "operator:type": "public", "operator:wikidata": "Q668687", "ref": "9920200055"}, "type": "Feature"}
{"geometry": {"coordinates": [-117.39542, 47.672301], "type": "Point"}, "id": "-hxJDgckGQFzFLTHakDIcLK8A9Q=", "properties": {"@source_uri": "https://tools.usps.com/UspsToolsRestServices/rest/POLocator/findLocations", "@spider": "usps_collection_boxes", "addr:city": "SPOKANE", "addr:country": "US", "addr:postcode": "99202", "addr:state": "WA", "addr:street_address": "933 E MISSION AVE", "amenity": "post_box", "collection_times": "Mo-Fr 13:00", "note": "ON 12/24 AND 12/31, THIS BOX MAY BE COLLECTED AS EARLY AS 12 NOON.", "nsi_id": "unitedstatespostalservice-a77078", "operator": "United States Postal Service", "operator:short": "USPS", "operator:type": "public", "operator:wikidata": "Q668687", "ref": "9920200059"}, "type": "Feature"}
{"geometry": {"coordinates": [-117.38679, 47.657221], "type": "Point"}, "id": "eOfFbY2kJTN8MOysK7JH4SJEUHw=", "properties": {"@source_uri": "https://tools.usps.com/UspsToolsRestServices/rest/POLocator/findLocations", "@spider": "usps_collection_boxes", "addr:city": "SPOKANE", "addr:country": "US", "addr:postcode": "99202", "addr:state": "WA", "addr:street_address": "1602 E SPRAGUE AVE", "amenity": "post_box", "collection_times": "Mo-Fr 17:00", "indoor": "yes", "note": "ON 12/24 AND 12/31, THIS BOX MAY BE COLLECTED AS EARLY AS 12 NOON.", "nsi_id": "unitedstatespostalservice-a77078", "operator": "United States Postal Service", "operator:short": "USPS", "operator:type": "public", "operator:wikidata": "Q668687", "ref": "9920200060"}, "type": "Feature"}
{"geometry": {"coordinates": [-117.408824, 47.654502], "type": "Point"}, "id": "tmVA152rIvf7lC-_gdL4WJduw4s=", "properties": {"@source_uri": "https://tools.usps.com/UspsToolsRestServices/rest/POLocator/findLocations", "@spider": "usps_collection_boxes", "addr:city": "SPOKANE", "addr:country": "US", "addr:postcode": "99202", "addr:state": "WA", "addr:street_address": "150 E 2ND AVE", "amenity": "post_box", "collection_times": "Mo-Fr 18:15; Sa 17:00", "note": "ON 12/24 AND 12/31, THIS BOX MAY BE COLLECTED AS EARLY AS 12 NOON.", "nsi_id": "unitedstatespostalservice-a77078", "operator": "United States Postal Service", "operator:short": "USPS", "operator:type": "public", "operator:wikidata": "Q668687", "ref": "9920200065"}, "type": "Feature"}
{"geometry": {"coordinates": [-117.40854, 47.6545], "type": "Point"}, "id": "OHabT-BHCDBd473vsaO3srkJCSY=", "properties": {"@source_uri": "https://tools.usps.com/UspsToolsRestServices/rest/POLocator/findLocations", "@spider": "usps_collection_boxes", "addr:city": "SPOKANE", "addr:country": "US", "addr:postcode": "99202", "addr:state": "WA", "addr:street_address": "178 E 2ND AVE", "amenity": "post_box", "collection_times": "Mo-Fr 18:15; Sa 17:00", "note": "ON 12/24 AND 12/31, THIS BOX MAY BE COLLECTED AS EARLY AS 12 NOON.", "nsi_id": "unitedstatespostalservice-a77078", "operator": "United States Postal Service", "operator:short": "USPS", "operator:type": "public", "operator:wikidata": "Q668687", "ref": "9920200068"}, "type": "Feature"}
{"geometry": {"coordinates": [-117.3957705, 47.654973], "type": "Point"}, "id": "8k5uCWZWQVUlqCIglqE7F7gocpk=", "properties": {"@source_uri": "https://tools.usps.com/UspsToolsRestServices/rest/POLocator/findLocations", "@spider": "usps_collection_boxes", "addr:city": "SPOKANE", "addr:country": "US", "addr:postcode": "99202", "addr:state": "WA", "addr:street_address": "140 S ARTHUR", "amenity": "post_box", "collection_times": "Mo-Fr 17:00; Sa 13:00", "note": "ON 12/24 AND 12/31, THIS BOX MAY BE COLLECTED AS EARLY AS 12 NOON.", "nsi_id": "unitedstatespostalservice-a77078", "operator": "United States Postal Service", "operator:short": "USPS", "operator:type": "public", "operator:wikidata": "Q668687", "ref": "9920200071"}, "type": "Feature"}
{"geometry": {"coordinates": [-117.4083445401, 47.64263219], "type": "Point"}, "id": "bsSM0fq8nAkLetBwY681utBYT4s=", "properties": {"@source_uri": "https://tools.usps.com/UspsToolsRestServices/rest/POLocator/findLocations", "@spider": "usps_collection_boxes", "addr:city": "SPOKANE", "addr:country": "US", "addr:postcode": "99202", "addr:state": "WA", "addr:street_address": "202 E 14TH AVE", "amenity": "post_box", "collection_times": "Mo-Fr 17:00; Sa 13:00", "note": "ON 12/24 AND 12/31, THIS BOX MAY BE COLLECTED AS EARLY AS 12 NOON.", "nsi_id": "unitedstatespostalservice-a77078", "operator": "United States Postal Service", "operator:short": "USPS", "operator:type": "public", "operator:wikidata": "Q668687", "ref": "9920200080"}, "type": "Feature"}
{"geometry": {"coordinates": [-117.347804, 47.657174], "type": "Point"}, "id": "NPu_lRpLngimeczQrdARW5M4rcc=", "properties": {"@source_uri": "https://tools.usps.com/UspsToolsRestServices/rest/POLocator/findLocations", "@spider": "usps_collection_boxes", "addr:city": "SPOKANE", "addr:country": "US", "addr:postcode": "99202", "addr:state": "WA", "addr:street_address": "4208 E SPRAGUE AVE", "amenity": "post_box", "collection_times": "Mo-Fr 10:00", "nsi_id": "unitedstatespostalservice-a77078", "operator": "United States Postal Service", "operator:short": "USPS", "operator:type": "public", "operator:wikidata": "Q668687", "ref": "9920200084"}, "type": "Feature"}
{"geometry": {"coordinates": [-117.386473332, 47.65721747], "type": "Point"}, "id": "eXtnz2KaUSWkw8BsHPLhvBJH5L4=", "properties": {"@source_uri": "https://tools.usps.com/UspsToolsRestServices/rest/POLocator/findLocations", "@spider": "usps_collection_boxes", "addr:city": "SPOKANE", "addr:country": "US", "addr:postcode": "99202", "addr:state": "WA", "addr:street_address": "1602 E SPRAGUE AVE", "amenity": "post_box", "collection_times": "Mo-Fr 17:30", "indoor": "yes", "note": "ON 12/24 AND 12/31, THIS BOX MAY BE COLLECTED AS EARLY AS 12 NOON.", "nsi_id": "unitedstatespostalservice-a77078", "operator": "United States Postal Service", "operator:short": "USPS", "operator:type": "public", "operator:wikidata": "Q668687", "ref": "9920200094"}, "type": "Feature"}
{"geometry": {"coordinates": [-117.394983, 47.661907515], "type": "Point"}, "id": "9Mhv7Mqu3hhQoK2sUcHOYKlmDBE=", "properties": {"@source_uri": "https://tools.usps.com/UspsToolsRestServices/rest/POLocator/findLocations", "@spider": "usps_collection_boxes", "addr:city": "SPOKANE", "addr:country": "US", "addr:postcode": "99202", "addr:state": "WA", "addr:street_address": "1003 E TRENT AVE", "amenity": "post_box", "collection_times": "Mo-Fr 14:00", "note": "ON 12/24 AND 12/31, THIS BOX MAY BE COLLECTED AS EARLY AS 12 NOON.", "nsi_id": "unitedstatespostalservice-a77078", "operator": "United States Postal Service", "operator:short": "USPS", "operator:type": "public", "operator:wikidata": "Q668687", "ref": "9920200095"}, "type": "Feature"}
{"geometry": {"coordinates": [-117.403268, 47.620694], "type": "Point"}, "id": "BYTvZBd_BCt82VMzGqfsJ8hL41o=", "properties": {"@source_uri": "https://tools.usps.com/UspsToolsRestServices/rest/POLocator/findLocations", "@spider": "usps_collection_boxes", "addr:city": "SPOKANE", "addr:country": "US", "addr:postcode": "99203", "addr:state": "WA", "addr:street_address": "3702 S GRAND BLVD", "amenity": "post_box", "collection_times": "Mo-Fr 12:30", "note": "ON 12/24 AND 12/31, THIS BOX MAY BE COLLECTED AS EARLY AS 12 NOON.", "nsi_id": "unitedstatespostalservice-a77078", "operator": "United States Postal Service", "operator:short": "USPS", "operator:type": "public", "operator:wikidata": "Q668687", "ref": "9920300006"}, "type": "Feature"}
{"geometry": {"coordinates": [-117.4021731398, 47.6255744033], "type": "Point"}, "id": "cWOTXhCzT_fCR27Id8_zWd1ggw0=", "properties": {"@source_uri": "https://tools.usps.com/UspsToolsRestServices/rest/POLocator/findLocations", "@spider": "usps_collection_boxes", "addr:city": "SPOKANE", "addr:country": "US", "addr:postcode": "99203", "addr:state": "WA", "addr:street_address": "3120 S GRAND BLVD", "amenity": "post_box", "collection_times": "Mo-Fr 17:00; Sa 13:45", "note": "ON 12/24 AND 12/31, THIS BOX MAY BE COLLECTED AS EARLY AS 12 NOON.", "nsi_id": "unitedstatespostalservice-a77078", "operator": "United States Postal Service", "operator:short": "USPS", "operator:type": "public", "operator:wikidata": "Q668687", "ref": "9920300007"}, "type": "Feature"}
{"geometry": {"coordinates": [-117.398598, 47.627121], "type": "Point"}, "id": "zaWXICykt0BQ7CJ4rLgZBnBCBE0=", "properties": {"@source_uri": "https://tools.usps.com/UspsToolsRestServices/rest/POLocator/findLocations", "@spider": "usps_collection_boxes", "addr:city": "SPOKANE", "addr:country": "US", "addr:postcode": "99203", "addr:state": "WA", "addr:street_address": "830 E 29TH AVE", "amenity": "post_box", "collection_times": "Mo-Fr 17:00; Sa 15:30", "note": "ON 12/24 AND 12/31, THIS BOX MAY BE COLLECTED AS EARLY AS 12 NOON.", "nsi_id": "unitedstatespostalservice-a77078", "operator": "United States Postal Service", "operator:short": "USPS", "operator:type": "public", "operator:wikidata": "Q668687", "ref": "9920300010"}, "type": "Feature"}
{"geometry": {"coordinates": [-117.37601, 47.633941], "type": "Point"}, "id": "rI1ozaa5PUBSk6o7bGjucbu8Y5E=", "properties": {"@source_uri": "https://tools.usps.com/UspsToolsRestServices/rest/POLocator/findLocations", "@spider": "usps_collection_boxes", "addr:city": "SPOKANE", "addr:country": "US", "addr:postcode": "99203", "addr:state": "WA", "addr:street_address": "2389 S SOUTHEAST BLVD", "amenity": "post_box", "collection_times": "Mo-Sa 10:00", "nsi_id": "unitedstatespostalservice-a77078", "operator": "United States Postal Service", "operator:short": "USPS", "operator:type": "public", "operator:wikidata": "Q668687", "ref": "9920300019"}, "type": "Feature"}
{"geometry": {"coordinates": [-117.375978, 47.633], "type": "Point"}, "id": "qtJcGFZrkUH5Gp26mgzr7WuervM=", "properties": {"@source_uri": "https://tools.usps.com/UspsToolsRestServices/rest/POLocator/findLocations", "@spider": "usps_collection_boxes", "addr:city": "SPOKANE", "addr:country": "US", "addr:postcode": "99203", "addr:state": "WA", "addr:street_address": "2381 S SOUTHEAST BLVD", "amenity": "post_box", "collection_times": "Mo-Sa 10:00", "nsi_id": "unitedstatespostalservice-a77078", "operator": "United States Postal Service", "operator:short": "USPS", "operator:type": "public", "operator:wikidata": "Q668687", "ref": "9920300020"}, "type": "Feature"}
{"geometry": {"coordinates": [-117.401772, 47.626135], "type": "Point"}, "id": "DHXMDzmHMj7PFWjMrVwe53q03Nk=", "properties": {"@source_uri": "https://tools.usps.com/UspsToolsRestServices/rest/POLocator/findLocations", "@spider": "usps_collection_boxes", "addr:city": "SPOKANE", "addr:country": "US", "addr:postcode": "99203", "addr:state": "WA", "addr:street_address": "3120 S GRAND BLVD", "amenity": "post_box", "collection_times": "Mo-Fr 17:00; Sa 15:00", "indoor": "yes", "note": "ON 12/24 AND 12/31, THIS BOX MAY BE COLLECTED AS EARLY AS 12 NOON.", "nsi_id": "unitedstatespostalservice-a77078", "operator": "United States Postal Service", "operator:short": "USPS", "operator:type": "public", "operator:wikidata": "Q668687", "ref": "9920300021"}, "type": "Feature"}
{"geometry": {"coordinates": [-117.378784, 47.627646], "type": "Point"}, "id": "1ShIFl7QOBsb8Nzz7Qabbvcvtow=", "properties": {"@source_uri": "https://tools.usps.com/UspsToolsRestServices/rest/POLocator/findLocations", "@spider": "usps_collection_boxes", "addr:city": "SPOKANE", "addr:country": "US", "addr:postcode": "99203", "addr:state": "WA", "addr:street_address": "2204 E 29TH AVE", "amenity": "post_box", "collection_times": "Mo-Fr 16:00", "note": "ON 12/24 AND 12/31, THIS BOX MAY BE COLLECTED AS EARLY AS 12 NOON.", "nsi_id": "unitedstatespostalservice-a77078", "operator": "United States Postal Service", "operator:short": "USPS", "operator:type": "public", "operator:wikidata": "Q668687", "ref": "9920300023"}, "type": "Feature"}
{"geometry": {"coordinates": [-117.401813756, 47.625696754], "type": "Point"}, "id": "kHQo1CWvqzkMBZsOcpe7c9Aicyg=", "properties": {"@source_uri": "https://tools.usps.com/UspsToolsRestServices/rest/POLocator/findLocations", "@spider": "usps_collection_boxes", "addr:city": "SPOKANE", "addr:country": "US", "addr:postcode": "99203", "addr:state": "WA", "addr:street_address": "3120 S GRAND BLVD", "amenity": "post_box", "collection_times": "Mo-Fr 17:30; Sa 14:00", "indoor": "yes", "note": "ON 12/24 AND 12/31, THIS BOX MAY BE COLLECTED AS EARLY AS 12 NOON.", "nsi_id": "unitedstatespostalservice-a77078", "operator": "United States Postal Service", "operator:short": "USPS", "operator:type": "public", "operator:wikidata": "Q668687", "ref": "9920300024"}, "type": "Feature"}
{"geometry": {"coordinates": [-117.416325, 47.651305], "type": "Point"}, "id": "UzO9Dq5D4NR_e3vfoMUJJcxLM_c=", "properties": {"@source_uri": "https://tools.usps.com/UspsToolsRestServices/rest/POLocator/findLocations", "@spider": "usps_collection_boxes", "addr:city": "SPOKANE", "addr:country": "US", "addr:postcode": "99204", "addr:state": "WA", "addr:street_address": "501 S BERNARD ST", "amenity": "post_box", "collection_times": "Mo-Fr 17:00; Sa 13:00", "note": "ON 12/24 AND 12/31, THIS BOX MAY BE COLLECTED AS EARLY AS 12 NOON.", "nsi_id": "unitedstatespostalservice-a77078", "operator": "United States Postal Service", "operator:short": "USPS", "operator:type": "public", "operator:wikidata": "Q668687", "ref": "9920400019"}, "type": "Feature"}
{"geometry": {"coordinates": [-117.425143, 47.642225], "type": "Point"}, "id": "sexEQsRRlycD-Fx24XlObFt6EQw=", "properties": {"@source_uri": "https://tools.usps.com/UspsToolsRestServices/rest/POLocator/findLocations", "@spider": "usps_collection_boxes", "addr:city": "SPOKANE", "addr:country": "US", "addr:postcode": "99204", "addr:state": "WA", "addr:street_address": "907 W 14TH AVE", "amenity": "post_box", "collection_times": "Mo-Fr 17:00; Sa 13:00", "note": "ON 12/24 AND 12/31, THIS BOX MAY BE COLLECTED AS EARLY AS 12 NOON.", "nsi_id": "unitedstatespostalservice-a77078", "operator": "United States Postal Service", "operator:short": "USPS", "operator:type": "public", "operator:wikidata": "Q668687", "ref": "9920400040"}, "type": "Feature"}
{"geometry": {"coordinates": [-117.415552, 47.647701], "type": "Point"}, "id": "QsmqcSeQXQUEAUe4va3MP3KvQ4I=", "properties": {"@source_uri": "https://tools.usps.com/UspsToolsRestServices/rest/POLocator/findLocations", "@spider": "usps_collection_boxes", "addr:city": "SPOKANE", "addr:country": "US", "addr:postcode": "99204", "addr:state": "WA", "addr:street_address": "820 S MCCLELLAN ST", "amenity": "post_box", "collection_times": "Mo-Fr 17:00; Sa 13:00", "note": "ON 12/24 AND 12/31, THIS BOX MAY BE COLLECTED AS EARLY AS 12 NOON.", "nsi_id": "unitedstatespostalservice-a77078", "operator": "United States Postal Service", "operator:short": "USPS", "operator:type": "public", "operator:wikidata": "Q668687", "ref": "9920400049"}, "type": "Feature"}
{"geometry": {"coordinates": [-117.42636, 47.646792], "type": "Point"}, "id": "BrC6TQtrVuReHv8elfTQ8T3jtlY=", "properties": {"@source_uri": "https://tools.usps.com/UspsToolsRestServices/rest/POLocator/findLocations", "@spider": "usps_collection_boxes", "addr:city": "SPOKANE", "addr:country": "US", "addr:postcode": "99204", "addr:state": "WA", "addr:street_address": "906 S MONROE ST", "amenity": "post_box", "collection_times": "Mo-Fr 17:00; Sa 15:45", "note": "ON 12/24 AND 12/31, THIS BOX MAY BE COLLECTED AS EARLY AS 12 NOON.", "nsi_id": "unitedstatespostalservice-a77078", "operator": "United States Postal Service", "operator:short": "USPS", "operator:type": "public", "operator:wikidata": "Q668687", "ref": "9920400053"}, "type": "Feature"}
{"geometry": {"coordinates": [-117.423596, 47.651003], "type": "Point"}, "id": "z36UnI6Xfz52AISj4A1Mv5XPxIQ=", "properties": {"@source_uri": "https://tools.usps.com/UspsToolsRestServices/rest/POLocator/findLocations", "@spider": "usps_collection_boxes", "addr:city": "SPOKANE", "addr:country": "US", "addr:postcode": "99204", "addr:state": "WA", "addr:street_address": "801 W 5TH AVE", "amenity": "post_box", "collection_times": "Mo-Sa 08:00", "nsi_id": "unitedstatespostalservice-a77078", "operator": "United States Postal Service", "operator:short": "USPS", "operator:type": "public", "operator:wikidata": "Q668687", "ref": "9920400081"}, "type": "Feature"}
{"geometry": {"coordinates": [-117.42303, 47.649005], "type": "Point"}, "id": "pdyWXwGCJX0oUGXnauD5TgZIK-4=", "properties": {"@source_uri": "https://tools.usps.com/UspsToolsRestServices/rest/POLocator/findLocations", "@spider": "usps_collection_boxes", "addr:city": "SPOKANE", "addr:country": "US", "addr:postcode": "99204", "addr:state": "WA", "addr:street_address": "815 W 7TH AVE", "amenity": "post_box", "collection_times": "Mo-Fr 09:00", "nsi_id": "unitedstatespostalservice-a77078", "operator": "United States Postal Service", "operator:short": "USPS", "operator:type": "public", "operator:wikidata": "Q668687", "ref": "9920400103"}, "type": "Feature"}
{"geometry": {"coordinates": [-117.413201, 47.648183], "type": "Point"}, "id": "yT_FgcbN9GDnixtOIiafalHdJAk=", "properties": {"@source_uri": "https://tools.usps.com/UspsToolsRestServices/rest/POLocator/findLocations", "@spider": "usps_collection_boxes", "addr:city": "SPOKANE", "addr:country": "US", "addr:postcode": "99204", "addr:state": "WA", "addr:street_address": "105 W 8TH AVE", "amenity": "post_box", "collection_times": "Mo-Fr 17:00; Sa 13:00", "note": "ON 12/24 AND 12/31, THIS BOX MAY BE COLLECTED AS EARLY AS 12 NOON.", "nsi_id": "unitedstatespostalservice-a77078", "operator": "United States Postal Service", "operator:short": "USPS", "operator:type": "public", "operator:wikidata": "Q668687", "ref": "9920400106"}, "type": "Feature"}
{"geometry": {"coordinates": [-117.412811, 47.648191], "type": "Point"}, "id": "yXLfX8y9Ef4POVbZGd4fgmF9TSY=", "properties": {"@source_uri": "https://tools.usps.com/UspsToolsRestServices/rest/POLocator/findLocations", "@spider": "usps_collection_boxes", "addr:city": "SPOKANE", "addr:country": "US", "addr:postcode": "99204", "addr:state": "WA", "addr:street_address": "101 W 8TH AVE", "amenity": "post_box", "collection_times": "Mo-Fr 17:00; Sa 16:00", "note": "ON 12/24 AND 12/31, THIS BOX MAY BE COLLECTED AS EARLY AS 12 NOON.", "nsi_id": "unitedstatespostalservice-a77078", "operator": "United States Postal Service", "operator:short": "USPS", "operator:type": "public", "operator:wikidata": "Q668687", "ref": "9920400107"}, "type": "Feature"}
{"geometry": {"coordinates": [-117.425613, 47.651369], "type": "Point"}, "id": "UM7Vc-Q5EtBTY6-b1T9ckPmn8jo=", "properties": {"@source_uri": "https://tools.usps.com/UspsToolsRestServices/rest/POLocator/findLocations", "@spider": "usps_collection_boxes", "addr:city": "SPOKANE", "addr:country": "US", "addr:postcode": "99204", "addr:state": "WA", "addr:street_address": "910 W 5TH AVE", "amenity": "post_box", "collection_times": "Mo-Fr 17:00; Sa 13:00", "note": "ON 12/24 AND 12/31, THIS BOX MAY BE COLLECTED AS EARLY AS 12 NOON.", "nsi_id": "unitedstatespostalservice-a77078", "operator": "United States Postal Service", "operator:short": "USPS", "operator:type": "public", "operator:wikidata": "Q668687", "ref": "9920400118"}, "type": "Feature"}
{"geometry": {"coordinates": [-117.421565, 47.651398], "type": "Point"}, "id": "Bt8hpWEsHN5vLW9bc_cJakH3wHA=", "properties": {"@source_uri": "https://tools.usps.com/UspsToolsRestServices/rest/POLocator/findLocations", "@spider": "usps_collection_boxes", "addr:city": "SPOKANE", "addr:country": "US", "addr:postcode": "99204", "addr:state": "WA", "addr:street_address": "601 W 5TH AVE", "amenity": "post_box", "collection_times": "Mo-Fr 09:00", "nsi_id": "unitedstatespostalservice-a77078", "operator": "United States Postal Service", "operator:short": "USPS", "operator:type": "public", "operator:wikidata": "Q668687", "ref": "9920400134"}, "type": "Feature"}
{"geometry": {"coordinates": [-117.449244, 47.708165], "type": "Point"}, "id": "PhRKzp9mr7ujlzTp67KQLMQVuRY=", "properties": {"@source_uri": "https://tools.usps.com/UspsToolsRestServices/rest/POLocator/findLocations", "@spider": "usps_collection_boxes", "addr:city": "SPOKANE", "addr:country": "US", "addr:postcode": "99205", "addr:state": "WA", "addr:street_address": "5503 N ALBERTA ST", "amenity": "post_box", "collection_times": "Mo-Sa 08:30", "nsi_id": "unitedstatespostalservice-a77078", "operator": "United States Postal Service", "operator:short": "USPS", "operator:type": "public", "operator:wikidata": "Q668687", "ref": "9920500001"}, "type": "Feature"}
{"geometry": {"coordinates": [-117.452479, 47.692806], "type": "Point"}, "id": "zmBfz9h7Sr8KYKcfvR6OdFQi3eU=", "properties": {"@source_uri": "https://tools.usps.com/UspsToolsRestServices/rest/POLocator/findLocations", "@spider": "usps_collection_boxes", "addr:city": "SPOKANE", "addr:country": "US", "addr:postcode": "99205", "addr:state": "WA", "addr:street_address": "2728 W PROVIDENCE AVE", "amenity": "post_box", "collection_times": "Mo-Fr 13:30; Sa 15:00", "note": "ON 12/24 AND 12/31, THIS BOX MAY BE COLLECTED AS EARLY AS 12 NOON.", "nsi_id": "unitedstatespostalservice-a77078", "operator": "United States Postal Service", "operator:short": "USPS", "operator:type": "public", "operator:wikidata": "Q668687", "ref": "9920500009"}, "type": "Feature"}
{"geometry": {"coordinates": [-117.470652, 47.70981], "type": "Point"}, "id": "As1p4uKs4gbXHc9STU5GfKSA0qE=", "properties": {"@source_uri": "https://tools.usps.com/UspsToolsRestServices/rest/POLocator/findLocations", "@spider": "usps_collection_boxes", "addr:city": "SPOKANE", "addr:country": "US", "addr:postcode": "99205", "addr:state": "WA", "addr:street_address": "5611 N DRISCOLL BLVD", "amenity": "post_box", "collection_times": "Mo-Sa 08:30", "nsi_id": "unitedstatespostalservice-a77078", "operator": "United States Postal Service", "operator:short": "USPS", "operator:type": "public", "operator:wikidata": "Q668687", "ref": "9920500010"}, "type": "Feature"}
{"geometry": {"coordinates": [-117.4368606595, 47.6796551238], "type": "Point"}, "id": "2dOSeJpNNpBNIiMfjHxZE8fRknE=", "properties": {"@source_uri": "https://tools.usps.com/UspsToolsRestServices/rest/POLocator/findLocations", "@spider": "usps_collection_boxes", "addr:city": "SPOKANE", "addr:country": "US", "addr:postcode": "99205", "addr:state": "WA", "addr:street_address": "1616 W NORTHWEST BLVD", "amenity": "post_box", "collection_times": "Mo-Fr 18:00; Sa 13:00", "note": "ON 12/24 AND 12/31, THIS BOX MAY BE COLLECTED AS EARLY AS 12 NOON.", "nsi_id": "unitedstatespostalservice-a77078", "operator": "United States Postal Service", "operator:short": "USPS", "operator:type": "public", "operator:wikidata": "Q668687", "ref": "9920500011"}, "type": "Feature"}
{"geometry": {"coordinates": [-117.437834, 47.716391], "type": "Point"}, "id": "ya91G5iqnv2XT-vxW-Ior2BJNic=", "properties": {"@source_uri": "https://tools.usps.com/UspsToolsRestServices/rest/POLocator/findLocations", "@spider": "usps_collection_boxes", "addr:city": "SPOKANE", "addr:country": "US", "addr:postcode": "99205", "addr:state": "WA", "addr:street_address": "1724 W FRANCIS AVE", "amenity": "post_box", "collection_times": "Mo-Fr 17:00; Sa 13:00", "note": "ON 12/24 AND 12/31, THIS BOX MAY BE COLLECTED AS EARLY AS 12 NOON.", "nsi_id": "unitedstatespostalservice-a77078", "operator": "United States Postal Service", "operator:short": "USPS", "operator:type": "public", "operator:wikidata": "Q668687", "ref": "9920500012"}, "type": "Feature"}
{"geometry": {"coordinates": [-117.425861, 47.675053], "type": "Point"}, "id": "8bBzPpF0xaEe1F8lX3TFOmYRBWE=", "properties": {"@source_uri": "https://tools.usps.com/UspsToolsRestServices/rest/POLocator/findLocations", "@spider": "usps_collection_boxes", "addr:city": "SPOKANE", "addr:country": "US", "addr:postcode": "99205", "addr:state": "WA", "addr:street_address": "912 W INDIANA AVE", "amenity": "post_box", "collection_times": "Mo-Fr 08:30", "nsi_id": "unitedstatespostalservice-a77078", "operator": "United States Postal Service", "operator:short": "USPS", "operator:type": "public", "operator:wikidata": "Q668687", "ref": "9920500014"}, "type": "Feature"}
{"geometry": {"coordinates": [-117.424486, 47.69393], "type": "Point"}, "id": "AOdn-xjk8b-ArJ8PWohxvmeJzak=", "properties": {"@source_uri": "https://tools.usps.com/UspsToolsRestServices/rest/POLocator/findLocations", "@spider": "usps_collection_boxes", "addr:city": "SPOKANE", "addr:country": "US", "addr:postcode": "99205", "addr:state": "WA", "addr:street_address": "3910 N LINCOLN ST", "amenity": "post_box", "collection_times": "Mo-Fr 09:00", "nsi_id": "unitedstatespostalservice-a77078", "operator": "United States Postal Service", "operator:short": "USPS", "operator:type": "public", "operator:wikidata": "Q668687", "ref": "9920500015"}, "type": "Feature"}
{"geometry": {"coordinates": [-117.4266216673, 47.6788320525], "type": "Point"}, "id": "3aHB6bouXXkam9SoGNiIUCxfjtM=", "properties": {"@source_uri": "https://tools.usps.com/UspsToolsRestServices/rest/POLocator/findLocations", "@spider": "usps_collection_boxes", "addr:city": "SPOKANE", "addr:country": "US", "addr:postcode": "99205", "addr:state": "WA", "addr:street_address": "2310 N MONROE ST", "amenity": "post_box", "collection_times": "Mo-Fr 14:45", "note": "ON 12/24 AND 12/31, THIS BOX MAY BE COLLECTED AS EARLY AS 12 NOON.", "nsi_id": "unitedstatespostalservice-a77078", "operator": "United States Postal Service", "operator:short": "USPS", "operator:type": "public", "operator:wikidata": "Q668687", "ref": "9920500017"}, "type": "Feature"}
{"geometry": {"coordinates": [-117.4471766676, 47.7003785724], "type": "Point"}, "id": "o2SRs8WU_TB7akpRD5zRSilbumA=", "properties": {"@source_uri": "https://tools.usps.com/UspsToolsRestServices/rest/POLocator/findLocations", "@spider": "usps_collection_boxes", "addr:city": "SPOKANE", "addr:country": "US", "addr:postcode": "99205", "addr:state": "WA", "addr:street_address": "2501 W WELLESLEY AVE", "amenity": "post_box", "collection_times": "Mo-Fr 17:00; Sa 16:15", "note": "ON 12/24 AND 12/31, THIS BOX MAY BE COLLECTED AS EARLY AS 12 NOON.", "nsi_id": "unitedstatespostalservice-a77078", "operator": "United States Postal Service", "operator:short": "USPS", "operator:type": "public", "operator:wikidata": "Q668687", "ref": "9920500023"}, "type": "Feature"}
{"geometry": {"coordinates": [-117.4136489711, 47.6740950195], "type": "Point"}, "id": "zGhhFfwvnU6zO0uye7SwOrwiTjg=", "properties": {"@source_uri": "https://tools.usps.com/UspsToolsRestServices/rest/POLocator/findLocations", "@spider": "usps_collection_boxes", "addr:city": "SPOKANE", "addr:country": "US", "addr:postcode": "99205", "addr:state": "WA", "addr:street_address": "106 W NORA AVE", "amenity": "post_box", "collection_times": "Mo-Fr 17:00; Sa 13:00", "note": "ON 12/24 AND 12/31, THIS BOX MAY BE COLLECTED AS EARLY AS 12 NOON.", "nsi_id": "unitedstatespostalservice-a77078", "operator": "United States Postal Service", "operator:short": "USPS", "operator:type": "public", "operator:wikidata": "Q668687", "ref": "9920500029"}, "type": "Feature"}
{"geometry": {"coordinates": [-117.4400639522, 47.6932003105], "type": "Point"}, "id": "TKMhcKMzB1f-y1mt1_vHaVStPzQ=", "properties": {"@source_uri": "https://tools.usps.com/UspsToolsRestServices/rest/POLocator/findLocations", "@spider": "usps_collection_boxes", "addr:city": "SPOKANE", "addr:country": "US", "addr:postcode": "99205", "addr:state": "WA", "addr:street_address": "1903 W GARLAND AVE", "amenity": "post_box", "collection_times": "Mo-Fr 17:00; Sa 16:30", "note": "ON 12/24 AND 12/31, THIS BOX MAY BE COLLECTED AS EARLY AS 12 NOON.", "nsi_id": "unitedstatespostalservice-a77078", "operator": "United States Postal Service", "operator:short": "USPS", "operator:type": "public", "operator:wikidata": "Q668687", "ref": "9920500035"}, "type": "Feature"}
{"geometry": {"coordinates": [-117.425915662, 47.7000863644], "type": "Point"}, "id": "CE2zDu70QMymlw3QCRKvyqJPFhs=", "properties": {"@source_uri": "https://tools.usps.com/UspsToolsRestServices/rest/POLocator/findLocations", "@spider": "usps_collection_boxes", "addr:city": "SPOKANE", "addr:country": "US", "addr:postcode": "99205", "addr:state": "WA", "addr:street_address": "4601 N MONROE ST", "amenity": "post_box", "collection_times": "Mo-Fr 15:00", "note": "ON 12/24 AND 12/31, THIS BOX MAY BE COLLECTED AS EARLY AS 12 NOON.", "nsi_id": "unitedstatespostalservice-a77078", "operator": "United States Postal Service", "operator:short": "USPS", "operator:type": "public", "operator:wikidata": "Q668687", "ref": "9920500041"}, "type": "Feature"}
{"geometry": {"coordinates": [-117.437152, 47.674264], "type": "Point"}, "id": "LkyOIk_RzJf6aoEU6tu8LKtnYaU=", "properties": {"@source_uri": "https://tools.usps.com/UspsToolsRestServices/rest/POLocator/findLocations", "@spider": "usps_collection_boxes", "addr:city": "SPOKANE", "addr:country": "US", "addr:postcode": "99205", "addr:state": "WA", "addr:street_address": "1809 N ASH ST", "amenity": "post_box", "collection_times": "Mo-Fr 15:00", "note": "ON 12/24 AND 12/31, THIS BOX MAY BE COLLECTED AS EARLY AS 12 NOON.", "nsi_id": "unitedstatespostalservice-a77078", "operator": "United States Postal Service", "operator:short": "USPS", "operator:type": "public", "operator:wikidata": "Q668687", "ref": "9920500043"}, "type": "Feature"}
{"geometry": {"coordinates": [-117.440051, 47.693482], "type": "Point"}, "id": "ZfXZ9QbP36SDZ4PEAnahwNMNdiA=", "properties": {"@source_uri": "https://tools.usps.com/UspsToolsRestServices/rest/POLocator/findLocations", "@spider": "usps_collection_boxes", "addr:city": "SPOKANE", "addr:country": "US", "addr:postcode": "99205", "addr:state": "WA", "addr:street_address": "1903 W GARLAND AVE", "amenity": "post_box", "collection_times": "Mo-Fr 17:00; Sa 16:30", "indoor": "yes", "note": "ON 12/24 AND 12/31, THIS BOX MAY BE COLLECTED AS EARLY AS 12 NOON.", "nsi_id": "unitedstatespostalservice-a77078", "operator": "United States Postal Service", "operator:short": "USPS", "operator:type": "public", "operator:wikidata": "Q668687", "ref": "9920500047"}, "type": "Feature"}
{"geometry": {"coordinates": [-117.435859, 47.708489], "type": "Point"}, "id": "VthjQ6dFIeiW_N3k2jw61c0-1og=", "properties": {"@source_uri": "https://tools.usps.com/UspsToolsRestServices/rest/POLocator/findLocations", "@spider": "usps_collection_boxes", "addr:city": "SPOKANE", "addr:country": "US", "addr:postcode": "99205", "addr:state": "WA", "addr:street_address": "1620 W ROWAN AVE", "amenity": "post_box", "collection_times": "Mo-Sa 15:00", "note": "ON 12/24 AND 12/31, THIS BOX MAY BE COLLECTED AS EARLY AS 12 NOON.", "nsi_id": "unitedstatespostalservice-a77078", "operator": "United States Postal Service", "operator:short": "USPS", "operator:type": "public", "operator:wikidata": "Q668687", "ref": "9920500050"}, "type": "Feature"}
{"geometry": {"coordinates": [-117.440051, 47.693482], "type": "Point"}, "id": "CqBEQcEAnX0vFJ-2-ZvFzi54p10=", "properties": {"@source_uri": "https://tools.usps.com/UspsToolsRestServices/rest/POLocator/findLocations", "@spider": "usps_collection_boxes", "addr:city": "SPOKANE", "addr:country": "US", "addr:postcode": "99205", "addr:state": "WA", "addr:street_address": "1903 W GARLAND AVE", "amenity": "post_box", "collection_times": "Mo-Fr 17:00; Sa 16:30", "name": "USPS COLLECTION BOX - APC", "note": "ON 12/24 AND 12/31, THIS BOX MAY BE COLLECTED AS EARLY AS 12 NOON.", "nsi_id": "unitedstatespostalservice-a77078", "operator": "United States Postal Service", "operator:short": "USPS", "operator:type": "public", "operator:wikidata": "Q668687", "ref": "9920500051"}, "type": "Feature"}
{"geometry": {"coordinates": [-117.440163, 47.693482495], "type": "Point"}, "id": "G2Cr4GJmY7v6ZSsfUZicOliysyQ=", "properties": {"@source_uri": "https://tools.usps.com/UspsToolsRestServices/rest/POLocator/findLocations", "@spider": "usps_collection_boxes", "addr:city": "SPOKANE", "addr:country": "US", "addr:postcode": "99205", "addr:state": "WA", "addr:street_address": "1903 W GARLAND AVE", "amenity": "post_box", "collection_times": "Mo-Fr 17:00; Sa 15:00", "indoor": "yes", "note": "ON 12/24 AND 12/31, THIS BOX MAY BE COLLECTED AS EARLY AS 12 NOON.", "nsi_id": "unitedstatespostalservice-a77078", "operator": "United States Postal Service", "operator:short": "USPS", "operator:type": "public", "operator:wikidata": "Q668687", "ref": "9920500055"}, "type": "Feature"}
{"geometry": {"coordinates": [-117.4762441858, 47.7029393696], "type": "Point"}, "id": "dMcA_a6hfWcwP-1aX3Ni9fCrZBE=", "properties": {"@source_uri": "https://tools.usps.com/UspsToolsRestServices/rest/POLocator/findLocations", "@spider": "usps_collection_boxes", "addr:city": "SPOKANE", "addr:country": "US", "addr:postcode": "99205", "addr:state": "WA", "addr:street_address": "4815 N ASSEMBLY ST", "amenity": "post_box", "collection_times": "Mo-Fr 16:00", "note": "ON 12/24 AND 12/31, THIS BOX MAY BE COLLECTED AS EARLY AS 12 NOON.", "nsi_id": "unitedstatespostalservice-a77078", "operator": "United States Postal Service", "operator:short": "USPS", "operator:type": "public", "operator:wikidata": "Q668687", "ref": "9920500057"}, "type": "Feature"}
{"geometry": {"coordinates": [-117.240269, 47.666251], "type": "Point"}, "id": "Yg9wxwBMxfDIzA9q1FpGTCY7EHc=", "properties": {"@source_uri": "https://tools.usps.com/UspsToolsRestServices/rest/POLocator/findLocations", "@spider": "usps_collection_boxes", "addr:city": "SPOKANE VALLEY", "addr:country": "US", "addr:postcode": "99206", "addr:state": "WA", "addr:street_address": "12135 E CATALDO AVE", "amenity": "post_box", "collection_times": "Mo-Fr 08:30", "nsi_id": "unitedstatespostalservice-a77078", "operator": "United States Postal Service", "operator:short": "USPS", "operator:type": "public", "operator:wikidata": "Q668687", "ref": "9920600004"}, "type": "Feature"}
{"geometry": {"coordinates": [-117.254513, 47.680564], "type": "Point"}, "id": "XovZhAr4VRU-qfiy8aawaXdkNdU=", "properties": {"@source_uri": "https://tools.usps.com/UspsToolsRestServices/rest/POLocator/findLocations", "@spider": "usps_collection_boxes", "addr:city": "SPOKANE VALLEY", "addr:country": "US", "addr:postcode": "99206", "addr:state": "WA", "addr:street_address": "11211 E MONTGOMERY DR", "amenity": "post_box", "collection_times": "Mo-Fr 17:00; Sa 13:00", "note": "ON 12/24 AND 12/31, THIS BOX MAY BE COLLECTED AS EARLY AS 12 NOON.", "nsi_id": "unitedstatespostalservice-a77078", "operator": "United States Postal Service", "operator:short": "USPS", "operator:type": "public", "operator:wikidata": "Q668687", "ref": "9920600006"}, "type": "Feature"}
{"geometry": {"coordinates": [-117.2395216424, 47.6768363691], "type": "Point"}, "id": "WJCnbfnqqf57VYEjWpr1NTBZYVQ=", "properties": {"@source_uri": "https://tools.usps.com/UspsToolsRestServices/rest/POLocator/findLocations", "@spider": "usps_collection_boxes", "addr:city": "SPOKANE VALLEY", "addr:country": "US", "addr:postcode": "99206", "addr:state": "WA", "addr:street_address": "2128 N PINES RD", "amenity": "post_box", "collection_times": "Mo-Fr 08:00", "nsi_id": "unitedstatespostalservice-a77078", "operator": "United States Postal Service", "operator:short": "USPS", "operator:type": "public", "operator:wikidata": "Q668687", "ref": "9920600010"}, "type": "Feature"}
{"geometry": {"coordinates": [-117.262639, 47.655965], "type": "Point"}, "id": "HL-TUdobav5MCNpTa8TTR4hFp0E=", "properties": {"@source_uri": "https://tools.usps.com/UspsToolsRestServices/rest/POLocator/findLocations", "@spider": "usps_collection_boxes", "addr:city": "SPOKANE VALLEY", "addr:country": "US", "addr:postcode": "99206", "addr:state": "WA", "addr:street_address": "10618 E SPRAGUE AVE", "amenity": "post_box", "collection_times": "Mo-Fr 16:00; Sa 13:00", "note": "ON 12/24 AND 12/31, THIS BOX MAY BE COLLECTED AS EARLY AS 12 NOON.", "nsi_id": "unitedstatespostalservice-a77078", "operator": "United States Postal Service", "operator:short": "USPS", "operator:type": "public", "operator:wikidata": "Q668687", "ref": "9920600012"}, "type": "Feature"}
{"geometry": {"coordinates": [-117.260937, 47.658358], "type": "Point"}, "id": "ZSqFfYLgOejZf371204r3m7qBk4=", "properties": {"@source_uri": "https://tools.usps.com/UspsToolsRestServices/rest/POLocator/findLocations", "@spider": "usps_collection_boxes", "addr:city": "SPOKANE VALLEY", "addr:country": "US", "addr:postcode": "99206", "addr:state": "WA", "addr:street_address": "112 N UNIVERSITY RD", "amenity": "post_box", "collection_times": "Mo-Fr 08:30", "nsi_id": "unitedstatespostalservice-a77078", "operator": "United States Postal Service", "operator:short": "USPS", "operator:type": "public", "operator:wikidata": "Q668687", "ref": "9920600015"}, "type": "Feature"}
{"geometry": {"coordinates": [-117.2472550335, 47.6564939868], "type": "Point"}, "id": "fm5jQzSwxgZD9AyeLYScrpyVN2I=", "properties": {"@source_uri": "https://tools.usps.com/UspsToolsRestServices/rest/POLocator/findLocations", "@spider": "usps_collection_boxes", "addr:city": "SPOKANE VALLEY", "addr:country": "US", "addr:postcode": "99206", "addr:state": "WA", "addr:street_address": "11712 E SPRAGUE AVE", "amenity": "post_box", "collection_times": "Mo-Fr 17:00; Sa 16:00", "note": "ON 12/24 AND 12/31, THIS BOX MAY BE COLLECTED AS EARLY AS 12 NOON.", "nsi_id": "unitedstatespostalservice-a77078", "operator": "United States Postal Service", "operator:short": "USPS", "operator:type": "public", "operator:wikidata": "Q668687", "ref": "9920600021"}, "type": "Feature"}
{"geometry": {"coordinates": [-117.2544602887, 47.6193454008], "type": "Point"}, "id": "V9wJQByqQK1NUMYdZX1l1xxCtcA=", "properties": {"@source_uri": "https://tools.usps.com/UspsToolsRestServices/rest/POLocator/findLocations", "@spider": "usps_collection_boxes", "addr:city": "SPOKANE VALLEY", "addr:country": "US", "addr:postcode": "99206", "addr:state": "WA", "addr:street_address": "11205 E DISHMAN MICA RD", "amenity": "post_box", "collection_times": "Mo-Fr 16:00; Sa 13:30", "indoor": "yes", "note": "ON 12/24 AND 12/31, THIS BOX MAY BE COLLECTED AS EARLY AS 12 NOON.", "nsi_id": "unitedstatespostalservice-a77078", "operator": "United States Postal Service", "operator:short": "USPS", "operator:type": "public", "operator:wikidata": "Q668687", "ref": "9920600029"}, "type": "Feature"}
{"geometry": {"coordinates": [-117.246761, 47.657102], "type": "Point"}, "id": "QsD3hW1_2OmcOg7D7gedJzq3HPM=", "properties": {"@source_uri": "https://tools.usps.com/UspsToolsRestServices/rest/POLocator/findLocations", "@spider": "usps_collection_boxes", "addr:city": "SPOKANE VALLEY", "addr:country": "US", "addr:postcode": "99206", "addr:state": "WA", "addr:street_address": "11712 E SPRAGUE AVE", "amenity": "post_box", "collection_times": "Mo-Fr 17:00; Sa 16:00", "indoor": "yes", "note": "ON 12/24 AND 12/31, THIS BOX MAY BE COLLECTED AS EARLY AS 12 NOON.", "nsi_id": "unitedstatespostalservice-a77078", "operator": "United States Postal Service", "operator:short": "USPS", "operator:type": "public", "operator:wikidata": "Q668687", "ref": "9920600030"}, "type": "Feature"}
{"geometry": {"coordinates": [-117.2807440056, 47.6589940151], "type": "Point"}, "id": "wpRigm_1J14xOYk5hdhqhFko-84=", "properties": {"@source_uri": "https://tools.usps.com/UspsToolsRestServices/rest/POLocator/findLocations", "@spider": "usps_collection_boxes", "addr:city": "SPOKANE VALLEY", "addr:country": "US", "addr:postcode": "99206", "addr:state": "WA", "addr:street_address": "200 N MULLAN RD", "amenity": "post_box", "collection_times": "Mo-Fr 15:30", "note": "ON 12/24 AND 12/31, THIS BOX MAY BE COLLECTED AS EARLY AS 12 NOON.", "nsi_id": "unitedstatespostalservice-a77078", "operator": "United States Postal Service", "operator:short": "USPS", "operator:type": "public", "operator:wikidata": "Q668687", "ref": "9920600032"}, "type": "Feature"}
{"geometry": {"coordinates": [-117.282293, 47.656583], "type": "Point"}, "id": "jWBTaBMl1YbD3Xelgm0CAktAygk=", "properties": {"@source_uri": "https://tools.usps.com/UspsToolsRestServices/rest/POLocator/findLocations", "@spider": "usps_collection_boxes", "addr:city": "SPOKANE VALLEY", "addr:country": "US", "addr:postcode": "99206", "addr:state": "WA", "addr:street_address": "9116 E SPRAGUE AVE", "amenity": "post_box", "collection_times": "Mo-Fr 15:00; Sa 13:00", "note": "ON 12/24 AND 12/31, THIS BOX MAY BE COLLECTED AS EARLY AS 12 NOON.", "nsi_id": "unitedstatespostalservice-a77078", "operator": "United States Postal Service", "operator:short": "USPS", "operator:type": "public", "operator:wikidata": "Q668687", "ref": "9920600033"}, "type": "Feature"}
{"geometry": {"coordinates": [-117.2796881088, 47.6788088477], "type": "Point"}, "id": "n9e4UxAwNSWjfieRNmFdIUXRFaM=", "properties": {"@source_uri": "https://tools.usps.com/UspsToolsRestServices/rest/POLocator/findLocations", "@spider": "usps_collection_boxes", "addr:city": "SPOKANE VALLEY", "addr:country": "US", "addr:postcode": "99206", "addr:state": "WA", "addr:street_address": "9329 E MONTGOMERY AVE", "amenity": "post_box", "collection_times": "Mo-Fr 16:00; Sa 15:00", "indoor": "yes", "note": "ON 12/24 AND 12/31, THIS BOX MAY BE COLLECTED AS EARLY AS 12 NOON.", "nsi_id": "unitedstatespostalservice-a77078", "operator": "United States Postal Service", "operator:short": "USPS", "operator:type": "public", "operator:wikidata": "Q668687", "ref": "9920600043"}, "type": "Feature"}
{"geometry": {"coordinates": [-117.279634, 47.67977], "type": "Point"}, "id": "1bVVvq5hKZImPEwidXsX0ZGcl2I=", "properties": {"@source_uri": "https://tools.usps.com/UspsToolsRestServices/rest/POLocator/findLocations", "@spider": "usps_collection_boxes", "addr:city": "SPOKANE VALLEY", "addr:country": "US", "addr:postcode": "99206", "addr:state": "WA", "addr:street_address": "9329 E MONTGOMERY AVE", "amenity": "post_box", "collection_times": "Mo-Fr 17:00; Sa 15:00", "note": "ON 12/24 AND 12/31, THIS BOX MAY BE COLLECTED AS EARLY AS 12 NOON.", "nsi_id": "unitedstatespostalservice-a77078", "operator": "United States Postal Service", "operator:short": "USPS", "operator:type": "public", "operator:wikidata": "Q668687", "ref": "9920600044"}, "type": "Feature"}
{"geometry": {"coordinates": [-117.247986, 47.658105], "type": "Point"}, "id": "PX1XkPvOr47FuRTDZOzSfPOT6bw=", "properties": {"@source_uri": "https://tools.usps.com/UspsToolsRestServices/rest/POLocator/findLocations", "@spider": "usps_collection_boxes", "addr:city": "SPOKANE VALLEY", "addr:country": "US", "addr:postcode": "99206", "addr:state": "WA", "addr:street_address": "11707 E SPRAGUE AVE", "amenity": "post_box", "collection_times": "Mo-Fr 17:00; Sa 13:00", "note": "ON 12/24 AND 12/31, THIS BOX MAY BE COLLECTED AS EARLY AS 12 NOON.", "nsi_id": "unitedstatespostalservice-a77078", "operator": "United States Postal Service", "operator:short": "USPS", "operator:type": "public", "operator:wikidata": "Q668687", "ref": "9920600045"}, "type": "Feature"}
{"geometry": {"coordinates": [-117.246761, 47.657102], "type": "Point"}, "id": "bzSTQErqSY_bCiwFkJ_H6l_WYxg=", "properties": {"@source_uri": "https://tools.usps.com/UspsToolsRestServices/rest/POLocator/findLocations", "@spider": "usps_collection_boxes", "addr:city": "SPOKANE VALLEY", "addr:country": "US", "addr:postcode": "99206", "addr:state": "WA", "addr:street_address": "11712 E SPRAGUE AVE", "amenity": "post_box", "collection_times": "Mo-Fr 17:00; Sa 15:30", "name": "USPS COLLECTION BOX - APC", "note": "ON 12/24 AND 12/31, THIS BOX MAY BE COLLECTED AS EARLY AS 12 NOON.", "nsi_id": "unitedstatespostalservice-a77078", "operator": "United States Postal Service", "operator:short": "USPS", "operator:type": "public", "operator:wikidata": "Q668687", "ref": "9920600046"}, "type": "Feature"}
{"geometry": {"coordinates": [-117.2683442089, 47.6569941874], "type": "Point"}, "id": "BT2cJtnYIiDwMxcIIXDG43qs8q4=", "properties": {"@source_uri": "https://tools.usps.com/UspsToolsRestServices/rest/POLocator/findLocations", "@spider": "usps_collection_boxes", "addr:city": "SPOKANE VALLEY", "addr:country": "US", "addr:postcode": "99206", "addr:state": "WA", "addr:street_address": "10210 E SPRAGUE AVE", "amenity": "post_box", "collection_times": "Mo-Fr 17:00", "note": "ON 12/24 AND 12/31, THIS BOX MAY BE COLLECTED AS EARLY AS 12 NOON.", "nsi_id": "unitedstatespostalservice-a77078", "operator": "United States Postal Service", "operator:short": "USPS", "operator:type": "public", "operator:wikidata": "Q668687", "ref": "9920600047"}, "type": "Feature"}
{"geometry": {"coordinates": [-117.2472525, 47.657095495], "type": "Point"}, "id": "t87S0VAcgVmzDGjPCbel3qRh7kI=", "properties": {"@source_uri": "https://tools.usps.com/UspsToolsRestServices/rest/POLocator/findLocations", "@spider": "usps_collection_boxes", "addr:city": "SPOKANE VALLEY", "addr:country": "US", "addr:postcode": "99206", "addr:state": "WA", "addr:street_address": "11712 E SPRAGUE AVE", "amenity": "post_box", "collection_times": "Mo-Fr 17:00; Sa 15:00", "indoor": "yes", "note": "ON 12/24 AND 12/31, THIS BOX MAY BE COLLECTED AS EARLY AS 12 NOON.", "nsi_id": "unitedstatespostalservice-a77078", "operator": "United States Postal Service", "operator:short": "USPS", "operator:type": "public", "operator:wikidata": "Q668687", "ref": "9920600048"}, "type": "Feature"}
{"geometry": {"coordinates": [-117.366819, 47.694164], "type": "Point"}, "id": "tNqBxcAjGvh-0qmMg2zYWqx_CxU=", "properties": {"@source_uri": "https://tools.usps.com/UspsToolsRestServices/rest/POLocator/findLocations", "@spider": "usps_collection_boxes", "addr:city": "SPOKANE", "addr:country": "US", "addr:postcode": "99207", "addr:state": "WA", "addr:street_address": "3919 N MARKET ST", "amenity": "post_box", "collection_times": "Mo-Fr 10:00", "nsi_id": "unitedstatespostalservice-a77078", "operator": "United States Postal Service", "operator:short": "USPS", "operator:type": "public", "operator:wikidata": "Q668687", "ref": "9920700025"}, "type": "Feature"}
{"geometry": {"coordinates": [-117.405750693, 47.682580491], "type": "Point"}, "id": "vGMKYWyOUt_PqaMqKJQbDKf5zzY=", "properties": {"@source_uri": "https://tools.usps.com/UspsToolsRestServices/rest/POLocator/findLocations", "@spider": "usps_collection_boxes", "addr:city": "SPOKANE", "addr:country": "US", "addr:postcode": "99207", "addr:state": "WA", "addr:street_address": "210 E NORTH FOOTHILLS DR", "amenity": "post_box", "collection_times": "Mo-Fr 16:30; Sa 16:00", "indoor": "yes", "note": "ON 12/24 AND 12/31, THIS BOX MAY BE COLLECTED AS EARLY AS 12 NOON.", "nsi_id": "unitedstatespostalservice-a77078", "operator": "United States Postal Service", "operator:short": "USPS", "operator:type": "public", "operator:wikidata": "Q668687", "ref": "9920700029"}, "type": "Feature"}
{"geometry": {"coordinates": [-117.406015, 47.681725], "type": "Point"}, "id": "gKCkBai0kch5y88eFhvLQrNajwU=", "properties": {"@source_uri": "https://tools.usps.com/UspsToolsRestServices/rest/POLocator/findLocations", "@spider": "usps_collection_boxes", "addr:city": "SPOKANE", "addr:country": "US", "addr:postcode": "99207", "addr:state": "WA", "addr:street_address": "210 E NORTH FOOTHILLS DR", "amenity": "post_box", "collection_times": "Mo-Sa 08:45", "nsi_id": "unitedstatespostalservice-a77078", "operator": "United States Postal Service", "operator:short": "USPS", "operator:type": "public", "operator:wikidata": "Q668687", "ref": "9920700030"}, "type": "Feature"}
{"geometry": {"coordinates": [-117.3785257793, 47.6938232536], "type": "Point"}, "id": "mPP-WTczasMdRSVTK2hGhKPV9lI=", "properties": {"@source_uri": "https://tools.usps.com/UspsToolsRestServices/rest/POLocator/findLocations", "@spider": "usps_collection_boxes", "addr:city": "SPOKANE", "addr:country": "US", "addr:postcode": "99207", "addr:state": "WA", "addr:street_address": "3910 N CRESTLINE ST", "amenity": "post_box", "collection_times": "Mo-Fr 17:00; Sa 14:45", "note": "ON 12/24 AND 12/31, THIS BOX MAY BE COLLECTED AS EARLY AS 12 NOON.", "nsi_id": "unitedstatespostalservice-a77078", "operator": "United States Postal Service", "operator:short": "USPS", "operator:type": "public", "operator:wikidata": "Q668687", "ref": "9920700040"}, "type": "Feature"}
{"geometry": {"coordinates": [-117.378948, 47.693196], "type": "Point"}, "id": "11BNbUWrs4U18OKrD8eeKI-PZO4=", "properties": {"@source_uri": "https://tools.usps.com/UspsToolsRestServices/rest/POLocator/findLocations", "@spider": "usps_collection_boxes", "addr:city": "SPOKANE", "addr:country": "US", "addr:postcode": "99207", "addr:state": "WA", "addr:street_address": "3910 N CRESTLINE ST", "amenity": "post_box", "collection_times": "Mo-Fr 17:00; Sa 14:45", "indoor": "yes", "note": "ON 12/24 AND 12/31, THIS BOX MAY BE COLLECTED AS EARLY AS 12 NOON.", "nsi_id": "unitedstatespostalservice-a77078", "operator": "United States Postal Service", "operator:short": "USPS", "operator:type": "public", "operator:wikidata": "Q668687", "ref": "9920700041"}, "type": "Feature"}
{"geometry": {"coordinates": [-117.408509, 47.704415], "type": "Point"}, "id": "XL1cgmudYWTlSSO2TOqJocGGzas=", "properties": {"@source_uri": "https://tools.usps.com/UspsToolsRestServices/rest/POLocator/findLocations", "@spider": "usps_collection_boxes", "addr:city": "SPOKANE", "addr:country": "US", "addr:postcode": "99207", "addr:state": "WA", "addr:street_address": "103 E QUEEN AVE", "amenity": "post_box", "collection_times": "Mo-Fr 16:00", "note": "ON 12/24 AND 12/31, THIS BOX MAY BE COLLECTED AS EARLY AS 12 NOON.", "nsi_id": "unitedstatespostalservice-a77078", "operator": "United States Postal Service", "operator:short": "USPS", "operator:type": "public", "operator:wikidata": "Q668687", "ref": "9920700042"}, "type": "Feature"}
{"geometry": {"coordinates": [-117.412075, 47.698127], "type": "Point"}, "id": "OR-GohMg8CLRet5F34JY-KtRKfs=", "properties": {"@source_uri": "https://tools.usps.com/UspsToolsRestServices/rest/POLocator/findLocations", "@spider": "usps_collection_boxes", "addr:city": "SPOKANE", "addr:country": "US", "addr:postcode": "99207", "addr:state": "WA", "addr:street_address": "4407 N DIVISION ST", "amenity": "post_box", "collection_times": "Mo-Fr 17:00; Sa 13:00", "note": "ON 12/24 AND 12/31, THIS BOX MAY BE COLLECTED AS EARLY AS 12 NOON.", "nsi_id": "unitedstatespostalservice-a77078", "operator": "United States Postal Service", "operator:short": "USPS", "operator:type": "public", "operator:wikidata": "Q668687", "ref": "9920700045"}, "type": "Feature"}
{"geometry": {"coordinates": [-117.408543, 47.675091], "type": "Point"}, "id": "bPuFOwTllfwW7Ku8jb5lbPKcQs0=", "properties": {"@source_uri": "https://tools.usps.com/UspsToolsRestServices/rest/POLocator/findLocations", "@spider": "usps_collection_boxes", "addr:city": "SPOKANE", "addr:country": "US", "addr:postcode": "99207", "addr:state": "WA", "addr:street_address": "115 E INDIANA AVE", "amenity": "post_box", "collection_times": "Mo-Fr 08:30", "nsi_id": "unitedstatespostalservice-a77078", "operator": "United States Postal Service", "operator:short": "USPS", "operator:type": "public", "operator:wikidata": "Q668687", "ref": "9920700059"}, "type": "Feature"}
{"geometry": {"coordinates": [-117.407295, 47.70828], "type": "Point"}, "id": "hZ30tloRSrklKg1groxrEWWU3XQ=", "properties": {"@source_uri": "https://tools.usps.com/UspsToolsRestServices/rest/POLocator/findLocations", "@spider": "usps_collection_boxes", "addr:city": "SPOKANE", "addr:country": "US", "addr:postcode": "99207", "addr:state": "WA", "addr:street_address": "235 E ROWAN AVE", "amenity": "post_box", "collection_times": "Mo-Fr 16:00; Sa 13:00", "note": "ON 12/24 AND 12/31, THIS BOX MAY BE COLLECTED AS EARLY AS 12 NOON.", "nsi_id": "unitedstatespostalservice-a77078", "operator": "United States Postal Service", "operator:short": "USPS", "operator:type": "public", "operator:wikidata": "Q668687", "ref": "9920700071"}, "type": "Feature"}
{"geometry": {"coordinates": [-117.3789026928, 47.6937629686], "type": "Point"}, "id": "m2D7Em0zqC8nSLGHM4VdTcDSWRw=", "properties": {"@source_uri": "https://tools.usps.com/UspsToolsRestServices/rest/POLocator/findLocations", "@spider": "usps_collection_boxes", "addr:city": "SPOKANE", "addr:country": "US", "addr:postcode": "99207", "addr:state": "WA", "addr:street_address": "3910 N CRESTLINE ST", "amenity": "post_box", "collection_times": "Mo-Fr 17:30; Sa 14:00", "indoor": "yes", "note": "ON 12/24 AND 12/31, THIS BOX MAY BE COLLECTED AS EARLY AS 12 NOON.", "nsi_id": "unitedstatespostalservice-a77078", "operator": "United States Postal Service", "operator:short": "USPS", "operator:type": "public", "operator:wikidata": "Q668687", "ref": "9920700075"}, "type": "Feature"}
{"geometry": {"coordinates": [-117.411759, 47.724856], "type": "Point"}, "id": "zAu60WHPoldluZb8Pkc9Sl9RGo4=", "properties": {"@source_uri": "https://tools.usps.com/UspsToolsRestServices/rest/POLocator/findLocations", "@spider": "usps_collection_boxes", "addr:city": "SPOKANE", "addr:country": "US", "addr:postcode": "99208", "addr:state": "WA", "addr:street_address": "7399 N DIVISION ST", "amenity": "post_box", "collection_times": "Mo-Fr 17:00; Sa 13:00", "note": "ON 12/24 AND 12/31, THIS BOX MAY BE COLLECTED AS EARLY AS 12 NOON.", "nsi_id": "unitedstatespostalservice-a77078", "operator": "United States Postal Service", "operator:short": "USPS", "operator:type": "public", "operator:wikidata": "Q668687", "ref": "9920800003"}, "type": "Feature"}
{"geometry": {"coordinates": [-117.461772, 47.717359], "type": "Point"}, "id": "jki7Cuf8xjGZutXoT7y0-UuwHrg=", "properties": {"@source_uri": "https://tools.usps.com/UspsToolsRestServices/rest/POLocator/findLocations", "@spider": "usps_collection_boxes", "addr:city": "SPOKANE", "addr:country": "US", "addr:postcode": "99208", "addr:state": "WA", "addr:street_address": "3321 W INDIAN TRAIL RD", "amenity": "post_box", "collection_times": "Mo-Fr 17:00; Sa 16:00", "note": "ON 12/24 AND 12/31, THIS BOX MAY BE COLLECTED AS EARLY AS 12 NOON.", "nsi_id": "unitedstatespostalservice-a77078", "operator": "United States Postal Service", "operator:short": "USPS", "operator:type": "public", "operator:wikidata": "Q668687", "ref": "9920800019"}, "type": "Feature"}
{"geometry": {"coordinates": [-117.409667, 47.708634], "type": "Point"}, "id": "HKCuis6brenAi5B3LX94i2-MHfE=", "properties": {"@source_uri": "https://tools.usps.com/UspsToolsRestServices/rest/POLocator/findLocations", "@spider": "usps_collection_boxes", "addr:city": "SPOKANE", "addr:country": "US", "addr:postcode": "99208", "addr:state": "WA", "addr:street_address": "5510 N DIVISION ST", "amenity": "post_box", "collection_times": "Mo-Fr 08:30", "nsi_id": "unitedstatespostalservice-a77078", "operator": "United States Postal Service", "operator:short": "USPS", "operator:type": "public", "operator:wikidata": "Q668687", "ref": "9920800034"}, "type": "Feature"}
{"geometry": {"coordinates": [-117.407056, 47.712051], "type": "Point"}, "id": "44ZW30Omf02K7EV3uZ9V66wDAWo=", "properties": {"@source_uri": "https://tools.usps.com/UspsToolsRestServices/rest/POLocator/findLocations", "@spider": "usps_collection_boxes", "addr:city": "SPOKANE", "addr:country": "US", "addr:postcode": "99208", "addr:state": "WA", "addr:street_address": "5901 N LIDGERWOOD ST", "amenity": "post_box", "collection_times": "Mo-Fr 10:00", "nsi_id": "unitedstatespostalservice-a77078", "operator": "United States Postal Service", "operator:short": "USPS", "operator:type": "public", "operator:wikidata": "Q668687", "ref": "9920800038"}, "type": "Feature"}
{"geometry": {"coordinates": [-117.394239, 47.717916], "type": "Point"}, "id": "p_rewl1851GWrCOCBGt9PY3pW04=", "properties": {"@source_uri": "https://tools.usps.com/UspsToolsRestServices/rest/POLocator/findLocations", "@spider": "usps_collection_boxes", "addr:city": "SPOKANE", "addr:country": "US", "addr:postcode": "99208", "addr:state": "WA", "addr:street_address": "6520 N NEVADA ST", "amenity": "post_box", "collection_times": "Mo-Fr 15:45", "note": "ON 12/24 AND 12/31, THIS BOX MAY BE COLLECTED AS EARLY AS 12 NOON.", "nsi_id": "unitedstatespostalservice-a77078", "operator": "United States Postal Service", "operator:short": "USPS", "operator:type": "public", "operator:wikidata": "Q668687", "ref": "9920800040"}, "type": "Feature"}
{"geometry": {"coordinates": [-117.425445, 47.715546], "type": "Point"}, "id": "-0DBm0EQHTltceW8J6vu8dQZEN4=", "properties": {"@source_uri": "https://tools.usps.com/UspsToolsRestServices/rest/POLocator/findLocations", "@spider": "usps_collection_boxes", "addr:city": "SPOKANE", "addr:country": "US", "addr:postcode": "99208", "addr:state": "WA", "addr:street_address": "6325 N MONROE ST", "amenity": "post_box", "collection_times": "Mo-Fr 17:00; Sa 14:00", "indoor": "yes", "note": "ON 12/24 AND 12/31, THIS BOX MAY BE COLLECTED AS EARLY AS 12 NOON.", "nsi_id": "unitedstatespostalservice-a77078", "operator": "United States Postal Service", "operator:short": "USPS", "operator:type": "public", "operator:wikidata": "Q668687", "ref": "9920800044"}, "type": "Feature"}
{"geometry": {"coordinates": [-117.410921, 47.727813], "type": "Point"}, "id": "UosFs4LHC5jrYyPNOu1go2dALZY=", "properties": {"@source_uri": "https://tools.usps.com/UspsToolsRestServices/rest/POLocator/findLocations", "@spider": "usps_collection_boxes", "addr:city": "SPOKANE", "addr:country": "US", "addr:postcode": "99208", "addr:state": "WA", "addr:street_address": "7704 N DIVISION ST", "amenity": "post_box", "collection_times": "Mo-Fr 10:00", "nsi_id": "unitedstatespostalservice-a77078", "operator": "United States Postal Service", "operator:short": "USPS", "operator:type": "public", "operator:wikidata": "Q668687", "ref": "9920800045"}, "type": "Feature"}
{"geometry": {"coordinates": [-117.425445, 47.715546], "type": "Point"}, "id": "IxSFGt6v3EGQCeu_LVYAhPqOp-s=", "properties": {"@source_uri": "https://tools.usps.com/UspsToolsRestServices/rest/POLocator/findLocations", "@spider": "usps_collection_boxes", "addr:city": "SPOKANE", "addr:country": "US", "addr:postcode": "99208", "addr:state": "WA", "addr:street_address": "6325 N MONROE ST", "amenity": "post_box", "collection_times": "Mo-Fr 17:00; Sa 14:00", "name": "USPS COLLECTION BOX - APC", "note": "ON 12/24 AND 12/31, THIS BOX MAY BE COLLECTED AS EARLY AS 12 NOON.", "nsi_id": "unitedstatespostalservice-a77078", "operator": "United States Postal Service", "operator:short": "USPS", "operator:type": "public", "operator:wikidata": "Q668687", "ref": "9920800046"}, "type": "Feature"}
{"geometry": {"coordinates": [-117.487676, 47.739201], "type": "Point"}, "id": "PPeI8-GAEKXnpN8myU_DR45gi_I=", "properties": {"@source_uri": "https://tools.usps.com/UspsToolsRestServices/rest/POLocator/findLocations", "@spider": "usps_collection_boxes", "addr:city": "SPOKANE", "addr:country": "US", "addr:postcode": "99208", "addr:state": "WA", "addr:street_address": "8921 N INDIAN TRAIL RD", "amenity": "post_box", "collection_times": "Mo-Fr 17:00; Sa 13:00", "note": "ON 12/24 AND 12/31, THIS BOX MAY BE COLLECTED AS EARLY AS 12 NOON.", "nsi_id": "unitedstatespostalservice-a77078", "operator": "United States Postal Service", "operator:short": "USPS", "operator:type": "public", "operator:wikidata": "Q668687", "ref": "9920800048"}, "type": "Feature"}
{"geometry": {"coordinates": [-117.461352519, 47.717560823], "type": "Point"}, "id": "ugWuYwKLVsE_bdFvWpZt3ggQVlA=", "properties": {"@source_uri": "https://tools.usps.com/UspsToolsRestServices/rest/POLocator/findLocations", "@spider": "usps_collection_boxes", "addr:city": "SPOKANE", "addr:country": "US", "addr:postcode": "99208", "addr:state": "WA", "addr:street_address": "3321 W INDIAN TRAIL RD", "amenity": "post_box", "collection_times": "Mo-Fr 15:15; Sa 16:00", "indoor": "yes", "note": "ON 12/24 AND 12/31, THIS BOX MAY BE COLLECTED AS EARLY AS 12 NOON.", "nsi_id": "unitedstatespostalservice-a77078", "operator": "United States Postal Service", "operator:short": "USPS", "operator:type": "public", "operator:wikidata": "Q668687", "ref": "9920800050"}, "type": "Feature"}
{"geometry": {"coordinates": [-117.425466901, 47.715525229], "type": "Point"}, "id": "CJPujC-cDB-lA0ze1mGZUlvW2WU=", "properties": {"@source_uri": "https://tools.usps.com/UspsToolsRestServices/rest/POLocator/findLocations", "@spider": "usps_collection_boxes", "addr:city": "SPOKANE", "addr:country": "US", "addr:postcode": "99208", "addr:state": "WA", "addr:street_address": "6325 N MONROE ST", "amenity": "post_box", "collection_times": "Mo-Fr 17:00; Sa 14:00", "indoor": "yes", "note": "ON 12/24 AND 12/31, THIS BOX MAY BE COLLECTED AS EARLY AS 12 NOON.", "nsi_id": "unitedstatespostalservice-a77078", "operator": "United States Postal Service", "operator:short": "USPS", "operator:type": "public", "operator:wikidata": "Q668687", "ref": "9920800051"}, "type": "Feature"}
{"geometry": {"coordinates": [-117.408025, 47.71862], "type": "Point"}, "id": "WWRhXTi7sxe5EpTD-x5hjG21-zk=", "properties": {"@source_uri": "https://tools.usps.com/UspsToolsRestServices/rest/POLocator/findLocations", "@spider": "usps_collection_boxes", "addr:city": "SPOKANE", "addr:country": "US", "addr:postcode": "99208", "addr:state": "WA", "addr:street_address": "6325 N MONROE ST", "amenity": "post_box", "collection_times": "Mo-Fr 12:00", "nsi_id": "unitedstatespostalservice-a77078", "operator": "United States Postal Service", "operator:short": "USPS", "operator:type": "public", "operator:wikidata": "Q668687", "ref": "9920800052"}, "type": "Feature"}
{"geometry": {"coordinates": [-117.28213, 47.68191], "type": "Point"}, "id": "crdgrwI6Qdot5GnoLeT7vDKeH-w=", "properties": {"@source_uri": "https://tools.usps.com/UspsToolsRestServices/rest/POLocator/findLocations", "@spider": "usps_collection_boxes", "addr:city": "SPOKANE VALLEY", "addr:country": "US", "addr:postcode": "99212", "addr:state": "WA", "addr:street_address": "2716 N ARGONNE RD", "amenity": "post_box", "collection_times": "Mo-Fr 17:00; Sa 13:00", "note": "ON 12/24 AND 12/31, THIS BOX MAY BE COLLECTED AS EARLY AS 12 NOON.", "nsi_id": "unitedstatespostalservice-a77078", "operator": "United States Postal Service", "operator:short": "USPS", "operator:type": "public", "operator:wikidata": "Q668687", "ref": "9921200001"}, "type": "Feature"}
{"geometry": {"coordinates": [-117.32366, 47.65135], "type": "Point"}, "id": "bJ-yTXxPgjJZcmmuPdFkxQSdtEo=", "properties": {"@source_uri": "https://tools.usps.com/UspsToolsRestServices/rest/POLocator/findLocations", "@spider": "usps_collection_boxes", "addr:city": "SPOKANE VALLEY", "addr:country": "US", "addr:postcode": "99212", "addr:state": "WA", "addr:street_address": "6011 E 6TH AVE", "amenity": "post_box", "collection_times": "Mo-Fr 12:00", "nsi_id": "unitedstatespostalservice-a77078", "operator": "United States Postal Service", "operator:short": "USPS", "operator:type": "public", "operator:wikidata": "Q668687", "ref": "9921200006"}, "type": "Feature"}
{"geometry": {"coordinates": [-117.319881, 47.68046], "type": "Point"}, "id": "ScRMlKLlJByuMCBnuGY88uru18M=", "properties": {"@source_uri": "https://tools.usps.com/UspsToolsRestServices/rest/POLocator/findLocations", "@spider": "usps_collection_boxes", "addr:city": "SPOKANE VALLEY", "addr:country": "US", "addr:postcode": "99212", "addr:state": "WA", "addr:street_address": "6105 E RUTTER AVE", "amenity": "post_box", "collection_times": "Mo-Fr 08:00", "nsi_id": "unitedstatespostalservice-a77078", "operator": "United States Postal Service", "operator:short": "USPS", "operator:type": "public", "operator:wikidata": "Q668687", "ref": "9921200010"}, "type": "Feature"}
{"geometry": {"coordinates": [-117.294462, 47.658304], "type": "Point"}, "id": "SbsJj_hHxX1ZlEunLSOYyBB4gZc=", "properties": {"@source_uri": "https://tools.usps.com/UspsToolsRestServices/rest/POLocator/findLocations", "@spider": "usps_collection_boxes", "addr:city": "SPOKANE VALLEY", "addr:country": "US", "addr:postcode": "99212", "addr:state": "WA", "addr:street_address": "111 N VISTA RD", "amenity": "post_box", "collection_times": "Mo-Fr 12:30", "indoor": "yes", "note": "ON 12/24 AND 12/31, THIS BOX MAY BE COLLECTED AS EARLY AS 12 NOON.", "nsi_id": "unitedstatespostalservice-a77078", "operator": "United States Postal Service", "operator:short": "USPS", "operator:type": "public", "operator:wikidata": "Q668687", "ref": "9921200019"}, "type": "Feature"}
{"geometry": {"coordinates": [-117.3221829614, 47.6760430158], "type": "Point"}, "id": "aJ7jvAcFtBwEDOSr3-QgBGZ-rzk=", "properties": {"@source_uri": "https://tools.usps.com/UspsToolsRestServices/rest/POLocator/findLocations", "@spider": "usps_collection_boxes", "addr:city": "SPOKANE VALLEY", "addr:country": "US", "addr:postcode": "99212", "addr:state": "WA", "addr:street_address": "2020 N DICKEY RD", "amenity": "post_box", "collection_times": "Mo-Fr 17:00; Sa 14:30", "note": "ON 12/24 AND 12/31, THIS BOX MAY BE COLLECTED AS EARLY AS 12 NOON.", "nsi_id": "unitedstatespostalservice-a77078", "operator": "United States Postal Service", "operator:short": "USPS", "operator:type": "public", "operator:wikidata": "Q668687", "ref": "9921200025"}, "type": "Feature"}
{"geometry": {"coordinates": [-117.2929039678, 47.7055730055], "type": "Point"}, "id": "QEOz04Twew_ZcjyM22k_2uuEAJ8=", "properties": {"@source_uri": "https://tools.usps.com/UspsToolsRestServices/rest/POLocator/findLocations", "@spider": "usps_collection_boxes", "addr:city": "SPOKANE VALLEY", "addr:country": "US", "addr:postcode": "99212", "addr:state": "WA", "addr:street_address": "5324 N VISTA CT", "amenity": "post_box", "collection_times": "Mo-Fr 12:00", "nsi_id": "unitedstatespostalservice-a77078", "operator": "United States Postal Service", "operator:short": "USPS", "operator:type": "public", "operator:wikidata": "Q668687", "ref": "9921200027"}, "type": "Feature"}
{"geometry": {"coordinates": [-117.2951059776, 47.6579230175], "type": "Point"}, "id": "XGPJjL-Xpn7Ryqbuj3ZVqfOBK2I=", "properties": {"@source_uri": "https://tools.usps.com/UspsToolsRestServices/rest/POLocator/findLocations", "@spider": "usps_collection_boxes", "addr:city": "SPOKANE VALLEY", "addr:country": "US", "addr:postcode": "99212", "addr:state": "WA", "addr:street_address": "111 N VISTA RD", "amenity": "post_box", "collection_times": "Mo-Fr 17:00; Sa 14:00", "note": "ON 12/24 AND 12/31, THIS BOX MAY BE COLLECTED AS EARLY AS 12 NOON.", "nsi_id": "unitedstatespostalservice-a77078", "operator": "United States Postal Service", "operator:short": "USPS", "operator:type": "public", "operator:wikidata": "Q668687", "ref": "9921200028"}, "type": "Feature"}
{"geometry": {"coordinates": [-117.329652, 47.66241], "type": "Point"}, "id": "oMu9vzAkxyTniykiMhHEHkOuiM4=", "properties": {"@source_uri": "https://tools.usps.com/UspsToolsRestServices/rest/POLocator/findLocations", "@spider": "usps_collection_boxes", "addr:city": "SPOKANE VALLEY", "addr:country": "US", "addr:postcode": "99212", "addr:state": "WA", "addr:street_address": "5511 E ALKI AVE", "amenity": "post_box", "collection_times": "Mo-Fr 17:00; Sa 15:00", "note": "ON 12/24 AND 12/31, THIS BOX MAY BE COLLECTED AS EARLY AS 12 NOON.", "nsi_id": "unitedstatespostalservice-a77078", "operator": "United States Postal Service", "operator:short": "USPS", "operator:type": "public", "operator:wikidata": "Q668687", "ref": "9921200032"}, "type": "Feature"}
{"geometry": {"coordinates": [-117.322231, 47.676058], "type": "Point"}, "id": "LTkWDIbnCKDTeQwL11DneH8f4nc=", "properties": {"@source_uri": "https://tools.usps.com/UspsToolsRestServices/rest/POLocator/findLocations", "@spider": "usps_collection_boxes", "addr:city": "SPOKANE VALLEY", "addr:country": "US", "addr:postcode": "99212", "addr:state": "WA", "addr:street_address": "2020 N DICKEY RD", "amenity": "post_box", "collection_times": "Mo-Fr 13:30", "indoor": "yes", "note": "ON 12/24 AND 12/31, THIS BOX MAY BE COLLECTED AS EARLY AS 12 NOON.", "nsi_id": "unitedstatespostalservice-a77078", "operator": "United States Postal Service", "operator:short": "USPS", "operator:type": "public", "operator:wikidata": "Q668687", "ref": "9921200038"}, "type": "Feature"}
{"geometry": {"coordinates": [-117.2828517717, 47.6705698324], "type": "Point"}, "id": "pQstBaODAXsrDG8BpxLoXtNHE3w=", "properties": {"@source_uri": "https://tools.usps.com/UspsToolsRestServices/rest/POLocator/findLocations", "@spider": "usps_collection_boxes", "addr:city": "SPOKANE VALLEY", "addr:country": "US", "addr:postcode": "99212", "addr:state": "WA", "addr:street_address": "1441 N ARGONNE RD", "amenity": "post_box", "collection_times": "Mo-Fr 17:00; Sa 13:00", "note": "ON 12/24 AND 12/31, THIS BOX MAY BE COLLECTED AS EARLY AS 12 NOON.", "nsi_id": "unitedstatespostalservice-a77078", "operator": "United States Postal Service", "operator:short": "USPS", "operator:type": "public", "operator:wikidata": "Q668687", "ref": "9921200039"}, "type": "Feature"}
{"geometry": {"coordinates": [-117.293990862, 47.658603019], "type": "Point"}, "id": "_huy2faijySCnX-5cCbXtqzpPAc=", "properties": {"@source_uri": "https://tools.usps.com/UspsToolsRestServices/rest/POLocator/findLocations", "@spider": "usps_collection_boxes", "addr:city": "SPOKANE VALLEY", "addr:country": "US", "addr:postcode": "99212", "addr:state": "WA", "addr:street_address": "111 N VISTA RD STE A", "amenity": "post_box", "collection_times": "Mo-Fr 17:00", "indoor": "yes", "note": "ON 12/24 AND 12/31, THIS BOX MAY BE COLLECTED AS EARLY AS 12 NOON.", "nsi_id": "unitedstatespostalservice-a77078", "operator": "United States Postal Service", "operator:short": "USPS", "operator:type": "public", "operator:wikidata": "Q668687", "ref": "9921200046"}, "type": "Feature"}
{"geometry": {"coordinates": [-117.322535346, 47.675605569], "type": "Point"}, "id": "KhpTMFRMLZoEBUJkhsMKsnFMTTM=", "properties": {"@source_uri": "https://tools.usps.com/UspsToolsRestServices/rest/POLocator/findLocations", "@spider": "usps_collection_boxes", "addr:city": "SPOKANE VALLEY", "addr:country": "US", "addr:postcode": "99212", "addr:state": "WA", "addr:street_address": "2020 N DICKEY RD", "amenity": "post_box", "collection_times": "Mo-Fr 17:00", "indoor": "yes", "note": "ON 12/24 AND 12/31, THIS BOX MAY BE COLLECTED AS EARLY AS 12 NOON.", "nsi_id": "unitedstatespostalservice-a77078", "operator": "United States Postal Service", "operator:short": "USPS", "operator:type": "public", "operator:wikidata": "Q668687", "ref": "9921200047"}, "type": "Feature"}
{"geometry": {"coordinates": [-117.224408, 47.627977], "type": "Point"}, "id": "ZVqvw7QS5Jh-8Jf0NDwCqAzpC4g=", "properties": {"@source_uri": "https://tools.usps.com/UspsToolsRestServices/rest/POLocator/findLocations", "@spider": "usps_collection_boxes", "addr:city": "SPOKANE VALLEY", "addr:country": "US", "addr:postcode": "99216", "addr:state": "WA", "addr:street_address": "13423 E 32ND AVE", "amenity": "post_box", "collection_times": "Mo-Fr 08:30", "nsi_id": "unitedstatespostalservice-a77078", "operator": "United States Postal Service", "operator:short": "USPS", "operator:type": "public", "operator:wikidata": "Q668687", "ref": "9921600001"}, "type": "Feature"}
{"geometry": {"coordinates": [-117.2352735, 47.671640467], "type": "Point"}, "id": "cwWtGOBEZJoeeCnugsLEbPei5WU=", "properties": {"@source_uri": "https://tools.usps.com/UspsToolsRestServices/rest/POLocator/findLocations", "@spider": "usps_collection_boxes", "addr:city": "SPOKANE VALLEY", "addr:country": "US", "addr:postcode": "99216", "addr:state": "WA", "addr:street_address": "12606 E MISSION AVE", "amenity": "post_box", "collection_times": "Mo-Fr 08:00", "nsi_id": "unitedstatespostalservice-a77078", "operator": "United States Postal Service", "operator:short": "USPS", "operator:type": "public", "operator:wikidata": "Q668687", "ref": "9921600004"}, "type": "Feature"}
{"geometry": {"coordinates": [-117.235073, 47.672279], "type": "Point"}, "id": "KaSTA4_lvUGxzc494EbZJUu_MV4=", "properties": {"@source_uri": "https://tools.usps.com/UspsToolsRestServices/rest/POLocator/findLocations", "@spider": "usps_collection_boxes", "addr:city": "SPOKANE VALLEY", "addr:country": "US", "addr:postcode": "99216", "addr:state": "WA", "addr:street_address": "12615 E MISSION AVE", "amenity": "post_box", "collection_times": "Mo-Fr 08:00", "nsi_id": "unitedstatespostalservice-a77078", "operator": "United States Postal Service", "operator:short": "USPS", "operator:type": "public", "operator:wikidata": "Q668687", "ref": "9921600005"}, "type": "Feature"}
{"geometry": {"coordinates": [-117.2301240159, 47.6557510149], "type": "Point"}, "id": "88HfLo3xTRJ2AnfbX1xbeLIC5zw=", "properties": {"@source_uri": "https://tools.usps.com/UspsToolsRestServices/rest/POLocator/findLocations", "@spider": "usps_collection_boxes", "addr:city": "SPOKANE VALLEY", "addr:country": "US", "addr:postcode": "99216", "addr:state": "WA", "addr:street_address": "13014 E SPRAGUE AVE", "amenity": "post_box", "collection_times": "Mo-Fr 16:00; Sa 13:00", "note": "ON 12/24 AND 12/31, THIS BOX MAY BE COLLECTED AS EARLY AS 12 NOON.", "nsi_id": "unitedstatespostalservice-a77078", "operator": "United States Postal Service", "operator:short": "USPS", "operator:type": "public", "operator:wikidata": "Q668687", "ref": "9921600008"}, "type": "Feature"}
{"geometry": {"coordinates": [-117.2112669969, 47.6951420203], "type": "Point"}, "id": "1UafOVVRHLSq8bSc7RnatRQgoCc=", "properties": {"@source_uri": "https://tools.usps.com/UspsToolsRestServices/rest/POLocator/findLocations", "@spider": "usps_collection_boxes", "addr:city": "SPOKANE VALLEY", "addr:country": "US", "addr:postcode": "99216", "addr:state": "WA", "addr:street_address": "14409 E TRENT AVE", "amenity": "post_box", "collection_times": "Mo-Fr 17:00; Sa 15:00", "note": "ON 12/24 AND 12/31, THIS BOX MAY BE COLLECTED AS EARLY AS 12 NOON.", "nsi_id": "unitedstatespostalservice-a77078", "operator": "United States Postal Service", "operator:short": "USPS", "operator:type": "public", "operator:wikidata": "Q668687", "ref": "9921600016"}, "type": "Feature"}
{"geometry": {"coordinates": [-117.23696, 47.669989], "type": "Point"}, "id": "gujkNWXAyI7XPlbo3QnpmrIgC4E=", "properties": {"@source_uri": "https://tools.usps.com/UspsToolsRestServices/rest/POLocator/findLocations", "@spider": "usps_collection_boxes", "addr:city": "SPOKANE VALLEY", "addr:country": "US", "addr:postcode": "99216", "addr:state": "WA", "addr:street_address": "1414 N HOUK RD", "amenity": "post_box", "collection_times": "Mo-Fr 09:00", "nsi_id": "unitedstatespostalservice-a77078", "operator": "United States Postal Service", "operator:short": "USPS", "operator:type": "public", "operator:wikidata": "Q668687", "ref": "9921600018"}, "type": "Feature"}
{"geometry": {"coordinates": [-117.1968001723, 47.6896046961], "type": "Point"}, "id": "w1hO2xfszU7neKl712_w3obEv7U=", "properties": {"@source_uri": "https://tools.usps.com/UspsToolsRestServices/rest/POLocator/findLocations", "@spider": "usps_collection_boxes", "addr:city": "SPOKANE VALLEY", "addr:country": "US", "addr:postcode": "99216", "addr:state": "WA", "addr:street_address": "3808 N SULLIVAN RD", "amenity": "post_box", "collection_times": "Mo-Fr 17:00; Sa 14:45", "note": "ON 12/24 AND 12/31, THIS BOX MAY BE COLLECTED AS EARLY AS 12 NOON.", "nsi_id": "unitedstatespostalservice-a77078", "operator": "United States Postal Service", "operator:short": "USPS", "operator:type": "public", "operator:wikidata": "Q668687", "ref": "9921600020"}, "type": "Feature"}
{"geometry": {"coordinates": [-117.233739, 47.686285], "type": "Point"}, "id": "ugBmGu-UiOtjE5F4ub1RCTcG-_E=", "properties": {"@source_uri": "https://tools.usps.com/UspsToolsRestServices/rest/POLocator/findLocations", "@spider": "usps_collection_boxes", "addr:city": "SPOKANE VALLEY", "addr:country": "US", "addr:postcode": "99216", "addr:state": "WA", "addr:street_address": "12809 E MIRABEAU PKWY", "amenity": "post_box", "collection_times": "Mo-Fr 17:00; Sa 13:00", "note": "ON 12/24 AND 12/31, THIS BOX MAY BE COLLECTED AS EARLY AS 12 NOON.", "nsi_id": "unitedstatespostalservice-a77078", "operator": "United States Postal Service", "operator:short": "USPS", "operator:type": "public", "operator:wikidata": "Q668687", "ref": "9921600022"}, "type": "Feature"}
{"geometry": {"coordinates": [-117.222425, 47.626356], "type": "Point"}, "id": "eKEJmcfRrKllRN38TN1hpwdmSUw=", "properties": {"@source_uri": "https://tools.usps.com/UspsToolsRestServices/rest/POLocator/findLocations", "@spider": "usps_collection_boxes", "addr:city": "SPOKANE VALLEY", "addr:country": "US", "addr:postcode": "99216", "addr:state": "WA", "addr:street_address": "13606 E 32ND AVE", "amenity": "post_box", "collection_times": "Mo-Fr 12:30", "note": "ON 12/24 AND 12/31, THIS BOX MAY BE COLLECTED AS EARLY AS 12 NOON.", "nsi_id": "unitedstatespostalservice-a77078", "operator": "United States Postal Service", "operator:short": "USPS", "operator:type": "public", "operator:wikidata": "Q668687", "ref": "9921600023"}, "type": "Feature"}
{"geometry": {"coordinates": [-117.230074051, 47.657095541], "type": "Point"}, "id": "l6GtKcDsCbYTiLmXxCFr7PgHP7k=", "properties": {"@source_uri": "https://tools.usps.com/UspsToolsRestServices/rest/POLocator/findLocations", "@spider": "usps_collection_boxes", "addr:city": "SPOKANE VALLEY", "addr:country": "US", "addr:postcode": "99216", "addr:state": "WA", "addr:street_address": "13014 E SPRAGUE AVE", "amenity": "post_box", "collection_times": "Mo-Fr 16:00; Sa 13:00", "indoor": "yes", "note": "ON 12/24 AND 12/31, THIS BOX MAY BE COLLECTED AS EARLY AS 12 NOON.", "nsi_id": "unitedstatespostalservice-a77078", "operator": "United States Postal Service", "operator:short": "USPS", "operator:type": "public", "operator:wikidata": "Q668687", "ref": "9921600032"}, "type": "Feature"}
{"geometry": {"coordinates": [-117.210760157, 47.69496901], "type": "Point"}, "id": "DlDRxDyf7b9QUTl48gAWii-4EEw=", "properties": {"@source_uri": "https://tools.usps.com/UspsToolsRestServices/rest/POLocator/findLocations", "@spider": "usps_collection_boxes", "addr:city": "SPOKANE VALLEY", "addr:country": "US", "addr:postcode": "99216", "addr:state": "WA", "addr:street_address": "14409 E TRENT AVE", "amenity": "post_box", "collection_times": "Mo-Fr 17:00", "indoor": "yes", "note": "ON 12/24 AND 12/31, THIS BOX MAY BE COLLECTED AS EARLY AS 12 NOON.", "nsi_id": "unitedstatespostalservice-a77078", "operator": "United States Postal Service", "operator:short": "USPS", "operator:type": "public", "operator:wikidata": "Q668687", "ref": "9921600033"}, "type": "Feature"}
{"geometry": {"coordinates": [-117.362175, 47.675075], "type": "Point"}, "id": "ils4KkG4j-ShXdJnYnIb8X1iRzo=", "properties": {"@source_uri": "https://tools.usps.com/UspsToolsRestServices/rest/POLocator/findLocations", "@spider": "usps_collection_boxes", "addr:city": "SPOKANE", "addr:country": "US", "addr:postcode": "99217", "addr:state": "WA", "addr:street_address": "2000 N GREENE ST", "amenity": "post_box", "collection_times": "Mo-Fr 08:30", "nsi_id": "unitedstatespostalservice-a77078", "operator": "United States Postal Service", "operator:short": "USPS", "operator:type": "public", "operator:wikidata": "Q668687", "ref": "9921700002"}, "type": "Feature"}
{"geometry": {"coordinates": [-117.3581685, 47.697417], "type": "Point"}, "id": "hIy7qt6UzHk7uFlVpehKWk3pv94=", "properties": {"@source_uri": "https://tools.usps.com/UspsToolsRestServices/rest/POLocator/findLocations", "@spider": "usps_collection_boxes", "addr:city": "SPOKANE", "addr:country": "US", "addr:postcode": "99217", "addr:state": "WA", "addr:street_address": "4401 N FREYA ST", "amenity": "post_box", "collection_times": "Mo-Fr 17:00; Sa 13:30", "note": "ON 12/24 AND 12/31, THIS BOX MAY BE COLLECTED AS EARLY AS 12 NOON.", "nsi_id": "unitedstatespostalservice-a77078", "operator": "United States Postal Service", "operator:short": "USPS", "operator:type": "public", "operator:wikidata": "Q668687", "ref": "9921700004"}, "type": "Feature"}
{"geometry": {"coordinates": [-117.357418, 47.697119], "type": "Point"}, "id": "0GsGX0MoXa15R7rwmpldDplLPXg=", "properties": {"@source_uri": "https://tools.usps.com/UspsToolsRestServices/rest/POLocator/findLocations", "@spider": "usps_collection_boxes", "addr:city": "SPOKANE", "addr:country": "US", "addr:postcode": "99217", "addr:state": "WA", "addr:street_address": "4401 N FREYA ST", "amenity": "post_box", "collection_times": "Mo-Sa 16:00", "indoor": "yes", "note": "ON 12/24 AND 12/31, THIS BOX MAY BE COLLECTED AS EARLY AS 12 NOON.", "nsi_id": "unitedstatespostalservice-a77078", "operator": "United States Postal Service", "operator:short": "USPS", "operator:type": "public", "operator:wikidata": "Q668687", "ref": "9921700007"}, "type": "Feature"}
{"geometry": {"coordinates": [-117.35746134, 47.697426587], "type": "Point"}, "id": "uQCJfBeuLxVtEpY3nhA9OXUw3O0=", "properties": {"@source_uri": "https://tools.usps.com/UspsToolsRestServices/rest/POLocator/findLocations", "@spider": "usps_collection_boxes", "addr:city": "SPOKANE", "addr:country": "US", "addr:postcode": "99217", "addr:state": "WA", "addr:street_address": "4401 N FREYA ST", "amenity": "post_box", "collection_times": "Mo-Fr 16:00", "indoor": "yes", "note": "ON 12/24 AND 12/31, THIS BOX MAY BE COLLECTED AS EARLY AS 12 NOON.", "nsi_id": "unitedstatespostalservice-a77078", "operator": "United States Postal Service", "operator:short": "USPS", "operator:type": "public", "operator:wikidata": "Q668687", "ref": "9921700009"}, "type": "Feature"}
{"geometry": {"coordinates": [-117.411645, 47.74866], "type": "Point"}, "id": "rQnkHPR7eLPMflOhzftTQYqoyt4=", "properties": {"@source_uri": "https://tools.usps.com/UspsToolsRestServices/rest/POLocator/findLocations", "@spider": "usps_collection_boxes", "addr:city": "SPOKANE", "addr:country": "US", "addr:postcode": "99218", "addr:state": "WA", "addr:street_address": "10103 N DIVISION ST", "amenity": "post_box", "collection_times": "Mo-Fr 10:00", "nsi_id": "unitedstatespostalservice-a77078", "operator": "United States Postal Service", "operator:short": "USPS", "operator:type": "public", "operator:wikidata": "Q668687", "ref": "9921800001"}, "type": "Feature"}
{"geometry": {"coordinates": [-117.4220868918, 47.7679976898], "type": "Point"}, "id": "5tphn36IMsFidCiVebBW9s2mO3E=", "properties": {"@source_uri": "https://tools.usps.com/UspsToolsRestServices/rest/POLocator/findLocations", "@spider": "usps_collection_boxes", "addr:city": "SPOKANE", "addr:country": "US", "addr:postcode": "99218", "addr:state": "WA", "addr:street_address": "601 W HASTINGS RD", "amenity": "post_box", "collection_times": "Mo-Fr 17:00; Sa 13:00", "note": "ON 12/24 AND 12/31, THIS BOX MAY BE COLLECTED AS EARLY AS 12 NOON.", "nsi_id": "unitedstatespostalservice-a77078", "operator": "United States Postal Service", "operator:short": "USPS", "operator:type": "public", "operator:wikidata": "Q668687", "ref": "9921800002"}, "type": "Feature"}
{"geometry": {"coordinates": [-117.401458, 47.769795], "type": "Point"}, "id": "MpgPBMlhQj34WZiqYhiLgedIjp0=", "properties": {"@source_uri": "https://tools.usps.com/UspsToolsRestServices/rest/POLocator/findLocations", "@spider": "usps_collection_boxes", "addr:city": "SPOKANE", "addr:country": "US", "addr:postcode": "99218", "addr:state": "WA", "addr:street_address": "12312 N DIVISION ST", "amenity": "post_box", "collection_times": "Mo-Fr 17:00; Sa 13:00", "note": "ON 12/24 AND 12/31, THIS BOX MAY BE COLLECTED AS EARLY AS 12 NOON.", "nsi_id": "unitedstatespostalservice-a77078", "operator": "United States Postal Service", "operator:short": "USPS", "operator:type": "public", "operator:wikidata": "Q668687", "ref": "9921800004"}, "type": "Feature"}
{"geometry": {"coordinates": [-117.4118015733, 47.7512065244], "type": "Point"}, "id": "BmoXKP6uVYnvrPc04VVhxc8R8jQ=", "properties": {"@source_uri": "https://tools.usps.com/UspsToolsRestServices/rest/POLocator/findLocations", "@spider": "usps_collection_boxes", "addr:city": "SPOKANE", "addr:country": "US", "addr:postcode": "99218", "addr:state": "WA", "addr:street_address": "300 W HAWTHORNE RD", "amenity": "post_box", "collection_times": "Mo-Fr 08:30", "nsi_id": "unitedstatespostalservice-a77078", "operator": "United States Postal Service", "operator:short": "USPS", "operator:type": "public", "operator:wikidata": "Q668687", "ref": "9921800006"}, "type": "Feature"}
{"geometry": {"coordinates": [-117.4113804, 47.7477748], "type": "Point"}, "id": "odWBi6rUxXLR5kts2gvqxPyHEBM=", "properties": {"@source_uri": "https://tools.usps.com/UspsToolsRestServices/rest/POLocator/findLocations", "@spider": "usps_collection_boxes", "addr:city": "SPOKANE", "addr:country": "US", "addr:postcode": "99218", "addr:state": "WA", "addr:street_address": "9770 N NEWPORT HWY", "amenity": "post_box", "collection_times": "Mo-Fr 12:05", "note": "ON 12/24 AND 12/31, THIS BOX MAY BE COLLECTED AS EARLY AS 12 NOON.", "nsi_id": "unitedstatespostalservice-a77078", "operator": "United States Postal Service", "operator:short": "USPS", "operator:type": "public", "operator:wikidata": "Q668687", "ref": "9921800009"}, "type": "Feature"}
{"geometry": {"coordinates": [-117.4113804, 47.7477748], "type": "Point"}, "id": "NCCQN7mNypx2OBiGzMTEPcgUbbc=", "properties": {"@source_uri": "https://tools.usps.com/UspsToolsRestServices/rest/POLocator/findLocations", "@spider": "usps_collection_boxes", "addr:city": "SPOKANE", "addr:country": "US", "addr:postcode": "99218", "addr:state": "WA", "addr:street_address": "9984 N NEWPORT HWY", "amenity": "post_box", "collection_times": "Mo-Fr 15:15; Sa 14:00", "note": "ON 12/24 AND 12/31, THIS BOX MAY BE COLLECTED AS EARLY AS 12 NOON.", "nsi_id": "unitedstatespostalservice-a77078", "operator": "United States Postal Service", "operator:short": "USPS", "operator:type": "public", "operator:wikidata": "Q668687", "ref": "9921800012"}, "type": "Feature"}
{"geometry": {"coordinates": [-117.4113804, 47.7477748], "type": "Point"}, "id": "1hTiDyJc8NivgS_GM4vAzSdN2vc=", "properties": {"@source_uri": "https://tools.usps.com/UspsToolsRestServices/rest/POLocator/findLocations", "@spider": "usps_collection_boxes", "addr:city": "SPOKANE", "addr:country": "US", "addr:postcode": "99218", "addr:state": "WA", "addr:street_address": "9857 N NEVADA ST", "amenity": "post_box", "collection_times": "Mo-Sa 17:00", "note": "ON 12/24 AND 12/31, THIS BOX MAY BE COLLECTED AS EARLY AS 12 NOON.", "nsi_id": "unitedstatespostalservice-a77078", "operator": "United States Postal Service", "operator:short": "USPS", "operator:type": "public", "operator:wikidata": "Q668687", "ref": "9921800016"}, "type": "Feature"}
{"geometry": {"coordinates": [-117.395374, 47.747056], "type": "Point"}, "id": "tM1Qwm8FMFCVuUl1CUvmr_u9-AA=", "properties": {"@source_uri": "https://tools.usps.com/UspsToolsRestServices/rest/POLocator/findLocations", "@spider": "usps_collection_boxes", "addr:city": "SPOKANE", "addr:country": "US", "addr:postcode": "99218", "addr:state": "WA", "addr:street_address": "9857 N NEVADA ST", "amenity": "post_box", "collection_times": "Mo-Sa 17:00", "indoor": "yes", "note": "ON 12/24 AND 12/31, THIS BOX MAY BE COLLECTED AS EARLY AS 12 NOON.", "nsi_id": "unitedstatespostalservice-a77078", "operator": "United States Postal Service", "operator:short": "USPS", "operator:type": "public", "operator:wikidata": "Q668687", "ref": "9921800018"}, "type": "Feature"}
{"geometry": {"coordinates": [-117.3954703699, 47.744942126], "type": "Point"}, "id": "IKqBsRxBEOyEIXP-uo3O8iY4rtM=", "properties": {"@source_uri": "https://tools.usps.com/UspsToolsRestServices/rest/POLocator/findLocations", "@spider": "usps_collection_boxes", "addr:city": "SPOKANE", "addr:country": "US", "addr:postcode": "99218", "addr:state": "WA", "addr:street_address": "9631 N NEVADA ST", "amenity": "post_box", "collection_times": "Mo-Fr 15:15", "note": "ON 12/24 AND 12/31, THIS BOX MAY BE COLLECTED AS EARLY AS 12 NOON.", "nsi_id": "unitedstatespostalservice-a77078", "operator": "United States Postal Service", "operator:short": "USPS", "operator:type": "public", "operator:wikidata": "Q668687", "ref": "9921800019"}, "type": "Feature"}
{"geometry": {"coordinates": [-117.382521, 47.6027222], "type": "Point"}, "id": "lWznw0Y-NR2JeevqHbx4sfBL1MY=", "properties": {"@source_uri": "https://tools.usps.com/UspsToolsRestServices/rest/POLocator/findLocations", "@spider": "usps_collection_boxes", "addr:city": "SPOKANE", "addr:country": "US", "addr:postcode": "99223", "addr:state": "WA", "addr:street_address": "5428 S REGAL ST", "amenity": "post_box", "collection_times": "Mo-Fr 17:00; Sa 15:45", "note": "ON 12/24 AND 12/31, THIS BOX MAY BE COLLECTED AS EARLY AS 12 NOON.", "nsi_id": "unitedstatespostalservice-a77078", "operator": "United States Postal Service", "operator:short": "USPS", "operator:type": "public", "operator:wikidata": "Q668687", "ref": "9922300011"}, "type": "Feature"}
{"geometry": {"coordinates": [-117.368418, 47.604679], "type": "Point"}, "id": "UFx4cUz2aUyT4K-1x5zGvl8FNZ0=", "properties": {"@source_uri": "https://tools.usps.com/UspsToolsRestServices/rest/POLocator/findLocations", "@spider": "usps_collection_boxes", "addr:city": "SPOKANE", "addr:country": "US", "addr:postcode": "99223", "addr:state": "WA", "addr:street_address": "5428 S REGAL ST", "amenity": "post_box", "collection_times": "Mo-Fr 17:00; Sa 15:45", "indoor": "yes", "note": "ON 12/24 AND 12/31, THIS BOX MAY BE COLLECTED AS EARLY AS 12 NOON.", "nsi_id": "unitedstatespostalservice-a77078", "operator": "United States Postal Service", "operator:short": "USPS", "operator:type": "public", "operator:wikidata": "Q668687", "ref": "9922300013"}, "type": "Feature"}
{"geometry": {"coordinates": [-117.368478072, 47.604691698], "type": "Point"}, "id": "Lytp_9X2qkvlhDaX_BrO2EOwmIY=", "properties": {"@source_uri": "https://tools.usps.com/UspsToolsRestServices/rest/POLocator/findLocations", "@spider": "usps_collection_boxes", "addr:city": "SPOKANE", "addr:country": "US", "addr:postcode": "99223", "addr:state": "WA", "addr:street_address": "5428 S REGAL ST", "amenity": "post_box", "collection_times": "Mo-Fr 17:00", "indoor": "yes", "note": "ON 12/24 AND 12/31, THIS BOX MAY BE COLLECTED AS EARLY AS 12 NOON.", "nsi_id": "unitedstatespostalservice-a77078", "operator": "United States Postal Service", "operator:short": "USPS", "operator:type": "public", "operator:wikidata": "Q668687", "ref": "9922300028"}, "type": "Feature"}
{"geometry": {"coordinates": [-117.5082229904, 47.6218069892], "type": "Point"}, "id": "W9jkZ4SiOlDGwmHMmLiW9nEBhnE=", "properties": {"@source_uri": "https://tools.usps.com/UspsToolsRestServices/rest/POLocator/findLocations", "@spider": "usps_collection_boxes", "addr:city": "SPOKANE", "addr:country": "US", "addr:postcode": "99224", "addr:state": "WA", "addr:street_address": "6801 W FLIGHTLINE BLVD", "amenity": "post_box", "collection_times": "Mo-Fr 17:15; Sa 16:30", "note": "ON 12/24 AND 12/31, THIS BOX MAY BE COLLECTED AS EARLY AS 12 NOON.", "nsi_id": "unitedstatespostalservice-a77078", "operator": "United States Postal Service", "operator:short": "USPS", "operator:type": "public", "operator:wikidata": "Q668687", "ref": "9922400002"}, "type": "Feature"}
{"geometry": {"coordinates": [-117.471279, 47.675611], "type": "Point"}, "id": "F9EdSIuy9xzDrVXHs4aNfyOfyjI=", "properties": {"@source_uri": "https://tools.usps.com/UspsToolsRestServices/rest/POLocator/findLocations", "@spider": "usps_collection_boxes", "addr:city": "SPOKANE", "addr:country": "US", "addr:postcode": "99224", "addr:state": "WA", "addr:street_address": "3925 W RANDOLPH RD", "amenity": "post_box", "collection_times": "Mo-Fr 12:05", "note": "ON 12/24 AND 12/31, THIS BOX MAY BE COLLECTED AS EARLY AS 12 NOON.", "nsi_id": "unitedstatespostalservice-a77078", "operator": "United States Postal Service", "operator:short": "USPS", "operator:type": "public", "operator:wikidata": "Q668687", "ref": "9922400005"}, "type": "Feature"}
{"geometry": {"coordinates": [-117.465265, 47.675675], "type": "Point"}, "id": "Gyvz77Amdou_nktGfXbtypBkuDs=", "properties": {"@source_uri": "https://tools.usps.com/UspsToolsRestServices/rest/POLocator/findLocations", "@spider": "usps_collection_boxes", "addr:city": "SPOKANE", "addr:country": "US", "addr:postcode": "99224", "addr:state": "WA", "addr:street_address": "3410 W FORT GEORGE WRIGHT DR", "amenity": "post_box", "collection_times": "Mo-Fr 12:05", "note": "ON 12/24 AND 12/31, THIS BOX MAY BE COLLECTED AS EARLY AS 12 NOON.", "nsi_id": "unitedstatespostalservice-a77078", "operator": "United States Postal Service", "operator:short": "USPS", "operator:type": "public", "operator:wikidata": "Q668687", "ref": "9922400006"}, "type": "Feature"}
{"geometry": {"coordinates": [-117.509591, 47.622656], "type": "Point"}, "id": "xUC0WHvcBmGFsvPu54HcdXEJSK4=", "properties": {"@source_uri": "https://tools.usps.com/UspsToolsRestServices/rest/POLocator/findLocations", "@spider": "usps_collection_boxes", "addr:city": "SPOKANE", "addr:country": "US", "addr:postcode": "99224", "addr:state": "WA", "addr:street_address": "6801 W FLIGHTLINE BLVD", "amenity": "post_box", "collection_times": "Mo-Fr 17:00; Sa 15:00", "indoor": "yes", "note": "ON 12/24 AND 12/31, THIS BOX MAY BE COLLECTED AS EARLY AS 12 NOON.", "nsi_id": "unitedstatespostalservice-a77078", "operator": "United States Postal Service", "operator:short": "USPS", "operator:type": "public", "operator:wikidata": "Q668687", "ref": "9922400007"}, "type": "Feature"}
{"geometry": {"coordinates": [-117.513261, 47.62695], "type": "Point"}, "id": "Ta93DHwQDqvCDGJFG5CyiVwuSXM=", "properties": {"@source_uri": "https://tools.usps.com/UspsToolsRestServices/rest/POLocator/findLocations", "@spider": "usps_collection_boxes", "addr:city": "SPOKANE", "addr:country": "US", "addr:postcode": "99224", "addr:state": "WA", "addr:street_address": "2928 S SPOTTED RD", "amenity": "post_box", "collection_times": "Mo-Sa 18:30", "note": "ON 12/24 AND 12/31, THIS BOX MAY BE COLLECTED AS EARLY AS 12 NOON.", "nsi_id": "unitedstatespostalservice-a77078", "operator": "United States Postal Service", "operator:short": "USPS", "operator:type": "public", "operator:wikidata": "Q668687", "ref": "9922400013"}, "type": "Feature"}
{"geometry": {"coordinates": [-117.537158, 47.626009], "type": "Point"}, "id": "maraALyhMqXjCNqFo3hX_f81ppc=", "properties": {"@source_uri": "https://tools.usps.com/UspsToolsRestServices/rest/POLocator/findLocations", "@spider": "usps_collection_boxes", "addr:city": "SPOKANE", "addr:country": "US", "addr:postcode": "99224", "addr:state": "WA", "addr:street_address": "9000 W AIRPORT DR", "amenity": "post_box", "collection_times": "Mo-Fr 12:30", "note": "ON 12/24 AND 12/31, THIS BOX MAY BE COLLECTED AS EARLY AS 12 NOON.", "nsi_id": "unitedstatespostalservice-a77078", "operator": "United States Postal Service", "operator:short": "USPS", "operator:type": "public", "operator:wikidata": "Q668687", "ref": "9922400017"}, "type": "Feature"}
{"geometry": {"coordinates": [-117.561244, 47.590392], "type": "Point"}, "id": "erkS2MND2nKpN5YwP5NJgwwGUQE=", "properties": {"@source_uri": "https://tools.usps.com/UspsToolsRestServices/rest/POLocator/findLocations", "@spider": "usps_collection_boxes", "addr:city": "SPOKANE", "addr:country": "US", "addr:postcode": "99224", "addr:state": "WA", "addr:street_address": "10440 W WESTBOW BLVD", "amenity": "post_box", "collection_times": "Mo-Sa 10:00", "nsi_id": "unitedstatespostalservice-a77078", "operator": "United States Postal Service", "operator:short": "USPS", "operator:type": "public", "operator:wikidata": "Q668687", "ref": "9922400018"}, "type": "Feature"}
{"geometry": {"coordinates": [-117.43073, 47.61533], "type": "Point"}, "id": "iOwSErwzD2_h_n7vbx_t9K9EoJ4=", "properties": {"@source_uri": "https://tools.usps.com/UspsToolsRestServices/rest/POLocator/findLocations", "@spider": "usps_collection_boxes", "addr:city": "SPOKANE", "addr:country": "US", "addr:postcode": "99224", "addr:state": "WA", "addr:street_address": "4235 S CHENEY SPOKANE RD", "amenity": "post_box", "collection_times": "Mo-Fr 16:30; Sa 13:00", "note": "ON 12/24 AND 12/31, THIS BOX MAY BE COLLECTED AS EARLY AS 12 NOON.", "nsi_id": "unitedstatespostalservice-a77078", "operator": "United States Postal Service", "operator:short": "USPS", "operator:type": "public", "operator:wikidata": "Q668687", "ref": "9922400019"}, "type": "Feature"}
{"geometry": {"coordinates": [-117.4302590999, 47.6145535776], "type": "Point"}, "id": "k4hSponkKK3dQUGjYBTamhH-IZk=", "properties": {"@source_uri": "https://tools.usps.com/UspsToolsRestServices/rest/POLocator/findLocations", "@spider": "usps_collection_boxes", "addr:city": "SPOKANE", "addr:country": "US", "addr:postcode": "99224", "addr:state": "WA", "addr:street_address": "4235 S CHENEY SPOKANE RD", "amenity": "post_box", "collection_times": "Mo-Fr 16:30; Sa 13:00", "indoor": "yes", "note": "ON 12/24 AND 12/31, THIS BOX MAY BE COLLECTED AS EARLY AS 12 NOON.", "nsi_id": "unitedstatespostalservice-a77078", "operator": "United States Postal Service", "operator:short": "USPS", "operator:type": "public", "operator:wikidata": "Q668687", "ref": "9922400020"}, "type": "Feature"}
{"geometry": {"coordinates": [-117.508582534, 47.622369516], "type": "Point"}, "id": "Dt6kurOpSDxUYCAxMuvA8S2KS1g=", "properties": {"@source_uri": "https://tools.usps.com/UspsToolsRestServices/rest/POLocator/findLocations", "@spider": "usps_collection_boxes", "addr:city": "SPOKANE", "addr:country": "US", "addr:postcode": "99224", "addr:state": "WA", "addr:street_address": "6801 W FLIGHTLINE BLVD", "amenity": "post_box", "collection_times": "Mo-Fr 17:00", "indoor": "yes", "note": "ON 12/24 AND 12/31, THIS BOX MAY BE COLLECTED AS EARLY AS 12 NOON.", "nsi_id": "unitedstatespostalservice-a77078", "operator": "United States Postal Service", "operator:short": "USPS", "operator:type": "public", "operator:wikidata": "Q668687", "ref": "9922400021"}, "type": "Feature"}
