{"geometry": {"coordinates": [-119.095675, 46.23744], "type": "Point"}, "id": "IpZabpQ9J_eaSfu2NerXLKNig38=", "properties": {"@spider": "usps_collection_boxes", "addr:city": "PASCO", "addr:country": "US", "addr:full": "1016 N 4TH AVE", "addr:postcode": "99301", "addr:state": "WA", "brand": "USPS", "collection_times": "Mo-Fr 15:30", "name": "USPS COLLECTION BOX - BLUE BOX", "note": "ON 12/24 AND 12/31, THIS BOX MAY BE COLLECTED AS EARLY AS 12 NOON.", "ref": "9930100001"}, "type": "Feature"}
{"geometry": {"coordinates": [-119.104733, 46.234159], "type": "Point"}, "id": "Bs_DUisw6d6kwh64-rreRAHfiFI=", "properties": {"@spider": "usps_collection_boxes", "addr:city": "PASCO", "addr:country": "US", "addr:full": "1029 W SYLVESTER ST", "addr:postcode": "99301", "addr:state": "WA", "brand": "USPS", "collection_times": "Mo-Sa 10:30", "name": "USPS COLLECTION BOX - BLUE BOX", "ref": "9930100003"}, "type": "Feature"}
{"geometry": {"coordinates": [-119.107315, 46.229398], "type": "Point"}, "id": "_a5MKaf7odFsWu_9YfCOhNE5xhA=", "properties": {"@spider": "usps_collection_boxes", "addr:city": "PASCO", "addr:country": "US", "addr:full": "1411 W CLARK ST", "addr:postcode": "99301", "addr:state": "WA", "brand": "USPS", "collection_times": "Mo-Fr 11:00", "name": "USPS COLLECTION BOX - BLUE BOX", "ref": "9930100004"}, "type": "Feature"}
{"geometry": {"coordinates": [-119.099991, 46.257647], "type": "Point"}, "id": "h7u27VUNnZ0OXpRSJGFiktoI0jE=", "properties": {"@spider": "usps_collection_boxes", "addr:city": "PASCO", "addr:country": "US", "addr:full": "3412 N STEARMAN AVE", "addr:postcode": "99301", "addr:state": "WA", "brand": "USPS", "collection_times": "Mo-Fr 15:15", "name": "USPS COLLECTION BOX - BLUE BOX", "note": "ON 12/24 AND 12/31, THIS BOX MAY BE COLLECTED AS EARLY AS 12 NOON.", "ref": "9930100009"}, "type": "Feature"}
{"geometry": {"coordinates": [-119.09097, 46.231323], "type": "Point"}, "id": "E2kmTw_aYl13nNB7deWcL155RzM=", "properties": {"@spider": "usps_collection_boxes", "addr:city": "PASCO", "addr:country": "US", "addr:full": "403 W LEWIS ST", "addr:postcode": "99301", "addr:state": "WA", "brand": "USPS", "collection_times": "Mo-Fr 16:00; Sa 14:30", "name": "USPS COLLECTION BOX - BLUE BOX", "note": "ON 12/24 AND 12/31, THIS BOX MAY BE COLLECTED AS EARLY AS 12 NOON.", "ref": "9930100014"}, "type": "Feature"}
{"geometry": {"coordinates": [-119.098706, 46.228889], "type": "Point"}, "id": "IJ9gr6uyy6Y3BXr3I6KG5bkjnxo=", "properties": {"@spider": "usps_collection_boxes", "addr:city": "PASCO", "addr:country": "US", "addr:full": "824 W LEWIS ST", "addr:postcode": "99301", "addr:state": "WA", "brand": "USPS", "collection_times": "Mo-Sa 11:30", "name": "USPS COLLECTION BOX - BLUE BOX", "ref": "9930100019"}, "type": "Feature"}
{"geometry": {"coordinates": [-119.1149, 46.259185], "type": "Point"}, "id": "e0RvvFy0ZwddFueZYpYnLmQ3Yy0=", "properties": {"@spider": "usps_collection_boxes", "addr:city": "PASCO", "addr:country": "US", "addr:full": "3601 N 20TH AVE", "addr:postcode": "99301", "addr:state": "WA", "brand": "USPS", "collection_times": "Mo-Fr 14:00", "name": "USPS COLLECTION BOX - BLUE BOX", "note": "ON 12/24 AND 12/31, THIS BOX MAY BE COLLECTED AS EARLY AS 12 NOON.", "ref": "9930100023"}, "type": "Feature"}
{"geometry": {"coordinates": [-119.118522, 46.241968], "type": "Point"}, "id": "kwkyzId8HYMb3eNfZTjaQ65NVKI=", "properties": {"@spider": "usps_collection_boxes", "addr:city": "PASCO", "addr:country": "US", "addr:full": "2019 W COURT ST", "addr:postcode": "99301", "addr:state": "WA", "brand": "USPS", "collection_times": "Mo-Fr 10:15", "name": "USPS COLLECTION BOX - BLUE BOX", "ref": "9930100024"}, "type": "Feature"}
{"geometry": {"coordinates": [-119.137341, 46.241492], "type": "Point"}, "id": "3xw6VPeTphc9l53Pi80mFxasWAM=", "properties": {"@spider": "usps_collection_boxes", "addr:city": "PASCO", "addr:country": "US", "addr:full": "3500 W COURT ST", "addr:postcode": "99301", "addr:state": "WA", "brand": "USPS", "collection_times": "Mo-Sa 17:00", "name": "USPS COLLECTION BOX - BLUE BOX", "note": "ON 12/24 AND 12/31, THIS BOX MAY BE COLLECTED AS EARLY AS 12 NOON.", "ref": "9930100028"}, "type": "Feature"}
{"geometry": {"coordinates": [-119.090958, 46.231323], "type": "Point"}, "id": "iNGniUTMAwjX10i9x3uwWMd2gAc=", "properties": {"@spider": "usps_collection_boxes", "addr:city": "PASCO", "addr:country": "US", "addr:full": "403 W LEWIS ST", "addr:postcode": "99301", "addr:state": "WA", "brand": "USPS", "collection_times": "Mo-Fr 16:00; Sa 14:30", "name": "USPS COLLECTION BOX - BLUE BOX", "note": "ON 12/24 AND 12/31, THIS BOX MAY BE COLLECTED AS EARLY AS 12 NOON.", "ref": "9930100031"}, "type": "Feature"}
{"geometry": {"coordinates": [-119.090703, 46.231054], "type": "Point"}, "id": "GCaqUrhT_LuKFYrrhmGSWSAgrYE=", "properties": {"@spider": "usps_collection_boxes", "addr:city": "PASCO", "addr:country": "US", "addr:full": "403 W LEWIS ST", "addr:postcode": "99301", "addr:state": "WA", "brand": "USPS", "collection_times": "Mo-Fr 16:00", "name": "USPS COLLECTION BOX - PO LOBBY", "note": "ON 12/24 AND 12/31, THIS BOX MAY BE COLLECTED AS EARLY AS 12 NOON.", "ref": "9930100036"}, "type": "Feature"}
{"geometry": {"coordinates": [-119.08486, 46.262836], "type": "Point"}, "id": "swt5EyfclrrbD2Rlvy-pviyED3w=", "properties": {"@spider": "usps_collection_boxes", "addr:city": "PASCO", "addr:country": "US", "addr:full": "2125 E HILLSBORO ST", "addr:postcode": "99301", "addr:state": "WA", "brand": "USPS", "collection_times": "Mo-Sa 11:00", "name": "USPS COLLECTION BOX - BLUE BOX", "ref": "9930100042"}, "type": "Feature"}
{"geometry": {"coordinates": [-119.137341, 46.241492], "type": "Point"}, "id": "tGStLdeXcE5Z_fahc08dTDyHN9Y=", "properties": {"@spider": "usps_collection_boxes", "addr:city": "PASCO", "addr:country": "US", "addr:full": "3500 W COURT ST", "addr:postcode": "99301", "addr:state": "WA", "brand": "USPS", "collection_times": "Mo-Sa 17:00", "name": "USPS COLLECTION BOX - PO LOBBY", "note": "ON 12/24 AND 12/31, THIS BOX MAY BE COLLECTED AS EARLY AS 12 NOON.", "ref": "9930100046"}, "type": "Feature"}
{"geometry": {"coordinates": [-119.182854, 46.271883], "type": "Point"}, "id": "xnKVadf3BFKbOI2Zh0ZHTkmOvGI=", "properties": {"@spider": "usps_collection_boxes", "addr:city": "PASCO", "addr:country": "US", "addr:full": "4905 N ROAD 68", "addr:postcode": "99301", "addr:state": "WA", "brand": "USPS", "collection_times": "Mo-Sa 10:30", "name": "USPS COLLECTION BOX - BLUE BOX", "ref": "9930100048"}, "type": "Feature"}
{"geometry": {"coordinates": [-119.137341, 46.241492], "type": "Point"}, "id": "9q9h_PVWOoyyRJUsx1FwPAU6FBM=", "properties": {"@spider": "usps_collection_boxes", "addr:city": "PASCO", "addr:country": "US", "addr:full": "3500 W COURT ST", "addr:postcode": "99301", "addr:state": "WA", "brand": "USPS", "collection_times": "Mo-Sa 17:00", "name": "USPS COLLECTION BOX - APC", "note": "ON 12/24 AND 12/31, THIS BOX MAY BE COLLECTED AS EARLY AS 12 NOON.", "ref": "9930100049"}, "type": "Feature"}
{"geometry": {"coordinates": [-119.095941, 46.235191], "type": "Point"}, "id": "R3H07WBFAtkTSR3RCTV9tvxT1OI=", "properties": {"@spider": "usps_collection_boxes", "addr:city": "PASCO", "addr:country": "US", "addr:full": "520 N 4TH AVE", "addr:postcode": "99301", "addr:state": "WA", "brand": "USPS", "collection_times": "Mo-Fr 14:30; Sa 14:00", "name": "USPS COLLECTION BOX - BLUE BOX", "note": "ON 12/24 AND 12/31, THIS BOX MAY BE COLLECTED AS EARLY AS 12 NOON.", "ref": "9930100051"}, "type": "Feature"}
{"geometry": {"coordinates": [-119.09055492, 46.230974054], "type": "Point"}, "id": "pQDJ6FWd7lyBYecrSpf_j-9abqE=", "properties": {"@spider": "usps_collection_boxes", "addr:city": "PASCO", "addr:country": "US", "addr:full": "403 W LEWIS ST", "addr:postcode": "99301", "addr:state": "WA", "brand": "USPS", "collection_times": "Mo-Fr 15:45", "name": "USPS COLLECTION BOX - PO LOBBY", "note": "ON 12/24 AND 12/31, THIS BOX MAY BE COLLECTED AS EARLY AS 12 NOON.", "ref": "9930100054"}, "type": "Feature"}
{"geometry": {"coordinates": [-119.137152609, 46.241487471], "type": "Point"}, "id": "-DrabRtmPSSZrxJJKLIo1BtTAm4=", "properties": {"@spider": "usps_collection_boxes", "addr:city": "PASCO", "addr:country": "US", "addr:full": "3500 W COURT ST", "addr:postcode": "99301", "addr:state": "WA", "brand": "USPS", "collection_times": "Mo-Fr 16:45; Sa 15:00", "name": "USPS COLLECTION BOX - PO LOBBY", "note": "ON 12/24 AND 12/31, THIS BOX MAY BE COLLECTED AS EARLY AS 12 NOON.", "ref": "9930100055"}, "type": "Feature"}
{"geometry": {"coordinates": [-119.487839, 46.263881], "type": "Point"}, "id": "ZJBYFSbgZ63Rkxxa0Zt0WDE3oKg=", "properties": {"@spider": "usps_collection_boxes", "addr:city": "BENTON CITY", "addr:country": "US", "addr:full": "909 DALE AVE", "addr:postcode": "99320", "addr:state": "WA", "brand": "USPS", "collection_times": "Mo-Fr 15:50; Sa 10:00", "name": "USPS COLLECTION BOX - PO LOBBY", "note": "ON 12/24 AND 12/31, THIS BOX MAY BE COLLECTED AS EARLY AS 12 NOON.", "ref": "9932000001"}, "type": "Feature"}
{"geometry": {"coordinates": [-119.48773, 46.263907], "type": "Point"}, "id": "xE0Nhs8KwRZOjUh6klGe3zwpk1M=", "properties": {"@spider": "usps_collection_boxes", "addr:city": "BENTON CITY", "addr:country": "US", "addr:full": "909 DALE AVE", "addr:postcode": "99320", "addr:state": "WA", "brand": "USPS", "collection_times": "Mo-Sa 15:50", "name": "USPS COLLECTION BOX - BLUE BOX", "note": "ON 12/24 AND 12/31, THIS BOX MAY BE COLLECTED AS EARLY AS 12 NOON.", "ref": "9932000002"}, "type": "Feature"}
{"geometry": {"coordinates": [-119.487802399, 46.26382456], "type": "Point"}, "id": "XkcoEAFW-lTte0vGFAPS7F6agrI=", "properties": {"@spider": "usps_collection_boxes", "addr:city": "BENTON CITY", "addr:country": "US", "addr:full": "909 DALE AVE", "addr:postcode": "99320", "addr:state": "WA", "brand": "USPS", "collection_times": "Mo-Fr 15:45", "name": "USPS COLLECTION BOX - PO LOBBY", "note": "ON 12/24 AND 12/31, THIS BOX MAY BE COLLECTED AS EARLY AS 12 NOON.", "ref": "9932000003"}, "type": "Feature"}
{"geometry": {"coordinates": [-120.301466, 45.997864], "type": "Point"}, "id": "6VA_GdHbzoWxOLJS64a3aMElYak=", "properties": {"@spider": "usps_collection_boxes", "addr:city": "BICKLETON", "addr:country": "US", "addr:full": "205 E MARKET ST", "addr:postcode": "99322", "addr:state": "WA", "brand": "USPS", "collection_times": "Mo-Fr 12:15; Sa 11:00", "name": "USPS COLLECTION BOX - BLUE BOX", "note": "ON 12/24 AND 12/31, THIS BOX MAY BE COLLECTED AS EARLY AS 12 NOON.", "ref": "9932200001"}, "type": "Feature"}
{"geometry": {"coordinates": [-120.301466, 45.997864], "type": "Point"}, "id": "fEufgXr6WQcf-dEbIq9nLuJUScA=", "properties": {"@spider": "usps_collection_boxes", "addr:city": "BICKLETON", "addr:country": "US", "addr:full": "205 E MARKET ST", "addr:postcode": "99322", "addr:state": "WA", "brand": "USPS", "collection_times": "Mo-Fr 12:15; Sa 11:00", "name": "USPS COLLECTION BOX - PO LOBBY", "note": "ON 12/24 AND 12/31, THIS BOX MAY BE COLLECTED AS EARLY AS 12 NOON.", "ref": "9932200002"}, "type": "Feature"}
{"geometry": {"coordinates": [-120.301512022, 45.997921242], "type": "Point"}, "id": "2NdQEAvDTB-3hjhWBo0gp0sh2N8=", "properties": {"@spider": "usps_collection_boxes", "addr:city": "BICKLETON", "addr:country": "US", "addr:full": "205 E MARKET ST", "addr:postcode": "99322", "addr:state": "WA", "brand": "USPS", "collection_times": "Mo-Fr 12:15", "name": "USPS COLLECTION BOX - PO LOBBY", "note": "ON 12/24 AND 12/31, THIS BOX MAY BE COLLECTED AS EARLY AS 12 NOON.", "ref": "9932200003"}, "type": "Feature"}
{"geometry": {"coordinates": [-119.018601, 46.198509], "type": "Point"}, "id": "PDjvb_abS01WdhVlQpqGv6kzWVo=", "properties": {"@spider": "usps_collection_boxes", "addr:city": "BURBANK", "addr:country": "US", "addr:full": "114 2ND AVE", "addr:postcode": "99323", "addr:state": "WA", "brand": "USPS", "collection_times": "Mo-Fr 15:00; Sa 09:00", "name": "USPS COLLECTION BOX - BLUE BOX", "note": "ON 12/24 AND 12/31, THIS BOX MAY BE COLLECTED AS EARLY AS 12 NOON.", "ref": "9932300001"}, "type": "Feature"}
{"geometry": {"coordinates": [-119.018601, 46.198509], "type": "Point"}, "id": "mQpyYcQBXXZO8dht02U28E1MHVU=", "properties": {"@spider": "usps_collection_boxes", "addr:city": "BURBANK", "addr:country": "US", "addr:full": "114 2ND AVE", "addr:postcode": "99323", "addr:state": "WA", "brand": "USPS", "collection_times": "Mo-Fr 15:00; Sa 10:00", "name": "USPS COLLECTION BOX - PO LOBBY", "note": "ON 12/24 AND 12/31, THIS BOX MAY BE COLLECTED AS EARLY AS 12 NOON.", "ref": "9932300002"}, "type": "Feature"}
{"geometry": {"coordinates": [-119.0186007764, 46.1985025809], "type": "Point"}, "id": "jnx8po2b96Lklln50rN2EZpPwY0=", "properties": {"@spider": "usps_collection_boxes", "addr:city": "BURBANK", "addr:country": "US", "addr:full": "114 2ND AVE", "addr:postcode": "99323", "addr:state": "WA", "brand": "USPS", "collection_times": "Mo-Fr 15:00", "name": "USPS COLLECTION BOX - PO LOBBY", "note": "ON 12/24 AND 12/31, THIS BOX MAY BE COLLECTED AS EARLY AS 12 NOON.", "ref": "9932300003"}, "type": "Feature"}
{"geometry": {"coordinates": [-119.111721, 46.460492], "type": "Point"}, "id": "GexsLjSpNrqRdSEfFWtOeAMslbA=", "properties": {"@spider": "usps_collection_boxes", "addr:city": "ELTOPIA", "addr:country": "US", "addr:full": "13101 GLADE NORTH RD", "addr:postcode": "99330", "addr:state": "WA", "brand": "USPS", "collection_times": "Mo-Fr 14:15", "name": "USPS COLLECTION BOX - BLUE BOX", "note": "ON 12/24 AND 12/31, THIS BOX MAY BE COLLECTED AS EARLY AS 12 NOON.", "ref": "9933000001"}, "type": "Feature"}
{"geometry": {"coordinates": [-119.111721, 46.460492], "type": "Point"}, "id": "r_qUlPIYZeGEkC_lpiUSVng_3AE=", "properties": {"@spider": "usps_collection_boxes", "addr:city": "ELTOPIA", "addr:country": "US", "addr:full": "13101 GLADE NORTH RD", "addr:postcode": "99330", "addr:state": "WA", "brand": "USPS", "collection_times": "Mo-Fr 14:15; Sa 10:00", "name": "USPS COLLECTION BOX - PO LOBBY", "note": "ON 12/24 AND 12/31, THIS BOX MAY BE COLLECTED AS EARLY AS 12 NOON.", "ref": "9933000002"}, "type": "Feature"}
{"geometry": {"coordinates": [-119.111794177, 46.460540339], "type": "Point"}, "id": "LXSVyxSrdZ_WI15K0DR1qi6BbYI=", "properties": {"@spider": "usps_collection_boxes", "addr:city": "ELTOPIA", "addr:country": "US", "addr:full": "13101 GLADE NORTH RD", "addr:postcode": "99330", "addr:state": "WA", "brand": "USPS", "collection_times": "Mo-Fr 14:15", "name": "USPS COLLECTION BOX - PO LOBBY", "note": "ON 12/24 AND 12/31, THIS BOX MAY BE COLLECTED AS EARLY AS 12 NOON.", "ref": "9933000003"}, "type": "Feature"}
{"geometry": {"coordinates": [-119.1799180786, 46.2104962806], "type": "Point"}, "id": "iW9NJFobstX-fvp3Z_egZF27o6k=", "properties": {"@spider": "usps_collection_boxes", "addr:city": "KENNEWICK", "addr:country": "US", "addr:full": "4 N UNION ST", "addr:postcode": "99336", "addr:state": "WA", "brand": "USPS", "collection_times": "Mo-Fr 14:30; Sa 15:45", "name": "USPS COLLECTION BOX - BLUE BOX", "note": "ON 12/24 AND 12/31, THIS BOX MAY BE COLLECTED AS EARLY AS 12 NOON.", "ref": "9933600002"}, "type": "Feature"}
{"geometry": {"coordinates": [-119.202893, 46.218452], "type": "Point"}, "id": "xrH0lTx_EU8PU6ETrEucC6moCAI=", "properties": {"@spider": "usps_collection_boxes", "addr:city": "KENNEWICK", "addr:country": "US", "addr:full": "815 N KELLOGG ST", "addr:postcode": "99336", "addr:state": "WA", "brand": "USPS", "collection_times": "Mo-Fr 10:00", "name": "USPS COLLECTION BOX - BLUE BOX", "ref": "9933600003"}, "type": "Feature"}
{"geometry": {"coordinates": [-119.156721, 46.210843], "type": "Point"}, "id": "nk_11DgalO6LosCgqsG3M_IbcY0=", "properties": {"@spider": "usps_collection_boxes", "addr:city": "KENNEWICK", "addr:country": "US", "addr:full": "114 VISTA WAY", "addr:postcode": "99336", "addr:state": "WA", "brand": "USPS", "collection_times": "Mo-Fr 15:30; Sa 15:15", "name": "USPS COLLECTION BOX - BLUE BOX", "note": "ON 12/24 AND 12/31, THIS BOX MAY BE COLLECTED AS EARLY AS 12 NOON.", "ref": "9933600005"}, "type": "Feature"}
{"geometry": {"coordinates": [-119.120153, 46.207507], "type": "Point"}, "id": "umMckriiSDcpVtAcluZWotEzQL8=", "properties": {"@spider": "usps_collection_boxes", "addr:city": "KENNEWICK", "addr:country": "US", "addr:full": "203 W 1ST AVE", "addr:postcode": "99336", "addr:state": "WA", "brand": "USPS", "collection_times": "Mo-Fr 09:30", "name": "USPS COLLECTION BOX - BLUE BOX", "ref": "9933600009"}, "type": "Feature"}
{"geometry": {"coordinates": [-119.149429, 46.205695], "type": "Point"}, "id": "oFUlbhDVp6vPEjlXmYuz03R-Jj0=", "properties": {"@spider": "usps_collection_boxes", "addr:city": "KENNEWICK", "addr:country": "US", "addr:full": "2203 W 4TH AVE", "addr:postcode": "99336", "addr:state": "WA", "brand": "USPS", "collection_times": "Mo-Fr 15:45; Sa 15:00", "name": "USPS COLLECTION BOX - BLUE BOX", "note": "ON 12/24 AND 12/31, THIS BOX MAY BE COLLECTED AS EARLY AS 12 NOON.", "ref": "9933600010"}, "type": "Feature"}
{"geometry": {"coordinates": [-119.121772, 46.208677], "type": "Point"}, "id": "c-WJ5vRjNP0hOWDsOPJEy7xtDWw=", "properties": {"@spider": "usps_collection_boxes", "addr:city": "KENNEWICK", "addr:country": "US", "addr:full": "303 W KENNEWICK AVE", "addr:postcode": "99336", "addr:state": "WA", "brand": "USPS", "collection_times": "Mo-Fr 09:00", "name": "USPS COLLECTION BOX - BLUE BOX", "ref": "9933600012"}, "type": "Feature"}
{"geometry": {"coordinates": [-119.167907, 46.209346], "type": "Point"}, "id": "G5wBj6iOtJI5Np1AjuhSvJXNjbk=", "properties": {"@spider": "usps_collection_boxes", "addr:city": "KENNEWICK", "addr:country": "US", "addr:full": "3321 W KENNEWICK AVE", "addr:postcode": "99336", "addr:state": "WA", "brand": "USPS", "collection_times": "Mo-Sa 09:30", "name": "USPS COLLECTION BOX - BLUE BOX", "ref": "9933600014"}, "type": "Feature"}
{"geometry": {"coordinates": [-119.2157120449, 46.2227003173], "type": "Point"}, "id": "PdzucNWz4LQkXQeXEjEzUgJnR3g=", "properties": {"@spider": "usps_collection_boxes", "addr:city": "KENNEWICK", "addr:country": "US", "addr:full": "7102 W OKANOGAN PL", "addr:postcode": "99336", "addr:state": "WA", "brand": "USPS", "collection_times": "Mo-Fr 15:30", "name": "USPS COLLECTION BOX - BLUE BOX", "note": "ON 12/24 AND 12/31, THIS BOX MAY BE COLLECTED AS EARLY AS 12 NOON.", "ref": "9933600021"}, "type": "Feature"}
{"geometry": {"coordinates": [-119.170325, 46.215227], "type": "Point"}, "id": "Ikh5me6yLYPQqaY6Uph4IZvBShA=", "properties": {"@spider": "usps_collection_boxes", "addr:city": "KENNEWICK", "addr:country": "US", "addr:full": "500 N MORAIN ST", "addr:postcode": "99336", "addr:state": "WA", "brand": "USPS", "collection_times": "Mo-Sa 13:00", "name": "USPS COLLECTION BOX - BLUE BOX", "note": "ON 12/24 AND 12/31, THIS BOX MAY BE COLLECTED AS EARLY AS 12 NOON.", "ref": "9933600022"}, "type": "Feature"}
{"geometry": {"coordinates": [-119.117959, 46.202772], "type": "Point"}, "id": "4G1rGDTvfqErx9CkUeY50LeMERs=", "properties": {"@spider": "usps_collection_boxes", "addr:city": "KENNEWICK", "addr:country": "US", "addr:full": "525 S AUBURN ST", "addr:postcode": "99336", "addr:state": "WA", "brand": "USPS", "collection_times": "Mo-Fr 17:00; Sa 14:45", "name": "USPS COLLECTION BOX - BLUE BOX", "note": "ON 12/24 AND 12/31, THIS BOX MAY BE COLLECTED AS EARLY AS 12 NOON.", "ref": "9933600026"}, "type": "Feature"}
{"geometry": {"coordinates": [-119.211904, 46.210453], "type": "Point"}, "id": "mCB2SE98gm2VLbzuk86e-jZkJyc=", "properties": {"@spider": "usps_collection_boxes", "addr:city": "KENNEWICK", "addr:country": "US", "addr:full": "6855 W CLEARWATER AVE", "addr:postcode": "99336", "addr:state": "WA", "brand": "USPS", "collection_times": "Mo-Fr 15:00; Sa 16:00", "name": "USPS COLLECTION BOX - BLUE BOX", "note": "ON 12/24 AND 12/31, THIS BOX MAY BE COLLECTED AS EARLY AS 12 NOON.", "ref": "9933600032"}, "type": "Feature"}
{"geometry": {"coordinates": [-119.225902, 46.217858], "type": "Point"}, "id": "21FiuzpzThf5qPT6U9PB4owIKfE=", "properties": {"@spider": "usps_collection_boxes", "addr:city": "KENNEWICK", "addr:country": "US", "addr:full": "751 N COLUMBIA CENTER BLVD", "addr:postcode": "99336", "addr:state": "WA", "brand": "USPS", "collection_times": "Mo-Fr 15:15; Sa 16:15", "name": "USPS COLLECTION BOX - BLUE BOX", "note": "ON 12/24 AND 12/31, THIS BOX MAY BE COLLECTED AS EARLY AS 12 NOON.", "ref": "9933600033"}, "type": "Feature"}
{"geometry": {"coordinates": [-119.232219, 46.222704], "type": "Point"}, "id": "320qhl8YL_WzTz2n3bweeUW9L6M=", "properties": {"@spider": "usps_collection_boxes", "addr:city": "KENNEWICK", "addr:country": "US", "addr:full": "8203 W QUINAULT AVE", "addr:postcode": "99336", "addr:state": "WA", "brand": "USPS", "collection_times": "Mo-Fr 15:45; Sa 16:30", "name": "USPS COLLECTION BOX - BLUE BOX", "note": "ON 12/24 AND 12/31, THIS BOX MAY BE COLLECTED AS EARLY AS 12 NOON.", "ref": "9933600036"}, "type": "Feature"}
{"geometry": {"coordinates": [-119.232907, 46.228044], "type": "Point"}, "id": "wTnU1azgLsqIR-Q5q1vdUTiFq7c=", "properties": {"@spider": "usps_collection_boxes", "addr:city": "KENNEWICK", "addr:country": "US", "addr:full": "8382 W GAGE BLVD", "addr:postcode": "99336", "addr:state": "WA", "brand": "USPS", "collection_times": "Mo-Sa 16:15", "name": "USPS COLLECTION BOX - BLUE BOX", "note": "ON 12/24 AND 12/31, THIS BOX MAY BE COLLECTED AS EARLY AS 12 NOON.", "ref": "9933600037"}, "type": "Feature"}
{"geometry": {"coordinates": [-119.192213, 46.213584], "type": "Point"}, "id": "FQY4KqPuf76r0jPdO8dr_aid_Tc=", "properties": {"@spider": "usps_collection_boxes", "addr:city": "KENNEWICK", "addr:country": "US", "addr:full": "5204 W CLEARWATER AVE", "addr:postcode": "99336", "addr:state": "WA", "brand": "USPS", "collection_times": "Mo-Fr 14:30; Sa 16:00", "name": "USPS COLLECTION BOX - BLUE BOX", "note": "ON 12/24 AND 12/31, THIS BOX MAY BE COLLECTED AS EARLY AS 12 NOON.", "ref": "9933600039"}, "type": "Feature"}
{"geometry": {"coordinates": [-119.118101, 46.199149], "type": "Point"}, "id": "OPYguhLBo1q1YkSrr-S2gWIc04M=", "properties": {"@spider": "usps_collection_boxes", "addr:city": "KENNEWICK", "addr:country": "US", "addr:full": "821 S AUBURN ST", "addr:postcode": "99336", "addr:state": "WA", "brand": "USPS", "collection_times": "Mo-Fr 10:30", "name": "USPS COLLECTION BOX - BLUE BOX", "ref": "9933600041"}, "type": "Feature"}
{"geometry": {"coordinates": [-119.167587, 46.211564], "type": "Point"}, "id": "l-WtO7z5nbkZh8I85KxN9jGiFLQ=", "properties": {"@spider": "usps_collection_boxes", "addr:city": "KENNEWICK", "addr:country": "US", "addr:full": "3311 W CLEARWATER AVE", "addr:postcode": "99336", "addr:state": "WA", "brand": "USPS", "collection_times": "Mo-Sa 10:00", "name": "USPS COLLECTION BOX - BLUE BOX", "ref": "9933600051"}, "type": "Feature"}
{"geometry": {"coordinates": [-119.167583, 46.211575], "type": "Point"}, "id": "qfUv_2WLJQhs9uUbqpLl6kbV-HA=", "properties": {"@spider": "usps_collection_boxes", "addr:city": "KENNEWICK", "addr:country": "US", "addr:full": "3311 W CLEARWATER AVE", "addr:postcode": "99336", "addr:state": "WA", "brand": "USPS", "collection_times": "Mo-Sa 10:00", "name": "USPS COLLECTION BOX - BLUE BOX", "ref": "9933600052"}, "type": "Feature"}
{"geometry": {"coordinates": [-119.170318, 46.215238], "type": "Point"}, "id": "rbc3oGQzOx0yK8Q3J_eVbNosndY=", "properties": {"@spider": "usps_collection_boxes", "addr:city": "KENNEWICK", "addr:country": "US", "addr:full": "500 N MORAIN ST", "addr:postcode": "99336", "addr:state": "WA", "brand": "USPS", "collection_times": "Mo-Sa 13:00", "name": "USPS COLLECTION BOX - BLUE BOX", "note": "ON 12/24 AND 12/31, THIS BOX MAY BE COLLECTED AS EARLY AS 12 NOON.", "ref": "9933600054"}, "type": "Feature"}
{"geometry": {"coordinates": [-119.117954, 46.202768], "type": "Point"}, "id": "IxL7H2ZlnSodFTTRYvF_I4qCtf8=", "properties": {"@spider": "usps_collection_boxes", "addr:city": "KENNEWICK", "addr:country": "US", "addr:full": "525 S AUBURN ST", "addr:postcode": "99336", "addr:state": "WA", "brand": "USPS", "collection_times": "Mo-Fr 17:00; Sa 14:45", "name": "USPS COLLECTION BOX - BLUE BOX", "note": "ON 12/24 AND 12/31, THIS BOX MAY BE COLLECTED AS EARLY AS 12 NOON.", "ref": "9933600056"}, "type": "Feature"}
{"geometry": {"coordinates": [-119.117954, 46.202757], "type": "Point"}, "id": "0ksHtzTVmP_bt7vcm-IQ9PVa2AY=", "properties": {"@spider": "usps_collection_boxes", "addr:city": "KENNEWICK", "addr:country": "US", "addr:full": "525 S AUBURN ST", "addr:postcode": "99336", "addr:state": "WA", "brand": "USPS", "collection_times": "Mo-Fr 17:00; Sa 14:45", "name": "USPS COLLECTION BOX - BLUE BOX", "note": "ON 12/24 AND 12/31, THIS BOX MAY BE COLLECTED AS EARLY AS 12 NOON.", "ref": "9933600057"}, "type": "Feature"}
{"geometry": {"coordinates": [-119.117956, 46.202752], "type": "Point"}, "id": "ubYD6ct80yv43x4ycXGQVOQjyd4=", "properties": {"@spider": "usps_collection_boxes", "addr:city": "KENNEWICK", "addr:country": "US", "addr:full": "525 S AUBURN ST", "addr:postcode": "99336", "addr:state": "WA", "brand": "USPS", "collection_times": "Mo-Fr 17:00; Sa 14:45", "name": "USPS COLLECTION BOX - BLUE BOX", "note": "ON 12/24 AND 12/31, THIS BOX MAY BE COLLECTED AS EARLY AS 12 NOON.", "ref": "9933600058"}, "type": "Feature"}
{"geometry": {"coordinates": [-119.164295, 46.21349], "type": "Point"}, "id": "PfPMTaR7Co-gphqOZnLOIbS_6Iw=", "properties": {"@spider": "usps_collection_boxes", "addr:city": "KENNEWICK", "addr:country": "US", "addr:full": "3180 W CLEARWATER AVE", "addr:postcode": "99336", "addr:state": "WA", "brand": "USPS", "collection_times": "Mo-Fr 10:00", "name": "USPS COLLECTION BOX - BLUE BOX", "ref": "9933600066"}, "type": "Feature"}
{"geometry": {"coordinates": [-119.223379, 46.219591], "type": "Point"}, "id": "2wBVvWOITwMP0X2yB0h3WCW82WA=", "properties": {"@spider": "usps_collection_boxes", "addr:city": "KENNEWICK", "addr:country": "US", "addr:full": "901 N COLORADO ST", "addr:postcode": "99336", "addr:state": "WA", "brand": "USPS", "collection_times": "Mo-Fr 15:15", "name": "USPS COLLECTION BOX - BLUE BOX", "note": "ON 12/24 AND 12/31, THIS BOX MAY BE COLLECTED AS EARLY AS 12 NOON.", "ref": "9933600080"}, "type": "Feature"}
{"geometry": {"coordinates": [-119.118115, 46.203011], "type": "Point"}, "id": "8VJgeDRKFn6VXxysWNwMS20TyPU=", "properties": {"@spider": "usps_collection_boxes", "addr:city": "KENNEWICK", "addr:country": "US", "addr:full": "525 S AUBURN ST", "addr:postcode": "99336", "addr:state": "WA", "brand": "USPS", "collection_times": "Mo-Fr 17:00", "name": "USPS COLLECTION BOX - PO LOBBY", "note": "ON 12/24 AND 12/31, THIS BOX MAY BE COLLECTED AS EARLY AS 12 NOON.", "ref": "9933600089"}, "type": "Feature"}
{"geometry": {"coordinates": [-119.207379, 46.211254], "type": "Point"}, "id": "iyZjRPN9vbqlCMnsU4I7X02_Wdc=", "properties": {"@spider": "usps_collection_boxes", "addr:city": "KENNEWICK", "addr:country": "US", "addr:full": "6515 W CLEARWATER AVE", "addr:postcode": "99336", "addr:state": "WA", "brand": "USPS", "collection_times": "Mo-Fr 15:00", "name": "USPS COLLECTION BOX - BLUE BOX", "note": "ON 12/24 AND 12/31, THIS BOX MAY BE COLLECTED AS EARLY AS 12 NOON.", "ref": "9933600093"}, "type": "Feature"}
{"geometry": {"coordinates": [-119.194757, 46.211845], "type": "Point"}, "id": "0-S-Bm708zQOkIg9q52i40Nr-a8=", "properties": {"@spider": "usps_collection_boxes", "addr:city": "KENNEWICK", "addr:country": "US", "addr:full": "5219 W CLEARWATER AVE", "addr:postcode": "99336", "addr:state": "WA", "brand": "USPS", "collection_times": "Mo-Fr 12:00", "name": "USPS COLLECTION BOX - BLUE BOX", "ref": "9933600094"}, "type": "Feature"}
{"geometry": {"coordinates": [-119.224303, 46.20915], "type": "Point"}, "id": "7sfnvdXiXM3UymGgoSJAuva1Sck=", "properties": {"@spider": "usps_collection_boxes", "addr:city": "KENNEWICK", "addr:country": "US", "addr:full": "7601 W CLEARWATER AVE", "addr:postcode": "99336", "addr:state": "WA", "brand": "USPS", "collection_times": "Mo-Fr 15:00; Sa 16:00", "name": "USPS COLLECTION BOX - BLUE BOX", "note": "ON 12/24 AND 12/31, THIS BOX MAY BE COLLECTED AS EARLY AS 12 NOON.", "ref": "9933600096"}, "type": "Feature"}
{"geometry": {"coordinates": [-119.161773, 46.197597], "type": "Point"}, "id": "gH6UcOqKyT9cTDROOT0OZeMN5H4=", "properties": {"@spider": "usps_collection_boxes", "addr:city": "KENNEWICK", "addr:country": "US", "addr:full": "2811 W 10TH AVE", "addr:postcode": "99336", "addr:state": "WA", "brand": "USPS", "collection_times": "Mo-Sa 15:15", "name": "USPS COLLECTION BOX - BLUE BOX", "note": "ON 12/24 AND 12/31, THIS BOX MAY BE COLLECTED AS EARLY AS 12 NOON.", "ref": "9933600097"}, "type": "Feature"}
{"geometry": {"coordinates": [-119.232885, 46.221875], "type": "Point"}, "id": "QyU_0YmWUikvTciYMJaTanGXi-U=", "properties": {"@spider": "usps_collection_boxes", "addr:city": "KENNEWICK", "addr:country": "US", "addr:full": "1009 N CENTER PKWY", "addr:postcode": "99336", "addr:state": "WA", "brand": "USPS", "collection_times": "Mo-Fr 15:45", "name": "USPS COLLECTION BOX - BLUE BOX", "note": "ON 12/24 AND 12/31, THIS BOX MAY BE COLLECTED AS EARLY AS 12 NOON.", "ref": "9933600099"}, "type": "Feature"}
{"geometry": {"coordinates": [-119.157189, 46.198185], "type": "Point"}, "id": "8t3NCUhwMVDJ6IwOT2NU7LZ_ZoE=", "properties": {"@spider": "usps_collection_boxes", "addr:city": "KENNEWICK", "addr:country": "US", "addr:full": "2721 W 10TH AVE", "addr:postcode": "99336", "addr:state": "WA", "brand": "USPS", "collection_times": "Mo-Fr 15:15", "name": "USPS COLLECTION BOX - BLUE BOX", "note": "ON 12/24 AND 12/31, THIS BOX MAY BE COLLECTED AS EARLY AS 12 NOON.", "ref": "9933600102"}, "type": "Feature"}
{"geometry": {"coordinates": [-119.227487, 46.227216], "type": "Point"}, "id": "FsTcegS6dEhTflqoyp_qqfzVNnA=", "properties": {"@spider": "usps_collection_boxes", "addr:city": "KENNEWICK", "addr:country": "US", "addr:full": "100 COLUMBIA CTR", "addr:postcode": "99336", "addr:state": "WA", "brand": "USPS", "collection_times": "Mo-Sa 16:15", "name": "USPS COLLECTION BOX - BLUE BOX", "note": "ON 12/24 AND 12/31, THIS BOX MAY BE COLLECTED AS EARLY AS 12 NOON.", "ref": "9933600103"}, "type": "Feature"}
{"geometry": {"coordinates": [-119.216721, 46.217033], "type": "Point"}, "id": "cdT7bAjn8N_kSncxpW0fjL3qytU=", "properties": {"@spider": "usps_collection_boxes", "addr:city": "KENNEWICK", "addr:country": "US", "addr:full": "7103 W GRANDRIDGE BLVD", "addr:postcode": "99336", "addr:state": "WA", "brand": "USPS", "collection_times": "Mo-Fr 15:15", "name": "USPS COLLECTION BOX - BLUE BOX", "note": "ON 12/24 AND 12/31, THIS BOX MAY BE COLLECTED AS EARLY AS 12 NOON.", "ref": "9933600106"}, "type": "Feature"}
{"geometry": {"coordinates": [-119.202617, 46.221387], "type": "Point"}, "id": "ZEhMT5QkOYyJgq6lsRCgXuSGhQI=", "properties": {"@spider": "usps_collection_boxes", "addr:city": "KENNEWICK", "addr:country": "US", "addr:full": "1029 N KELLOGG ST", "addr:postcode": "99336", "addr:state": "WA", "brand": "USPS", "collection_times": "Mo-Fr 14:45", "name": "USPS COLLECTION BOX - BLUE BOX", "note": "ON 12/24 AND 12/31, THIS BOX MAY BE COLLECTED AS EARLY AS 12 NOON.", "ref": "9933600109"}, "type": "Feature"}
{"geometry": {"coordinates": [-119.220586, 46.212312], "type": "Point"}, "id": "yQDAtmutXqtoNXHpDK_TLPPZBac=", "properties": {"@spider": "usps_collection_boxes", "addr:city": "KENNEWICK", "addr:country": "US", "addr:full": "7301 W DESCHUTES AVE", "addr:postcode": "99336", "addr:state": "WA", "brand": "USPS", "collection_times": "Mo-Fr 15:15", "name": "USPS COLLECTION BOX - BLUE BOX", "note": "ON 12/24 AND 12/31, THIS BOX MAY BE COLLECTED AS EARLY AS 12 NOON.", "ref": "9933600113"}, "type": "Feature"}
{"geometry": {"coordinates": [-119.118194, 46.202957], "type": "Point"}, "id": "FRbh7WnkxmfVLf0vElshkYNt1Ws=", "properties": {"@spider": "usps_collection_boxes", "addr:city": "KENNEWICK", "addr:country": "US", "addr:full": "525 S AUBURN ST", "addr:postcode": "99336", "addr:state": "WA", "brand": "USPS", "collection_times": "Mo-Fr 16:30; Sa 14:45", "name": "USPS COLLECTION BOX - APC", "note": "ON 12/24 AND 12/31, THIS BOX MAY BE COLLECTED AS EARLY AS 12 NOON.", "ref": "9933600114"}, "type": "Feature"}
{"geometry": {"coordinates": [-119.2157120449, 46.2227003173], "type": "Point"}, "id": "-bZiTBC5eL9j_av0IwlPEbgfwFI=", "properties": {"@spider": "usps_collection_boxes", "addr:city": "KENNEWICK", "addr:country": "US", "addr:full": "7102 W OKANOGAN PL", "addr:postcode": "99336", "addr:state": "WA", "brand": "USPS", "collection_times": "Mo-Fr 15:30", "name": "USPS COLLECTION BOX - BLUE BOX", "note": "ON 12/24 AND 12/31, THIS BOX MAY BE COLLECTED AS EARLY AS 12 NOON.", "ref": "9933600115"}, "type": "Feature"}
{"geometry": {"coordinates": [-119.216335, 46.223147], "type": "Point"}, "id": "4LA67KyYSQtc13ANFKjg_gRta8E=", "properties": {"@spider": "usps_collection_boxes", "addr:city": "KENNEWICK", "addr:country": "US", "addr:full": "7102 W OKANOGAN PL", "addr:postcode": "99336", "addr:state": "WA", "brand": "USPS", "collection_times": "Mo-Fr 15:30", "name": "USPS COLLECTION BOX - BLUE BOX", "note": "ON 12/24 AND 12/31, THIS BOX MAY BE COLLECTED AS EARLY AS 12 NOON.", "ref": "9933600116"}, "type": "Feature"}
{"geometry": {"coordinates": [-119.118462331, 46.203066], "type": "Point"}, "id": "FrUZpp_8HHenBPE1aIDGl5Uhw5g=", "properties": {"@spider": "usps_collection_boxes", "addr:city": "KENNEWICK", "addr:country": "US", "addr:full": "525 S AUBURN ST", "addr:postcode": "99336", "addr:state": "WA", "brand": "USPS", "collection_times": "Mo-Fr 16:45", "name": "USPS COLLECTION BOX - PO LOBBY", "note": "ON 12/24 AND 12/31, THIS BOX MAY BE COLLECTED AS EARLY AS 12 NOON.", "ref": "9933600127"}, "type": "Feature"}
{"geometry": {"coordinates": [-119.1740599046, 46.1827588365], "type": "Point"}, "id": "TM86Y0MiQGmi-vN1ryPromNwF0o=", "properties": {"@spider": "usps_collection_boxes", "addr:city": "KENNEWICK", "addr:country": "US", "addr:full": "2720 S QUILLAN ST", "addr:postcode": "99337", "addr:state": "WA", "brand": "USPS", "collection_times": "Mo-Sa 09:00", "name": "USPS COLLECTION BOX - BLUE BOX", "ref": "9933700001"}, "type": "Feature"}
{"geometry": {"coordinates": [-119.138923912, 46.184125466], "type": "Point"}, "id": "PL9BX52EiS-LkkC6NOsZSn6TkFw=", "properties": {"@spider": "usps_collection_boxes", "addr:city": "KENNEWICK", "addr:country": "US", "addr:full": "1410 W 27TH AVE", "addr:postcode": "99337", "addr:state": "WA", "brand": "USPS", "collection_times": "Mo-Fr 16:00; Sa 15:00", "name": "USPS COLLECTION BOX - PO LOBBY", "note": "ON 12/24 AND 12/31, THIS BOX MAY BE COLLECTED AS EARLY AS 12 NOON.", "ref": "9933700002"}, "type": "Feature"}
{"geometry": {"coordinates": [-119.006461, 46.57743], "type": "Point"}, "id": "-us7PZVlpbEk4W2U67T4FPzLtD4=", "properties": {"@spider": "usps_collection_boxes", "addr:city": "MESA", "addr:country": "US", "addr:full": "111 1ST AVE", "addr:postcode": "99343", "addr:state": "WA", "brand": "USPS", "collection_times": "Mo-Sa 14:30", "name": "USPS COLLECTION BOX - BLUE BOX", "note": "ON 12/24 AND 12/31, THIS BOX MAY BE COLLECTED AS EARLY AS 12 NOON.", "ref": "9934300001"}, "type": "Feature"}
{"geometry": {"coordinates": [-119.143646, 46.59142], "type": "Point"}, "id": "E1KgY4JUgn5hD6Cn0kb9HdVyTEI=", "properties": {"@spider": "usps_collection_boxes", "addr:city": "MESA", "addr:country": "US", "addr:full": "50 N CANAL BLVD", "addr:postcode": "99343", "addr:state": "WA", "brand": "USPS", "collection_times": "Mo-Sa 10:00", "name": "USPS COLLECTION BOX - BLUE BOX", "ref": "9934300002"}, "type": "Feature"}
{"geometry": {"coordinates": [-119.006461, 46.57743], "type": "Point"}, "id": "kfFFziVPiXWeD4C717VTF7q46uw=", "properties": {"@spider": "usps_collection_boxes", "addr:city": "MESA", "addr:country": "US", "addr:full": "111 1ST AVE", "addr:postcode": "99343", "addr:state": "WA", "brand": "USPS", "collection_times": "Mo-Fr 14:30; Sa 09:00", "name": "USPS COLLECTION BOX - PO LOBBY", "note": "ON 12/24 AND 12/31, THIS BOX MAY BE COLLECTED AS EARLY AS 12 NOON.", "ref": "9934300003"}, "type": "Feature"}
{"geometry": {"coordinates": [-119.0067700466, 46.5774306706], "type": "Point"}, "id": "FCZvXwqXbfXlv1kUt_x8ROixGHo=", "properties": {"@spider": "usps_collection_boxes", "addr:city": "MESA", "addr:country": "US", "addr:full": "111 FIRST AVE", "addr:postcode": "99343", "addr:state": "WA", "brand": "USPS", "collection_times": "Mo-Fr 14:30", "name": "USPS COLLECTION BOX - PO LOBBY", "note": "ON 12/24 AND 12/31, THIS BOX MAY BE COLLECTED AS EARLY AS 12 NOON.", "ref": "9934300004"}, "type": "Feature"}
{"geometry": {"coordinates": [-119.608608, 45.939188], "type": "Point"}, "id": "woXkQ6mDNPUeHWWxSEIN1ixYGbs=", "properties": {"@spider": "usps_collection_boxes", "addr:city": "PATERSON", "addr:country": "US", "addr:full": "48801 W PRIOR AVE", "addr:postcode": "99345", "addr:state": "WA", "brand": "USPS", "collection_times": "Mo-Fr 14:15; Sa 11:00", "name": "USPS COLLECTION BOX - BLUE BOX", "note": "ON 12/24 AND 12/31, THIS BOX MAY BE COLLECTED AS EARLY AS 12 NOON.", "ref": "9934500001"}, "type": "Feature"}
{"geometry": {"coordinates": [-119.608608, 45.939188], "type": "Point"}, "id": "fOUIwjkxA2bt9DP581GIvsHTktQ=", "properties": {"@spider": "usps_collection_boxes", "addr:city": "PATERSON", "addr:country": "US", "addr:full": "48801 W PRIOR AVE", "addr:postcode": "99345", "addr:state": "WA", "brand": "USPS", "collection_times": "Mo-Fr 14:15; Sa 11:00", "name": "USPS COLLECTION BOX - PO LOBBY", "note": "ON 12/24 AND 12/31, THIS BOX MAY BE COLLECTED AS EARLY AS 12 NOON.", "ref": "9934500002"}, "type": "Feature"}
{"geometry": {"coordinates": [-119.602901432, 45.940411277], "type": "Point"}, "id": "y0R1xx2131GQPKWJrOi8Ezbv2vE=", "properties": {"@spider": "usps_collection_boxes", "addr:city": "PATERSON", "addr:country": "US", "addr:full": "48801 W PRIOR AVE", "addr:postcode": "99345", "addr:state": "WA", "brand": "USPS", "collection_times": "Mo-Fr 14:30", "name": "USPS COLLECTION BOX - PO LOBBY", "note": "ON 12/24 AND 12/31, THIS BOX MAY BE COLLECTED AS EARLY AS 12 NOON.", "ref": "9934500003"}, "type": "Feature"}
{"geometry": {"coordinates": [-119.351738, 45.936422], "type": "Point"}, "id": "lgbOSOhXQe9hxRRSpxtDszlCi9I=", "properties": {"@spider": "usps_collection_boxes", "addr:city": "PLYMOUTH", "addr:country": "US", "addr:full": "72304 SE 3RD AVE", "addr:postcode": "99346", "addr:state": "WA", "brand": "USPS", "collection_times": "Mo-Fr 14:45; Sa 07:45", "name": "USPS COLLECTION BOX - BLUE BOX", "note": "ON 12/24 AND 12/31, THIS BOX MAY BE COLLECTED AS EARLY AS 12 NOON.", "ref": "9934600001"}, "type": "Feature"}
{"geometry": {"coordinates": [-119.351705, 45.936398], "type": "Point"}, "id": "dLmhokaj-zTywFAANCL0vmgyo0s=", "properties": {"@spider": "usps_collection_boxes", "addr:city": "PLYMOUTH", "addr:country": "US", "addr:full": "72304 SE 3RD AVE", "addr:postcode": "99346", "addr:state": "WA", "brand": "USPS", "collection_times": "Mo-Fr 11:45; Sa 07:45", "name": "USPS COLLECTION BOX - PO LOBBY", "ref": "9934600002"}, "type": "Feature"}
{"geometry": {"coordinates": [-119.351662738, 45.936435435], "type": "Point"}, "id": "aPDBTi8WFHip9JzJfv1mTl68Blw=", "properties": {"@spider": "usps_collection_boxes", "addr:city": "PLYMOUTH", "addr:country": "US", "addr:full": "72304 SE 3RD AVE", "addr:postcode": "99346", "addr:state": "WA", "brand": "USPS", "collection_times": "Mo-Fr 12:00", "name": "USPS COLLECTION BOX - PO LOBBY", "ref": "9934600003"}, "type": "Feature"}
{"geometry": {"coordinates": [-118.721095, 46.311016], "type": "Point"}, "id": "YMub30PoAon6ZEjL66p70pJ7B_0=", "properties": {"@spider": "usps_collection_boxes", "addr:city": "PRESCOTT", "addr:country": "US", "addr:full": "300 FISHOOK PARK RD", "addr:postcode": "99348", "addr:state": "WA", "brand": "USPS", "collection_times": "Mo-Sa 09:15", "name": "USPS COLLECTION BOX - BLUE BOX", "ref": "9934800002"}, "type": "Feature"}
{"geometry": {"coordinates": [-119.788534, 46.220806], "type": "Point"}, "id": "iq0Jbh-J1indDv3aU7aImPttELE=", "properties": {"@spider": "usps_collection_boxes", "addr:city": "PROSSER", "addr:country": "US", "addr:full": "101 MERLOT DR", "addr:postcode": "99350", "addr:state": "WA", "brand": "USPS", "collection_times": "Mo-Sa 09:30", "name": "USPS COLLECTION BOX - BLUE BOX", "ref": "9935000001"}, "type": "Feature"}
{"geometry": {"coordinates": [-119.770731, 46.204262], "type": "Point"}, "id": "FtzRwsecQfJeJZkoe1EbU8_KVM8=", "properties": {"@spider": "usps_collection_boxes", "addr:city": "PROSSER", "addr:country": "US", "addr:full": "1103 MEADE AVE", "addr:postcode": "99350", "addr:state": "WA", "brand": "USPS", "collection_times": "Mo-Sa 15:15", "name": "USPS COLLECTION BOX - PO LOBBY", "note": "ON 12/24 AND 12/31, THIS BOX MAY BE COLLECTED AS EARLY AS 12 NOON.", "ref": "9935000007"}, "type": "Feature"}
{"geometry": {"coordinates": [-119.770731, 46.204262], "type": "Point"}, "id": "R6Sr5-NEN_pEycTu2qyMZbhavTg=", "properties": {"@spider": "usps_collection_boxes", "addr:city": "PROSSER", "addr:country": "US", "addr:full": "1103 MEADE AVE", "addr:postcode": "99350", "addr:state": "WA", "brand": "USPS", "collection_times": "Mo-Sa 15:15", "name": "USPS COLLECTION BOX - BLUE BOX", "note": "ON 12/24 AND 12/31, THIS BOX MAY BE COLLECTED AS EARLY AS 12 NOON.", "ref": "9935000008"}, "type": "Feature"}
{"geometry": {"coordinates": [-119.770748613, 46.204204145], "type": "Point"}, "id": "U6DdfkZmmQV2fGzJYnP1QbgJBio=", "properties": {"@spider": "usps_collection_boxes", "addr:city": "PROSSER", "addr:country": "US", "addr:full": "1103 MEADE AVE", "addr:postcode": "99350", "addr:state": "WA", "brand": "USPS", "collection_times": "Mo-Fr 15:30", "name": "USPS COLLECTION BOX - PO LOBBY", "note": "ON 12/24 AND 12/31, THIS BOX MAY BE COLLECTED AS EARLY AS 12 NOON.", "ref": "9935000010"}, "type": "Feature"}
{"geometry": {"coordinates": [-119.26692, 46.227176], "type": "Point"}, "id": "ZLZ4bKT6ULTagk2dhOtpKI7zNeY=", "properties": {"@spider": "usps_collection_boxes", "addr:city": "RICHLAND", "addr:country": "US", "addr:full": "690 GAGE BLVD", "addr:postcode": "99352", "addr:state": "WA", "brand": "USPS", "collection_times": "Mo-Sa 11:00", "name": "USPS COLLECTION BOX - BLUE BOX", "ref": "9935200012"}, "type": "Feature"}
{"geometry": {"coordinates": [-119.276779, 46.273778], "type": "Point"}, "id": "QZPUDm7_xhcAaKKlDQucPhUqxTc=", "properties": {"@spider": "usps_collection_boxes", "addr:city": "RICHLAND", "addr:country": "US", "addr:full": "639 CULLUM AVE", "addr:postcode": "99352", "addr:state": "WA", "brand": "USPS", "collection_times": "Mo-Fr 16:30; Sa 14:00", "name": "USPS COLLECTION BOX - PO LOBBY", "note": "ON 12/24 AND 12/31, THIS BOX MAY BE COLLECTED AS EARLY AS 12 NOON.", "ref": "9935200016"}, "type": "Feature"}
{"geometry": {"coordinates": [-119.282598, 46.280835], "type": "Point"}, "id": "LDTcerKxGh1-zZMIVyeiOfpAgQs=", "properties": {"@spider": "usps_collection_boxes", "addr:city": "RICHLAND", "addr:country": "US", "addr:full": "888 SWIFT BLVD", "addr:postcode": "99352", "addr:state": "WA", "brand": "USPS", "collection_times": "Mo-Sa 15:00", "name": "USPS COLLECTION BOX - BLUE BOX", "note": "ON 12/24 AND 12/31, THIS BOX MAY BE COLLECTED AS EARLY AS 12 NOON.", "ref": "9935200023"}, "type": "Feature"}
{"geometry": {"coordinates": [-119.274012419, 46.27661351], "type": "Point"}, "id": "_aTirpFqG-5oRJpzZ0kfvBNcoxM=", "properties": {"@spider": "usps_collection_boxes", "addr:city": "RICHLAND", "addr:country": "US", "addr:full": "503 KNIGHT ST", "addr:postcode": "99352", "addr:state": "WA", "brand": "USPS", "collection_times": "Mo-Sa 14:00", "name": "USPS COLLECTION BOX - BLUE BOX", "note": "ON 12/24 AND 12/31, THIS BOX MAY BE COLLECTED AS EARLY AS 12 NOON.", "ref": "9935200033"}, "type": "Feature"}
{"geometry": {"coordinates": [-119.276779, 46.273778], "type": "Point"}, "id": "oW6D0mzdLsZyCaR4KrjK_CK5bCI=", "properties": {"@spider": "usps_collection_boxes", "addr:city": "RICHLAND", "addr:country": "US", "addr:full": "639 CULLUM AVE", "addr:postcode": "99352", "addr:state": "WA", "brand": "USPS", "collection_times": "Mo-Fr 16:30; Sa 14:00", "name": "USPS COLLECTION BOX - BLUE BOX", "note": "ON 12/24 AND 12/31, THIS BOX MAY BE COLLECTED AS EARLY AS 12 NOON.", "ref": "9935200039"}, "type": "Feature"}
{"geometry": {"coordinates": [-119.269022, 46.26889], "type": "Point"}, "id": "F1VLzGdBcS9waTN2btLBdrTBdiI=", "properties": {"@spider": "usps_collection_boxes", "addr:city": "RICHLAND", "addr:country": "US", "addr:full": "303 BRADLEY BLVD", "addr:postcode": "99352", "addr:state": "WA", "brand": "USPS", "collection_times": "Mo-Fr 15:00", "name": "USPS COLLECTION BOX - BLUE BOX", "note": "ON 12/24 AND 12/31, THIS BOX MAY BE COLLECTED AS EARLY AS 12 NOON.", "ref": "9935200054"}, "type": "Feature"}
{"geometry": {"coordinates": [-119.267033, 46.22771], "type": "Point"}, "id": "mbz617EkbnIGOAMxzRJRctUcHVM=", "properties": {"@spider": "usps_collection_boxes", "addr:city": "RICHLAND", "addr:country": "US", "addr:full": "690 GAGE BLVD", "addr:postcode": "99352", "addr:state": "WA", "brand": "USPS", "collection_times": "Mo-Sa 11:00", "name": "USPS COLLECTION BOX - BLUE BOX", "ref": "9935200060"}, "type": "Feature"}
{"geometry": {"coordinates": [-119.299325, 46.247066], "type": "Point"}, "id": "xuHgSAN7TY8AJutcv2Tv3JaxMHs=", "properties": {"@spider": "usps_collection_boxes", "addr:city": "RICHLAND", "addr:country": "US", "addr:full": "1950 KEENE RD", "addr:postcode": "99352", "addr:state": "WA", "brand": "USPS", "collection_times": "Mo-Fr 12:00; Sa 12:30", "name": "USPS COLLECTION BOX - BLUE BOX", "note": "ON 12/24 AND 12/31, THIS BOX MAY BE COLLECTED AS EARLY AS 12 NOON.", "ref": "9935200061"}, "type": "Feature"}
{"geometry": {"coordinates": [-119.276779, 46.273778], "type": "Point"}, "id": "5pdWiCuSUpCFXPwOUNGAh17TZT8=", "properties": {"@spider": "usps_collection_boxes", "addr:city": "RICHLAND", "addr:country": "US", "addr:full": "639 CULLUM AVE", "addr:postcode": "99352", "addr:state": "WA", "brand": "USPS", "collection_times": "Mo-Fr 16:30; Sa 14:00", "name": "USPS COLLECTION BOX - BLUE BOX", "note": "ON 12/24 AND 12/31, THIS BOX MAY BE COLLECTED AS EARLY AS 12 NOON.", "ref": "9935200064"}, "type": "Feature"}
{"geometry": {"coordinates": [-119.276781722, 46.273772042], "type": "Point"}, "id": "qKbMJzvpd333hDEwHL2eUfrI5ik=", "properties": {"@spider": "usps_collection_boxes", "addr:city": "RICHLAND", "addr:country": "US", "addr:full": "639 CULLUM AVE", "addr:postcode": "99352", "addr:state": "WA", "brand": "USPS", "collection_times": "Mo-Fr 16:30; Sa 14:00", "name": "USPS COLLECTION BOX - PO LOBBY", "note": "ON 12/24 AND 12/31, THIS BOX MAY BE COLLECTED AS EARLY AS 12 NOON.", "ref": "9935200067"}, "type": "Feature"}
{"geometry": {"coordinates": [-119.351894, 46.301303], "type": "Point"}, "id": "ogOAXflZOHshBOJZvrv1KkGlWhc=", "properties": {"@spider": "usps_collection_boxes", "addr:city": "WEST RICHLAND", "addr:country": "US", "addr:full": "4801 W VAN GIESEN ST", "addr:postcode": "99353", "addr:state": "WA", "brand": "USPS", "collection_times": "Mo-Sa 16:00", "name": "USPS COLLECTION BOX - BLUE BOX", "note": "ON 12/24 AND 12/31, THIS BOX MAY BE COLLECTED AS EARLY AS 12 NOON.", "ref": "9935300003"}, "type": "Feature"}
{"geometry": {"coordinates": [-119.351774, 46.301115], "type": "Point"}, "id": "sfU6zuHwMtC3aZxdwdPGuFPxEDY=", "properties": {"@spider": "usps_collection_boxes", "addr:city": "WEST RICHLAND", "addr:country": "US", "addr:full": "4801 W VAN GIESEN ST", "addr:postcode": "99353", "addr:state": "WA", "brand": "USPS", "collection_times": "Mo-Sa 16:00", "name": "USPS COLLECTION BOX - PO LOBBY", "note": "ON 12/24 AND 12/31, THIS BOX MAY BE COLLECTED AS EARLY AS 12 NOON.", "ref": "9935300004"}, "type": "Feature"}
{"geometry": {"coordinates": [-119.351569, 46.287376], "type": "Point"}, "id": "OdnReRXcHLNepS_AenBioVtU0wY=", "properties": {"@spider": "usps_collection_boxes", "addr:city": "WEST RICHLAND", "addr:country": "US", "addr:full": "1401 BOMBING RANGE RD", "addr:postcode": "99353", "addr:state": "WA", "brand": "USPS", "collection_times": "Mo-Sa 15:00", "name": "USPS COLLECTION BOX - BLUE BOX", "note": "ON 12/24 AND 12/31, THIS BOX MAY BE COLLECTED AS EARLY AS 12 NOON.", "ref": "9935300005"}, "type": "Feature"}
{"geometry": {"coordinates": [-119.350068421, 46.287847408], "type": "Point"}, "id": "Wy6chdoxdrHQ9Fe5at7V1C8OvBs=", "properties": {"@spider": "usps_collection_boxes", "addr:city": "WEST RICHLAND", "addr:country": "US", "addr:full": "1401 BOMBING RANGE RD", "addr:postcode": "99353", "addr:state": "WA", "brand": "USPS", "collection_times": "Mo-Sa 15:00", "name": "USPS COLLECTION BOX - PO LOBBY", "note": "ON 12/24 AND 12/31, THIS BOX MAY BE COLLECTED AS EARLY AS 12 NOON.", "ref": "9935300006"}, "type": "Feature"}
{"geometry": {"coordinates": [-119.349865143, 46.300789268], "type": "Point"}, "id": "J74wcjku_ZpBRQIbHszPoseRE3I=", "properties": {"@spider": "usps_collection_boxes", "addr:city": "WEST RICHLAND", "addr:country": "US", "addr:full": "4801 W VAN GIESEN ST", "addr:postcode": "99353", "addr:state": "WA", "brand": "USPS", "collection_times": "Mo-Fr 16:00", "name": "USPS COLLECTION BOX - PO LOBBY", "note": "ON 12/24 AND 12/31, THIS BOX MAY BE COLLECTED AS EARLY AS 12 NOON.", "ref": "9935300007"}, "type": "Feature"}
{"geometry": {"coordinates": [-119.279943, 46.341785], "type": "Point"}, "id": "gUMk5G13apDawNRrbFPbDyHUlhU=", "properties": {"@spider": "usps_collection_boxes", "addr:city": "RICHLAND", "addr:country": "US", "addr:full": "3051 EINSTEIN AVE", "addr:postcode": "99354", "addr:state": "WA", "brand": "USPS", "collection_times": "Mo-Fr 14:00", "name": "USPS COLLECTION BOX - BLUE BOX", "note": "ON 12/24 AND 12/31, THIS BOX MAY BE COLLECTED AS EARLY AS 12 NOON.", "ref": "9935400000"}, "type": "Feature"}
{"geometry": {"coordinates": [-119.275307, 46.286513], "type": "Point"}, "id": "CYFLQiDIY08Q-aYmJs66VgqsIDM=", "properties": {"@spider": "usps_collection_boxes", "addr:city": "RICHLAND", "addr:country": "US", "addr:full": "1301 GEORGE WASHINGTON WAY", "addr:postcode": "99354", "addr:state": "WA", "brand": "USPS", "collection_times": "Mo-Sa 14:00", "name": "USPS COLLECTION BOX - BLUE BOX", "note": "ON 12/24 AND 12/31, THIS BOX MAY BE COLLECTED AS EARLY AS 12 NOON.", "ref": "9935400004"}, "type": "Feature"}
{"geometry": {"coordinates": [-119.273904, 46.300692], "type": "Point"}, "id": "g8XUwpdoF1S9jbfcBBT3oAKVwLQ=", "properties": {"@spider": "usps_collection_boxes", "addr:city": "RICHLAND", "addr:country": "US", "addr:full": "1906 GEORGE WASHINGTON WAY", "addr:postcode": "99354", "addr:state": "WA", "brand": "USPS", "collection_times": "Mo-Fr 14:00; Sa 12:15", "name": "USPS COLLECTION BOX - BLUE BOX", "note": "ON 12/24 AND 12/31, THIS BOX MAY BE COLLECTED AS EARLY AS 12 NOON.", "ref": "9935400007"}, "type": "Feature"}
{"geometry": {"coordinates": [-119.298496, 46.293002], "type": "Point"}, "id": "Pa2m3h0f-nMcPBOKkH2x8Y-_O0s=", "properties": {"@spider": "usps_collection_boxes", "addr:city": "RICHLAND", "addr:country": "US", "addr:full": "2143 VAN GIESEN ST", "addr:postcode": "99354", "addr:state": "WA", "brand": "USPS", "collection_times": "Mo-Sa 14:00", "name": "USPS COLLECTION BOX - BLUE BOX", "note": "ON 12/24 AND 12/31, THIS BOX MAY BE COLLECTED AS EARLY AS 12 NOON.", "ref": "9935400009"}, "type": "Feature"}
{"geometry": {"coordinates": [-119.279071, 46.294019], "type": "Point"}, "id": "xt0VJ4IybR0fywBbNAkuAhtCEok=", "properties": {"@spider": "usps_collection_boxes", "addr:city": "RICHLAND", "addr:country": "US", "addr:full": "1540 JADWIN AVE", "addr:postcode": "99354", "addr:state": "WA", "brand": "USPS", "collection_times": "Mo-Sa 09:00", "name": "USPS COLLECTION BOX - BLUE BOX", "ref": "9935400010"}, "type": "Feature"}
{"geometry": {"coordinates": [-120.2168975221, 45.7440658704], "type": "Point"}, "id": "-saew7gS-KFIekd94qYQQzcmm1s=", "properties": {"@spider": "usps_collection_boxes", "addr:city": "ROOSEVELT", "addr:country": "US", "addr:full": "222 FRONTAGE RD", "addr:postcode": "99356", "addr:state": "WA", "brand": "USPS", "collection_times": "Mo-Fr 13:35; Sa 12:00", "name": "USPS COLLECTION BOX - BLUE BOX", "note": "ON 12/24 AND 12/31, THIS BOX MAY BE COLLECTED AS EARLY AS 12 NOON.", "ref": "9935600001"}, "type": "Feature"}
{"geometry": {"coordinates": [-120.217989, 45.743803], "type": "Point"}, "id": "w72gfTdSSOLHugGiRqDDCuIW9Ek=", "properties": {"@spider": "usps_collection_boxes", "addr:city": "ROOSEVELT", "addr:country": "US", "addr:full": "222 FRONTAGE RD", "addr:postcode": "99356", "addr:state": "WA", "brand": "USPS", "collection_times": "Mo-Fr 13:35; Sa 09:00", "name": "USPS COLLECTION BOX - PO LOBBY", "note": "ON 12/24 AND 12/31, THIS BOX MAY BE COLLECTED AS EARLY AS 12 NOON.", "ref": "9935600002"}, "type": "Feature"}
{"geometry": {"coordinates": [-120.216902363, 45.744058126], "type": "Point"}, "id": "5ixEJ2GpY5HkB2g0lW7zf4T8d-U=", "properties": {"@spider": "usps_collection_boxes", "addr:city": "ROOSEVELT", "addr:country": "US", "addr:full": "222 FRONTAGE RD", "addr:postcode": "99356", "addr:state": "WA", "brand": "USPS", "collection_times": "Mo-Fr 13:30", "name": "USPS COLLECTION BOX - PO LOBBY", "note": "ON 12/24 AND 12/31, THIS BOX MAY BE COLLECTED AS EARLY AS 12 NOON.", "ref": "9935600003"}, "type": "Feature"}
{"geometry": {"coordinates": [-118.66924, 46.041029], "type": "Point"}, "id": "raxTIjdsrho8CW8-QPW8w0yab3I=", "properties": {"@spider": "usps_collection_boxes", "addr:city": "TOUCHET", "addr:country": "US", "addr:full": "69 TOUCHET NORTH RD", "addr:postcode": "99360", "addr:state": "WA", "brand": "USPS", "collection_times": "Mo-Fr 14:30; Sa 09:30", "name": "USPS COLLECTION BOX - BLUE BOX", "note": "ON 12/24 AND 12/31, THIS BOX MAY BE COLLECTED AS EARLY AS 12 NOON.", "ref": "9936000001"}, "type": "Feature"}
{"geometry": {"coordinates": [-118.66924, 46.041029], "type": "Point"}, "id": "YBRjCNtEa3Y8pnthTLryDgMfbXs=", "properties": {"@spider": "usps_collection_boxes", "addr:city": "TOUCHET", "addr:country": "US", "addr:full": "69 TOUCHET NORTH RD", "addr:postcode": "99360", "addr:state": "WA", "brand": "USPS", "collection_times": "Mo-Fr 11:30; Sa 09:30", "name": "USPS COLLECTION BOX - PO LOBBY", "ref": "9936000002"}, "type": "Feature"}
{"geometry": {"coordinates": [-118.585789, 46.056437], "type": "Point"}, "id": "ppNl4TOWrThKaKQOk9epcKaLoKA=", "properties": {"@spider": "usps_collection_boxes", "addr:city": "TOUCHET", "addr:country": "US", "addr:full": "12020 W HIGHWAY 12", "addr:postcode": "99360", "addr:state": "WA", "brand": "USPS", "collection_times": "Mo-Sa 14:30", "name": "USPS COLLECTION BOX - BLUE BOX", "note": "ON 12/24 AND 12/31, THIS BOX MAY BE COLLECTED AS EARLY AS 12 NOON.", "ref": "9936000003"}, "type": "Feature"}
{"geometry": {"coordinates": [-118.669243572, 46.04112], "type": "Point"}, "id": "zc8DAV8n4f1FVvjDsZtqp4GKT8w=", "properties": {"@spider": "usps_collection_boxes", "addr:city": "TOUCHET", "addr:country": "US", "addr:full": "69 TOUCHET NORTH RD", "addr:postcode": "99360", "addr:state": "WA", "brand": "USPS", "collection_times": "Mo-Fr 11:30; Sa 09:30", "name": "USPS COLLECTION BOX - PO LOBBY", "ref": "9936000004"}, "type": "Feature"}
{"geometry": {"coordinates": [-118.90791, 46.082548], "type": "Point"}, "id": "tgN8cW_qgUEuHFeCryEMIYwq-Uw=", "properties": {"@spider": "usps_collection_boxes", "addr:city": "WALLULA", "addr:country": "US", "addr:full": "150 N COLUMBIA WAY", "addr:postcode": "99363", "addr:state": "WA", "brand": "USPS", "collection_times": "Mo-Fr 14:55; Sa 08:00", "name": "USPS COLLECTION BOX - BLUE BOX", "note": "ON 12/24 AND 12/31, THIS BOX MAY BE COLLECTED AS EARLY AS 12 NOON.", "ref": "9936300001"}, "type": "Feature"}
{"geometry": {"coordinates": [-118.90795, 46.08255], "type": "Point"}, "id": "QLkVRusVSU-21zl2irluLr7iFcc=", "properties": {"@spider": "usps_collection_boxes", "addr:city": "WALLULA", "addr:country": "US", "addr:full": "150 N COLUMBIA WAY", "addr:postcode": "99363", "addr:state": "WA", "brand": "USPS", "collection_times": "Mo-Fr 11:30; Sa 08:00", "name": "USPS COLLECTION BOX - PO LOBBY", "ref": "9936300002"}, "type": "Feature"}
{"geometry": {"coordinates": [-118.907857171, 46.082370467], "type": "Point"}, "id": "HKqHQVXwGcp0JTWoQy335kCm4BM=", "properties": {"@spider": "usps_collection_boxes", "addr:city": "WALLULA", "addr:country": "US", "addr:full": "150 N COLUMBIA WAY", "addr:postcode": "99363", "addr:state": "WA", "brand": "USPS", "collection_times": "Mo-Fr 11:30", "name": "USPS COLLECTION BOX - PO LOBBY", "ref": "9936300003"}, "type": "Feature"}
