{"dataset_attributes": {"@spider": "usps_collection_boxes", "spider:collection_time": "2023-08-22T08:24:26.238206"}, "geometry": {"coordinates": [-117.132229, 46.13606], "type": "Point"}, "id": "7E6tvnw4XtnvuLyG1uv0tvMajLQ=", "properties": {"@spider": "usps_collection_boxes", "addr:city": "ANATONE", "addr:country": "US", "addr:full": "1128 FIR ST", "addr:postcode": "99401", "addr:state": "WA", "amenity": "post_box", "brand": "United States Postal Service", "brand:wikidata": "Q668687", "collection_times": "Mo-Sa 12:00", "name": "USPS COLLECTION BOX - BLUE BOX", "nsi_id": "unitedstatespostalservice-a77078", "operator": "United States Postal Service", "operator:short": "USPS", "operator:type": "public", "operator:wikidata": "Q668687", "ref": "9940100001"}, "type": "Feature"}
{"dataset_attributes": {"@spider": "usps_collection_boxes", "spider:collection_time": "2023-08-22T08:24:26.238206"}, "geometry": {"coordinates": [-117.133044536, 46.1363034], "type": "Point"}, "id": "erj-KH70U2VE5YWm6RzoI2hzAI0=", "properties": {"@spider": "usps_collection_boxes", "addr:city": "ANATONE", "addr:country": "US", "addr:full": "1128 FIR ST", "addr:postcode": "99401", "addr:state": "WA", "amenity": "post_box", "brand": "United States Postal Service", "brand:wikidata": "Q668687", "collection_times": "Mo-Sa 12:00", "name": "USPS COLLECTION BOX - PO LOBBY", "nsi_id": "unitedstatespostalservice-a77078", "operator": "United States Postal Service", "operator:short": "USPS", "operator:type": "public", "operator:wikidata": "Q668687", "ref": "9940100002"}, "type": "Feature"}
{"dataset_attributes": {"@spider": "usps_collection_boxes", "spider:collection_time": "2023-08-22T08:24:26.238206"}, "geometry": {"coordinates": [-117.056195, 46.340377], "type": "Point"}, "id": "XzOLgQbPyiACtayQpM-JZ2kkS2c=", "properties": {"@spider": "usps_collection_boxes", "addr:city": "ASOTIN", "addr:country": "US", "addr:full": "121 2ND ST", "addr:postcode": "99402", "addr:state": "WA", "amenity": "post_box", "brand": "United States Postal Service", "brand:wikidata": "Q668687", "collection_times": "Mo-Fr 16:15; Sa 11:00", "name": "USPS COLLECTION BOX - BLUE BOX", "note": "ON 12/24 AND 12/31, THIS BOX MAY BE COLLECTED AS EARLY AS 12 NOON.", "nsi_id": "unitedstatespostalservice-a77078", "operator": "United States Postal Service", "operator:short": "USPS", "operator:type": "public", "operator:wikidata": "Q668687", "ref": "9940200001"}, "type": "Feature"}
{"dataset_attributes": {"@spider": "usps_collection_boxes", "spider:collection_time": "2023-08-22T08:24:26.238206"}, "geometry": {"coordinates": [-117.056195, 46.340377], "type": "Point"}, "id": "w1JuQXSMc3uPdULDGdFQNDwCrMg=", "properties": {"@spider": "usps_collection_boxes", "addr:city": "ASOTIN", "addr:country": "US", "addr:full": "121 2ND ST", "addr:postcode": "99402", "addr:state": "WA", "amenity": "post_box", "brand": "United States Postal Service", "brand:wikidata": "Q668687", "collection_times": "Mo-Fr 16:15; Sa 11:00", "name": "USPS COLLECTION BOX - PO LOBBY", "note": "ON 12/24 AND 12/31, THIS BOX MAY BE COLLECTED AS EARLY AS 12 NOON.", "nsi_id": "unitedstatespostalservice-a77078", "operator": "United States Postal Service", "operator:short": "USPS", "operator:type": "public", "operator:wikidata": "Q668687", "ref": "9940200002"}, "type": "Feature"}
{"dataset_attributes": {"@spider": "usps_collection_boxes", "spider:collection_time": "2023-08-22T08:24:26.238206"}, "geometry": {"coordinates": [-117.054150386, 46.340162453], "type": "Point"}, "id": "BHw5Kjjs7y06e4qk-YZglHAWWqE=", "properties": {"@spider": "usps_collection_boxes", "addr:city": "ASOTIN", "addr:country": "US", "addr:full": "121 2ND ST", "addr:postcode": "99402", "addr:state": "WA", "amenity": "post_box", "brand": "United States Postal Service", "brand:wikidata": "Q668687", "collection_times": "Mo-Fr 16:15; Sa 11:00", "name": "USPS COLLECTION BOX - PO LOBBY", "note": "ON 12/24 AND 12/31, THIS BOX MAY BE COLLECTED AS EARLY AS 12 NOON.", "nsi_id": "unitedstatespostalservice-a77078", "operator": "United States Postal Service", "operator:short": "USPS", "operator:type": "public", "operator:wikidata": "Q668687", "ref": "9940200003"}, "type": "Feature"}
{"dataset_attributes": {"@spider": "usps_collection_boxes", "spider:collection_time": "2023-08-22T08:24:26.238206"}, "geometry": {"coordinates": [-117.041553, 46.417928], "type": "Point"}, "id": "Dcv4uotlppIiL7Oup2moRugTjw8=", "properties": {"@spider": "usps_collection_boxes", "addr:city": "CLARKSTON", "addr:country": "US", "addr:full": "601 3RD ST", "addr:postcode": "99403", "addr:state": "WA", "amenity": "post_box", "brand": "United States Postal Service", "brand:wikidata": "Q668687", "collection_times": "Mo-Sa 09:00", "name": "USPS COLLECTION BOX - BLUE BOX", "nsi_id": "unitedstatespostalservice-a77078", "operator": "United States Postal Service", "operator:short": "USPS", "operator:type": "public", "operator:wikidata": "Q668687", "ref": "9940300006"}, "type": "Feature"}
{"dataset_attributes": {"@spider": "usps_collection_boxes", "spider:collection_time": "2023-08-22T08:24:26.238206"}, "geometry": {"coordinates": [-117.082868, 46.388709], "type": "Point"}, "id": "Sv9KemUEQjHVheM5rsU2gEVTWq0=", "properties": {"@spider": "usps_collection_boxes", "addr:city": "CLARKSTON", "addr:country": "US", "addr:full": "2113 5TH AVE", "addr:postcode": "99403", "addr:state": "WA", "amenity": "post_box", "brand": "United States Postal Service", "brand:wikidata": "Q668687", "collection_times": "Mo-Sa 14:00", "name": "USPS COLLECTION BOX - BLUE BOX", "note": "ON 12/24 AND 12/31, THIS BOX MAY BE COLLECTED AS EARLY AS 12 NOON.", "nsi_id": "unitedstatespostalservice-a77078", "operator": "United States Postal Service", "operator:short": "USPS", "operator:type": "public", "operator:wikidata": "Q668687", "ref": "9940300007"}, "type": "Feature"}
{"dataset_attributes": {"@spider": "usps_collection_boxes", "spider:collection_time": "2023-08-22T08:24:26.238206"}, "geometry": {"coordinates": [-117.044391, 46.415079], "type": "Point"}, "id": "zuDfxlmnnBVv-1BGuaw4WuByK3w=", "properties": {"@spider": "usps_collection_boxes", "addr:city": "CLARKSTON", "addr:country": "US", "addr:full": "744 5TH ST", "addr:postcode": "99403", "addr:state": "WA", "amenity": "post_box", "brand": "United States Postal Service", "brand:wikidata": "Q668687", "collection_times": "Mo-Fr 16:15; Sa 15:45", "name": "USPS COLLECTION BOX - BLUE BOX", "note": "ON 12/24 AND 12/31, THIS BOX MAY BE COLLECTED AS EARLY AS 12 NOON.", "nsi_id": "unitedstatespostalservice-a77078", "operator": "United States Postal Service", "operator:short": "USPS", "operator:type": "public", "operator:wikidata": "Q668687", "ref": "9940300008"}, "type": "Feature"}
{"dataset_attributes": {"@spider": "usps_collection_boxes", "spider:collection_time": "2023-08-22T08:24:26.238206"}, "geometry": {"coordinates": [-117.045461, 46.414653], "type": "Point"}, "id": "9Z0hzLZ6_Bp1W6uGGl2Dg1YVUTo=", "properties": {"@spider": "usps_collection_boxes", "addr:city": "CLARKSTON", "addr:country": "US", "addr:full": "749 6TH ST", "addr:postcode": "99403", "addr:state": "WA", "amenity": "post_box", "brand": "United States Postal Service", "brand:wikidata": "Q668687", "collection_times": "Mo-Fr 16:15; Sa 15:45", "name": "USPS COLLECTION BOX - BLUE BOX", "note": "ON 12/24 AND 12/31, THIS BOX MAY BE COLLECTED AS EARLY AS 12 NOON.", "nsi_id": "unitedstatespostalservice-a77078", "operator": "United States Postal Service", "operator:short": "USPS", "operator:type": "public", "operator:wikidata": "Q668687", "ref": "9940300011"}, "type": "Feature"}
{"dataset_attributes": {"@spider": "usps_collection_boxes", "spider:collection_time": "2023-08-22T08:24:26.238206"}, "geometry": {"coordinates": [-117.04553117, 46.411128], "type": "Point"}, "id": "mjqFGAj_oUIUhU1a-YXTALKJBMU=", "properties": {"@spider": "usps_collection_boxes", "addr:city": "CLARKSTON", "addr:country": "US", "addr:full": "949 6TH ST", "addr:postcode": "99403", "addr:state": "WA", "amenity": "post_box", "brand": "United States Postal Service", "brand:wikidata": "Q668687", "collection_times": "Mo-Fr 17:00; Sa 15:30", "name": "USPS COLLECTION BOX - BLUE BOX", "note": "ON 12/24 AND 12/31, THIS BOX MAY BE COLLECTED AS EARLY AS 12 NOON.", "nsi_id": "unitedstatespostalservice-a77078", "operator": "United States Postal Service", "operator:short": "USPS", "operator:type": "public", "operator:wikidata": "Q668687", "ref": "9940300016"}, "type": "Feature"}
{"dataset_attributes": {"@spider": "usps_collection_boxes", "spider:collection_time": "2023-08-22T08:24:26.238206"}, "geometry": {"coordinates": [-117.045568, 46.411816], "type": "Point"}, "id": "c9WMY45_7RymDTQ2enpAInV5zuY=", "properties": {"@spider": "usps_collection_boxes", "addr:city": "CLARKSTON", "addr:country": "US", "addr:full": "949 6TH ST", "addr:postcode": "99403", "addr:state": "WA", "amenity": "post_box", "brand": "United States Postal Service", "brand:wikidata": "Q668687", "collection_times": "Mo-Fr 17:00; Sa 12:00", "name": "USPS COLLECTION BOX - PO LOBBY", "note": "ON 12/24 AND 12/31, THIS BOX MAY BE COLLECTED AS EARLY AS 12 NOON.", "nsi_id": "unitedstatespostalservice-a77078", "operator": "United States Postal Service", "operator:short": "USPS", "operator:type": "public", "operator:wikidata": "Q668687", "ref": "9940300021"}, "type": "Feature"}
{"dataset_attributes": {"@spider": "usps_collection_boxes", "spider:collection_time": "2023-08-22T08:24:26.238206"}, "geometry": {"coordinates": [-117.041738, 46.420942], "type": "Point"}, "id": "qodDQVrPS0RQnKmkT44UCNfiKuo=", "properties": {"@spider": "usps_collection_boxes", "addr:city": "CLARKSTON", "addr:country": "US", "addr:full": "370 BRIDGE ST", "addr:postcode": "99403", "addr:state": "WA", "amenity": "post_box", "brand": "United States Postal Service", "brand:wikidata": "Q668687", "collection_times": "Mo-Fr 16:15; Sa 15:45", "name": "USPS COLLECTION BOX - BLUE BOX", "note": "ON 12/24 AND 12/31, THIS BOX MAY BE COLLECTED AS EARLY AS 12 NOON.", "nsi_id": "unitedstatespostalservice-a77078", "operator": "United States Postal Service", "operator:short": "USPS", "operator:type": "public", "operator:wikidata": "Q668687", "ref": "9940300022"}, "type": "Feature"}
{"dataset_attributes": {"@spider": "usps_collection_boxes", "spider:collection_time": "2023-08-22T08:24:26.238206"}, "geometry": {"coordinates": [-117.04553117, 46.411128], "type": "Point"}, "id": "x7L3iSAsw97f6xJRXuCSmUO-eCc=", "properties": {"@spider": "usps_collection_boxes", "addr:city": "CLARKSTON", "addr:country": "US", "addr:full": "949 6TH ST", "addr:postcode": "99403", "addr:state": "WA", "amenity": "post_box", "brand": "United States Postal Service", "brand:wikidata": "Q668687", "collection_times": "Mo-Fr 17:00; Sa 12:00", "name": "USPS COLLECTION BOX - PO LOBBY", "note": "ON 12/24 AND 12/31, THIS BOX MAY BE COLLECTED AS EARLY AS 12 NOON.", "nsi_id": "unitedstatespostalservice-a77078", "operator": "United States Postal Service", "operator:short": "USPS", "operator:type": "public", "operator:wikidata": "Q668687", "ref": "9940300023"}, "type": "Feature"}
