{"geometry": {"coordinates": [-149.4679549112, 61.4005694094], "type": "Point"}, "id": "zoHc68FpXctfBD_ptyMMgYn2cww=", "properties": {"@spider": "usps_collection_boxes", "addr:city": "CHUGIAK", "addr:country": "US", "addr:full": "22255 DOGSLED CT", "addr:postcode": "99567", "addr:state": "AK", "brand": "USPS", "collection_times": "Mo-Fr 17:00; Sa 13:00", "name": "USPS COLLECTION BOX - BLUE BOX", "note": "ON 12/24 AND 12/31, THIS BOX MAY BE COLLECTED AS EARLY AS 12 NOON.", "ref": "9956700001"}, "type": "Feature"}
{"geometry": {"coordinates": [-149.468302, 61.400859], "type": "Point"}, "id": "E4RZ--jcWM10b0YMemRxZJhBjVQ=", "properties": {"@spider": "usps_collection_boxes", "addr:city": "CHUGIAK", "addr:country": "US", "addr:full": "22255 DOGSLED CT", "addr:postcode": "99567", "addr:state": "AK", "brand": "USPS", "collection_times": "Mo-Fr 17:00; Sa 13:00", "name": "USPS COLLECTION BOX - PO LOBBY", "note": "ON 12/24 AND 12/31, THIS BOX MAY BE COLLECTED AS EARLY AS 12 NOON.", "ref": "9956700002"}, "type": "Feature"}
{"geometry": {"coordinates": [-149.576377396, 61.324299628], "type": "Point"}, "id": "YJQWkZaesulixg06gdMcvFztCkU=", "properties": {"@spider": "usps_collection_boxes", "addr:city": "EAGLE RIVER", "addr:country": "US", "addr:full": "11471 BUSINESS BLVD", "addr:postcode": "99577", "addr:state": "AK", "brand": "USPS", "collection_times": "Mo-Fr 17:15; Sa 14:00", "name": "USPS COLLECTION BOX - BLUE BOX", "note": "ON 12/24 AND 12/31, THIS BOX MAY BE COLLECTED AS EARLY AS 12 NOON.", "ref": "9957700001"}, "type": "Feature"}
{"geometry": {"coordinates": [-149.576377396, 61.324299628], "type": "Point"}, "id": "VC152rO6LBywlHH5CsIczEqyLEg=", "properties": {"@spider": "usps_collection_boxes", "addr:city": "EAGLE RIVER", "addr:country": "US", "addr:full": "11471 BUSINESS BLVD", "addr:postcode": "99577", "addr:state": "AK", "brand": "USPS", "collection_times": "Mo-Fr 17:15; Sa 14:00", "name": "USPS COLLECTION BOX - BLUE BOX", "note": "ON 12/24 AND 12/31, THIS BOX MAY BE COLLECTED AS EARLY AS 12 NOON.", "ref": "9957700002"}, "type": "Feature"}
{"geometry": {"coordinates": [-149.576377396, 61.324299628], "type": "Point"}, "id": "H7orKk7OzxE0uT_fI4HxYKDuOS4=", "properties": {"@spider": "usps_collection_boxes", "addr:city": "EAGLE RIVER", "addr:country": "US", "addr:full": "11471 BUSINESS BLVD", "addr:postcode": "99577", "addr:state": "AK", "brand": "USPS", "collection_times": "Mo-Fr 17:15; Sa 14:00", "name": "USPS COLLECTION BOX - BLUE BOX", "note": "ON 12/24 AND 12/31, THIS BOX MAY BE COLLECTED AS EARLY AS 12 NOON.", "ref": "9957700003"}, "type": "Feature"}
{"geometry": {"coordinates": [-149.576377396, 61.3242996278], "type": "Point"}, "id": "U13e__Jf-8tDcy_zNP-dVFWTNsc=", "properties": {"@spider": "usps_collection_boxes", "addr:city": "EAGLE RIVER", "addr:country": "US", "addr:full": "11471 BUSINESS BLVD", "addr:postcode": "99577", "addr:state": "AK", "brand": "USPS", "collection_times": "Mo-Fr 17:15; Sa 14:00", "name": "USPS COLLECTION BOX - BLUE BOX", "note": "ON 12/24 AND 12/31, THIS BOX MAY BE COLLECTED AS EARLY AS 12 NOON.", "ref": "9957700005"}, "type": "Feature"}
{"geometry": {"coordinates": [-149.576377396, 61.3242996278], "type": "Point"}, "id": "rLIewhMkwoJTG2QMwCYESi9r6ks=", "properties": {"@spider": "usps_collection_boxes", "addr:city": "EAGLE RIVER", "addr:country": "US", "addr:full": "11471 BUSINESS BLVD", "addr:postcode": "99577", "addr:state": "AK", "brand": "USPS", "collection_times": "Mo-Fr 17:15; Sa 14:00", "name": "USPS COLLECTION BOX - APC", "note": "ON 12/24 AND 12/31, THIS BOX MAY BE COLLECTED AS EARLY AS 12 NOON.", "ref": "9957700012"}, "type": "Feature"}
{"geometry": {"coordinates": [-149.576377396, 61.324299628], "type": "Point"}, "id": "2rGULWX6sze5zoI3_Ze6fP_N8jA=", "properties": {"@spider": "usps_collection_boxes", "addr:city": "EAGLE RIVER", "addr:country": "US", "addr:full": "11471 BUSINESS BLVD", "addr:postcode": "99577", "addr:state": "AK", "brand": "USPS", "collection_times": "Mo-Fr 17:15; Sa 14:00", "name": "USPS COLLECTION BOX - PO LOBBY", "note": "ON 12/24 AND 12/31, THIS BOX MAY BE COLLECTED AS EARLY AS 12 NOON.", "ref": "9957700014"}, "type": "Feature"}
{"geometry": {"coordinates": [-149.133729, 60.963839], "type": "Point"}, "id": "HzcmzKO-jfiDVIHxk8rn5YLKigA=", "properties": {"@spider": "usps_collection_boxes", "addr:city": "GIRDWOOD", "addr:country": "US", "addr:full": "118 LINDBLAD AVE", "addr:postcode": "99587", "addr:state": "AK", "brand": "USPS", "collection_times": "Mo-Fr 17:00; Sa 12:00", "name": "USPS COLLECTION BOX - PO LOBBY", "note": "ON 12/24 AND 12/31, THIS BOX MAY BE COLLECTED AS EARLY AS 12 NOON.", "ref": "9958700000"}, "type": "Feature"}
{"geometry": {"coordinates": [-149.133811, 60.963819], "type": "Point"}, "id": "c430Ph7-s-vodEyHSSSNoirnWc4=", "properties": {"@spider": "usps_collection_boxes", "addr:city": "GIRDWOOD", "addr:country": "US", "addr:full": "118 LINDBLAD AVE", "addr:postcode": "99587", "addr:state": "AK", "brand": "USPS", "collection_times": "Mo-Fr 17:00; Sa 12:00", "name": "USPS COLLECTION BOX - BLUE BOX", "note": "ON 12/24 AND 12/31, THIS BOX MAY BE COLLECTED AS EARLY AS 12 NOON.", "ref": "9958700001"}, "type": "Feature"}
{"geometry": {"coordinates": [-149.133811, 60.963819], "type": "Point"}, "id": "wGVcBufJa0v6uDBkDy500qSEVYg=", "properties": {"@spider": "usps_collection_boxes", "addr:city": "GIRDWOOD", "addr:country": "US", "addr:full": "118 LINDBLAD AVE", "addr:postcode": "99587", "addr:state": "AK", "brand": "USPS", "collection_times": "Mo-Fr 17:00; Sa 12:00", "name": "USPS COLLECTION BOX - PO LOBBY", "note": "ON 12/24 AND 12/31, THIS BOX MAY BE COLLECTED AS EARLY AS 12 NOON.", "ref": "9958700002"}, "type": "Feature"}
