{"geometry": {"coordinates": [-149.624922, 60.916642], "type": "Point"}, "id": "CNXhZo7btreBJU7RuGi14LK_3M8=", "properties": {"@spider": "usps_collection_boxes", "addr:city": "HOPE", "addr:country": "US", "addr:full": "19059 LOGMAN LN", "addr:postcode": "99605", "addr:state": "AK", "brand": "USPS", "collection_times": "Mo-Sa 11:00", "name": "USPS COLLECTION BOX - PO LOBBY", "ref": "9960500002"}, "type": "Feature"}
{"geometry": {"coordinates": [-149.369334, 60.486426], "type": "Point"}, "id": "OYTwWR0maP7gn_lTX24C7sgjhDM=", "properties": {"@spider": "usps_collection_boxes", "addr:city": "MOOSE PASS", "addr:country": "US", "addr:full": "31785 POST OFFICE DR", "addr:postcode": "99631", "addr:state": "AK", "brand": "USPS", "collection_times": "Mo-Fr 16:30; Sa 11:30", "name": "USPS COLLECTION BOX - PO LOBBY", "note": "ON 12/24 AND 12/31, THIS BOX MAY BE COLLECTED AS EARLY AS 12 NOON.", "ref": "9963100001"}, "type": "Feature"}
{"geometry": {"coordinates": [-149.118333, 61.602267], "type": "Point"}, "id": "nSvW92mbKkYy2xtlX3CUx-wM-X0=", "properties": {"@spider": "usps_collection_boxes", "addr:city": "PALMER", "addr:country": "US", "addr:full": "500 S COBB ST", "addr:postcode": "99645", "addr:state": "AK", "brand": "USPS", "collection_times": "Mo-Fr 17:00; Sa 12:30", "name": "USPS COLLECTION BOX - PO LOBBY", "note": "ON 12/24 AND 12/31, THIS BOX MAY BE COLLECTED AS EARLY AS 12 NOON.", "ref": "9964500003"}, "type": "Feature"}
{"geometry": {"coordinates": [-149.118277, 61.60235], "type": "Point"}, "id": "FeSfFknji_1Tzfgt-VLfNjAPLj0=", "properties": {"@spider": "usps_collection_boxes", "addr:city": "PALMER", "addr:country": "US", "addr:full": "500 S COBB ST", "addr:postcode": "99645", "addr:state": "AK", "brand": "USPS", "collection_times": "Mo-Fr 17:00; Sa 12:30", "name": "USPS COLLECTION BOX - PO LOBBY", "note": "ON 12/24 AND 12/31, THIS BOX MAY BE COLLECTED AS EARLY AS 12 NOON.", "ref": "9964500004"}, "type": "Feature"}
{"geometry": {"coordinates": [-149.126629, 61.598374], "type": "Point"}, "id": "1hDAqjEU7o8DsD7kowgnICI5fqQ=", "properties": {"@spider": "usps_collection_boxes", "addr:city": "PALMER", "addr:country": "US", "addr:full": "664 W EVERGREEN AVE", "addr:postcode": "99645", "addr:state": "AK", "brand": "USPS", "collection_times": "Mo-Fr 13:30; Sa 12:00", "name": "USPS COLLECTION BOX - BLUE BOX", "note": "ON 12/24 AND 12/31, THIS BOX MAY BE COLLECTED AS EARLY AS 12 NOON.", "ref": "9964500005"}, "type": "Feature"}
{"geometry": {"coordinates": [-149.118277, 61.60235], "type": "Point"}, "id": "Coqhbnm5xOWk2maVqIKR1pljZqM=", "properties": {"@spider": "usps_collection_boxes", "addr:city": "PALMER", "addr:country": "US", "addr:full": "500 S COBB ST", "addr:postcode": "99645", "addr:state": "AK", "brand": "USPS", "collection_times": "Mo-Fr 17:00; Sa 12:30", "name": "USPS COLLECTION BOX - BLUE BOX", "note": "ON 12/24 AND 12/31, THIS BOX MAY BE COLLECTED AS EARLY AS 12 NOON.", "ref": "9964500008"}, "type": "Feature"}
{"geometry": {"coordinates": [-149.258083, 61.562303], "type": "Point"}, "id": "p8evN449Rnan7UITDyzkYjg2IZY=", "properties": {"@spider": "usps_collection_boxes", "addr:city": "PALMER", "addr:country": "US", "addr:full": "2500 S WOODWORTH LOOP", "addr:postcode": "99645", "addr:state": "AK", "brand": "USPS", "collection_times": "Mo-Sa 10:00", "name": "USPS COLLECTION BOX - BLUE BOX", "ref": "9964500009"}, "type": "Feature"}
{"geometry": {"coordinates": [-149.445414, 61.571951], "type": "Point"}, "id": "2Lns4F7hyGWt7sIG8KxzpqKmntU=", "properties": {"@spider": "usps_collection_boxes", "addr:city": "WASILLA", "addr:country": "US", "addr:full": "1075 S CHECK ST", "addr:postcode": "99654", "addr:state": "AK", "brand": "USPS", "collection_times": "Mo-Sa 10:00", "name": "USPS COLLECTION BOX - BLUE BOX", "ref": "9965400013"}, "type": "Feature"}
{"geometry": {"coordinates": [-149.410658, 61.57841], "type": "Point"}, "id": "D6NufdFCdvTVSnQb6Ppme9mW2-Q=", "properties": {"@spider": "usps_collection_boxes", "addr:city": "WASILLA", "addr:country": "US", "addr:full": "1501 E PARKS HWY", "addr:postcode": "99654", "addr:state": "AK", "brand": "USPS", "collection_times": "Mo-Sa 10:00", "name": "USPS COLLECTION BOX - BLUE BOX", "ref": "9965400014"}, "type": "Feature"}
{"geometry": {"coordinates": [-149.363631, 61.568296], "type": "Point"}, "id": "TgNGJ56hw2g-yDmD8Uy8qhKY4Sc=", "properties": {"@spider": "usps_collection_boxes", "addr:city": "WASILLA", "addr:country": "US", "addr:full": "1350 S SEWARD MERIDIAN PKWY", "addr:postcode": "99654", "addr:state": "AK", "brand": "USPS", "collection_times": "Mo-Sa 11:00", "name": "USPS COLLECTION BOX - BLUE BOX", "ref": "9965400015"}, "type": "Feature"}
{"geometry": {"coordinates": [-170.27672, 57.126187], "type": "Point"}, "id": "OuiXnUttbC6JM74uPFiNezNZlFs=", "properties": {"@spider": "usps_collection_boxes", "addr:city": "ST PAUL ISLAND", "addr:country": "US", "addr:full": "2000 POLOVINA TPKE", "addr:postcode": "99660", "addr:state": "AK", "brand": "USPS", "collection_times": "Mo-Sa 11:00", "name": "USPS COLLECTION BOX - PO LOBBY", "ref": "9966000001"}, "type": "Feature"}
{"geometry": {"coordinates": [-148.877498, 61.710608], "type": "Point"}, "id": "aoZOZEM1DdxbK433xV_6aQevwaM=", "properties": {"@spider": "usps_collection_boxes", "addr:city": "SUTTON", "addr:country": "US", "addr:full": "11266 N CHICKALOON WAY", "addr:postcode": "99674", "addr:state": "AK", "brand": "USPS", "collection_times": "Mo-Fr 16:00; Sa 11:00", "name": "USPS COLLECTION BOX - BLUE BOX", "note": "ON 12/24 AND 12/31, THIS BOX MAY BE COLLECTED AS EARLY AS 12 NOON.", "ref": "9967400001"}, "type": "Feature"}
{"geometry": {"coordinates": [-148.877498, 61.710608], "type": "Point"}, "id": "F6LdQpzOsFhcwmNNOHyXvheN1EU=", "properties": {"@spider": "usps_collection_boxes", "addr:city": "SUTTON", "addr:country": "US", "addr:full": "11266 N CHICKALOON WAY", "addr:postcode": "99674", "addr:state": "AK", "brand": "USPS", "collection_times": "Mo-Fr 16:00; Sa 11:00", "name": "USPS COLLECTION BOX - PO LOBBY", "note": "ON 12/24 AND 12/31, THIS BOX MAY BE COLLECTED AS EARLY AS 12 NOON.", "ref": "9967400002"}, "type": "Feature"}
{"geometry": {"coordinates": [-146.35622, 61.128109], "type": "Point"}, "id": "fwFLfqKjWDPAyMzDEZPBj9suwsU=", "properties": {"@spider": "usps_collection_boxes", "addr:city": "VALDEZ", "addr:country": "US", "addr:full": "221 TATITLEK ST", "addr:postcode": "99686", "addr:state": "AK", "brand": "USPS", "collection_times": "Mo-Sa 11:30", "name": "USPS COLLECTION BOX - EXPRESS", "ref": "9968600003"}, "type": "Feature"}
{"geometry": {"coordinates": [-146.8563120856, 61.141878194], "type": "Point"}, "id": "k9bU2NxyWsnNtnJp9Zlg_wlBgIA=", "properties": {"@spider": "usps_collection_boxes", "addr:city": "VALDEZ", "addr:country": "US", "addr:full": "221 TATITLEK ST", "addr:postcode": "99686", "addr:state": "AK", "brand": "USPS", "collection_times": "Mo-Sa 11:30", "name": "USPS COLLECTION BOX - PO LOBBY", "ref": "9968600006"}, "type": "Feature"}
{"geometry": {"coordinates": [-149.441436, 61.583188], "type": "Point"}, "id": "q29fSViJKvn8fVxzPGOntYelCtM=", "properties": {"@spider": "usps_collection_boxes", "addr:city": "WASILLA", "addr:country": "US", "addr:full": "401 N MAIN ST", "addr:postcode": "99687", "addr:state": "AK", "brand": "USPS", "collection_times": "Mo-Fr 17:30; Sa 13:00", "name": "USPS COLLECTION BOX - BLUE BOX", "note": "ON 12/24 AND 12/31, THIS BOX MAY BE COLLECTED AS EARLY AS 12 NOON.", "ref": "9968700000"}, "type": "Feature"}
{"geometry": {"coordinates": [-149.441436, 61.583189], "type": "Point"}, "id": "bCv-apVHTYW2zoFdZOhJOAy6Y-8=", "properties": {"@spider": "usps_collection_boxes", "addr:city": "WASILLA", "addr:country": "US", "addr:full": "401 N MAIN ST", "addr:postcode": "99687", "addr:state": "AK", "brand": "USPS", "collection_times": "Mo-Fr 17:30; Sa 13:00", "name": "USPS COLLECTION BOX - BLUE BOX", "note": "ON 12/24 AND 12/31, THIS BOX MAY BE COLLECTED AS EARLY AS 12 NOON.", "ref": "9968700001"}, "type": "Feature"}
{"geometry": {"coordinates": [-149.441436, 61.583189], "type": "Point"}, "id": "ldSQ3XkREyj39sRZsTqOzHlkecE=", "properties": {"@spider": "usps_collection_boxes", "addr:city": "WASILLA", "addr:country": "US", "addr:full": "401 N MAIN ST", "addr:postcode": "99687", "addr:state": "AK", "brand": "USPS", "collection_times": "Mo-Fr 17:30; Sa 13:00", "name": "USPS COLLECTION BOX - PO LOBBY", "note": "ON 12/24 AND 12/31, THIS BOX MAY BE COLLECTED AS EARLY AS 12 NOON.", "ref": "9968700002"}, "type": "Feature"}
{"geometry": {"coordinates": [-149.441436, 61.583189], "type": "Point"}, "id": "0sjEVjVsomfgXaF-Fg4qahW_0Yg=", "properties": {"@spider": "usps_collection_boxes", "addr:city": "WASILLA", "addr:country": "US", "addr:full": "401 N MAIN ST", "addr:postcode": "99687", "addr:state": "AK", "brand": "USPS", "collection_times": "Mo-Fr 17:30; Sa 13:00", "name": "USPS COLLECTION BOX - APC", "note": "ON 12/24 AND 12/31, THIS BOX MAY BE COLLECTED AS EARLY AS 12 NOON.", "ref": "9968700003"}, "type": "Feature"}
