{"geometry": {"coordinates": [-147.738451, 64.831253], "type": "Point"}, "id": "0cOJWojLXySsv3xGwtHyz_SZ0vc=", "properties": {"@spider": "usps_collection_boxes", "addr:city": "FAIRBANKS", "addr:country": "US", "addr:full": "1650 COWLES ST", "addr:postcode": "99701", "addr:state": "AK", "brand": "USPS", "collection_times": "Mo-Fr 15:45; Sa 14:00", "name": "USPS COLLECTION BOX - BLUE BOX", "note": "ON 12/24 AND 12/31, THIS BOX MAY BE COLLECTED AS EARLY AS 12 NOON.", "ref": "9970100002"}, "type": "Feature"}
{"geometry": {"coordinates": [-147.719285, 64.837822], "type": "Point"}, "id": "5DaqrXZ2ulgs63M3Q9k7awUmJco=", "properties": {"@spider": "usps_collection_boxes", "addr:city": "FAIRBANKS", "addr:country": "US", "addr:full": "600 12TH AVE", "addr:postcode": "99701", "addr:state": "AK", "brand": "USPS", "collection_times": "Mo-Fr 16:00", "name": "USPS COLLECTION BOX - BLUE BOX", "note": "ON 12/24 AND 12/31, THIS BOX MAY BE COLLECTED AS EARLY AS 12 NOON.", "ref": "9970100004"}, "type": "Feature"}
{"geometry": {"coordinates": [-147.70323, 64.848628], "type": "Point"}, "id": "KQFpDT-CQHrF9frBzawGspC49ZA=", "properties": {"@spider": "usps_collection_boxes", "addr:city": "FAIRBANKS", "addr:country": "US", "addr:full": "250 3RD ST", "addr:postcode": "99701", "addr:state": "AK", "brand": "USPS", "collection_times": "Mo-Fr 16:45; Sa 14:45", "name": "USPS COLLECTION BOX - BLUE BOX", "note": "ON 12/24 AND 12/31, THIS BOX MAY BE COLLECTED AS EARLY AS 12 NOON.", "ref": "9970100009"}, "type": "Feature"}
{"geometry": {"coordinates": [-147.701785, 64.851598], "type": "Point"}, "id": "POIbc72Vk02WHt-EFp9kQmNCpGI=", "properties": {"@spider": "usps_collection_boxes", "addr:city": "FAIRBANKS", "addr:country": "US", "addr:full": "32 COLLEGE RD", "addr:postcode": "99701", "addr:state": "AK", "brand": "USPS", "collection_times": "Mo-Fr 17:00; Sa 15:00", "name": "USPS COLLECTION BOX - BLUE BOX", "note": "ON 12/24 AND 12/31, THIS BOX MAY BE COLLECTED AS EARLY AS 12 NOON.", "ref": "9970100011"}, "type": "Feature"}
{"geometry": {"coordinates": [-147.720383, 64.843988], "type": "Point"}, "id": "_QApGK-6OiHogZFjJUPDPpOeAMY=", "properties": {"@spider": "usps_collection_boxes", "addr:city": "FAIRBANKS", "addr:country": "US", "addr:full": "550 1ST AVE", "addr:postcode": "99701", "addr:state": "AK", "brand": "USPS", "collection_times": "Mo-Fr 16:30; Sa 14:30", "name": "USPS COLLECTION BOX - BLUE BOX", "note": "ON 12/24 AND 12/31, THIS BOX MAY BE COLLECTED AS EARLY AS 12 NOON.", "ref": "9970100013"}, "type": "Feature"}
{"geometry": {"coordinates": [-147.720889, 64.846136], "type": "Point"}, "id": "wJrX6I87DqdDTnuVluCamsuBWWA=", "properties": {"@spider": "usps_collection_boxes", "addr:city": "FAIRBANKS", "addr:country": "US", "addr:full": "119 N CUSHMAN ST", "addr:postcode": "99701", "addr:state": "AK", "brand": "USPS", "collection_times": "Mo-Fr 16:45", "name": "USPS COLLECTION BOX - BLUE BOX", "note": "ON 12/24 AND 12/31, THIS BOX MAY BE COLLECTED AS EARLY AS 12 NOON.", "ref": "9970100016"}, "type": "Feature"}
{"geometry": {"coordinates": [-147.742301, 64.829952], "type": "Point"}, "id": "PdNYPPX0wHACZHBCo7iklJbR5vY=", "properties": {"@spider": "usps_collection_boxes", "addr:city": "FAIRBANKS", "addr:country": "US", "addr:full": "1919 LATHROP ST", "addr:postcode": "99701", "addr:state": "AK", "brand": "USPS", "collection_times": "Mo-Fr 15:45", "name": "USPS COLLECTION BOX - BLUE BOX", "note": "ON 12/24 AND 12/31, THIS BOX MAY BE COLLECTED AS EARLY AS 12 NOON.", "ref": "9970100018"}, "type": "Feature"}
{"geometry": {"coordinates": [-147.72279, 64.840484], "type": "Point"}, "id": "xFEnkPJDiLFrA37hYAra4rUykcE=", "properties": {"@spider": "usps_collection_boxes", "addr:city": "FAIRBANKS", "addr:country": "US", "addr:full": "675 7TH AVE", "addr:postcode": "99701", "addr:state": "AK", "brand": "USPS", "collection_times": "Mo-Fr 16:30", "name": "USPS COLLECTION BOX - BLUE BOX", "note": "ON 12/24 AND 12/31, THIS BOX MAY BE COLLECTED AS EARLY AS 12 NOON.", "ref": "9970100020"}, "type": "Feature"}
{"geometry": {"coordinates": [-147.710242, 64.813661], "type": "Point"}, "id": "93Ut3F4NwtwjurVhiwtUZusg660=", "properties": {"@spider": "usps_collection_boxes", "addr:city": "FAIRBANKS", "addr:country": "US", "addr:full": "3569 S CUSHMAN ST", "addr:postcode": "99701", "addr:state": "AK", "brand": "USPS", "collection_times": "Mo-Fr 15:45; Sa 14:15", "name": "USPS COLLECTION BOX - BLUE BOX", "note": "ON 12/24 AND 12/31, THIS BOX MAY BE COLLECTED AS EARLY AS 12 NOON.", "ref": "9970100023"}, "type": "Feature"}
{"geometry": {"coordinates": [-147.722897, 64.837187], "type": "Point"}, "id": "1m2lL46f5d_T6WlJqj1VrC1W2KM=", "properties": {"@spider": "usps_collection_boxes", "addr:city": "FAIRBANKS", "addr:country": "US", "addr:full": "711 GAFFNEY RD", "addr:postcode": "99701", "addr:state": "AK", "brand": "USPS", "collection_times": "Mo-Fr 16:00", "name": "USPS COLLECTION BOX - BLUE BOX", "note": "ON 12/24 AND 12/31, THIS BOX MAY BE COLLECTED AS EARLY AS 12 NOON.", "ref": "9970100025"}, "type": "Feature"}
{"geometry": {"coordinates": [-147.712925, 64.839164], "type": "Point"}, "id": "o8E1umLgIRg8ThrLJBfTMd-It4E=", "properties": {"@spider": "usps_collection_boxes", "addr:city": "FAIRBANKS", "addr:country": "US", "addr:full": "1001 NOBLE ST", "addr:postcode": "99701", "addr:state": "AK", "brand": "USPS", "collection_times": "Mo-Fr 16:15; Sa 14:15", "name": "USPS COLLECTION BOX - BLUE BOX", "note": "ON 12/24 AND 12/31, THIS BOX MAY BE COLLECTED AS EARLY AS 12 NOON.", "ref": "9970100029"}, "type": "Feature"}
{"geometry": {"coordinates": [-147.724373, 64.842737], "type": "Point"}, "id": "ugz6lkztcgGexRWEQNMCc03ADTM=", "properties": {"@spider": "usps_collection_boxes", "addr:city": "FAIRBANKS", "addr:country": "US", "addr:full": "315 BARNETTE ST", "addr:postcode": "99701", "addr:state": "AK", "brand": "USPS", "collection_times": "Mo-Fr 17:00; Sa 14:30", "name": "USPS COLLECTION BOX - BLUE BOX", "note": "ON 12/24 AND 12/31, THIS BOX MAY BE COLLECTED AS EARLY AS 12 NOON.", "ref": "9970100056"}, "type": "Feature"}
{"geometry": {"coordinates": [-147.725269, 64.845337], "type": "Point"}, "id": "jOH5e8zjnY2ACbxqQwVnFORcaA4=", "properties": {"@spider": "usps_collection_boxes", "addr:city": "FAIRBANKS", "addr:country": "US", "addr:full": "809 PIONEER RD", "addr:postcode": "99701", "addr:state": "AK", "brand": "USPS", "collection_times": "Mo-Fr 16:45", "name": "USPS COLLECTION BOX - BLUE BOX", "note": "ON 12/24 AND 12/31, THIS BOX MAY BE COLLECTED AS EARLY AS 12 NOON.", "ref": "9970100064"}, "type": "Feature"}
{"geometry": {"coordinates": [-147.690311, 64.818483], "type": "Point"}, "id": "_je0SovCrl1rjbKOv_MioVi5ubE=", "properties": {"@spider": "usps_collection_boxes", "addr:city": "FAIRBANKS", "addr:country": "US", "addr:full": "751 OLD RICHARDSON HWY", "addr:postcode": "99701", "addr:state": "AK", "brand": "USPS", "collection_times": "Mo-Fr 16:00; Sa 14:15", "name": "USPS COLLECTION BOX - BLUE BOX", "note": "ON 12/24 AND 12/31, THIS BOX MAY BE COLLECTED AS EARLY AS 12 NOON.", "ref": "9970100066"}, "type": "Feature"}
{"geometry": {"coordinates": [-147.722844, 64.861545], "type": "Point"}, "id": "74nERPWq--UJyeSHeSyTVvZdzkY=", "properties": {"@spider": "usps_collection_boxes", "addr:city": "FAIRBANKS", "addr:country": "US", "addr:full": "300 WEDGEWOOD DR", "addr:postcode": "99701", "addr:state": "AK", "brand": "USPS", "collection_times": "Mo-Fr 17:15; Sa 15:00", "name": "USPS COLLECTION BOX - BLUE BOX", "note": "ON 12/24 AND 12/31, THIS BOX MAY BE COLLECTED AS EARLY AS 12 NOON.", "ref": "9970100069"}, "type": "Feature"}
{"geometry": {"coordinates": [-147.756379, 64.836153], "type": "Point"}, "id": "OCGCQS4GR5i-QJdosqseiYg49S4=", "properties": {"@spider": "usps_collection_boxes", "addr:city": "FAIRBANKS", "addr:country": "US", "addr:full": "1867 AIRPORT WAY", "addr:postcode": "99701", "addr:state": "AK", "brand": "USPS", "collection_times": "Mo-Fr 15:30", "name": "USPS COLLECTION BOX - BLUE BOX", "note": "ON 12/24 AND 12/31, THIS BOX MAY BE COLLECTED AS EARLY AS 12 NOON.", "ref": "9970100070"}, "type": "Feature"}
{"geometry": {"coordinates": [-147.717641, 64.84442], "type": "Point"}, "id": "EQLj7n2t0H0X4Oz3xdkpK15Jfhs=", "properties": {"@spider": "usps_collection_boxes", "addr:city": "FAIRBANKS", "addr:country": "US", "addr:full": "101 LACEY ST", "addr:postcode": "99701", "addr:state": "AK", "brand": "USPS", "collection_times": "Mo-Fr 16:30", "name": "USPS COLLECTION BOX - BLUE BOX", "note": "ON 12/24 AND 12/31, THIS BOX MAY BE COLLECTED AS EARLY AS 12 NOON.", "ref": "9970100071"}, "type": "Feature"}
{"geometry": {"coordinates": [-147.689931, 64.857139], "type": "Point"}, "id": "J2rOGs9Lggja08Uy8E0ym9MXSmY=", "properties": {"@spider": "usps_collection_boxes", "addr:city": "FAIRBANKS", "addr:country": "US", "addr:full": "537 JOHANSEN EXPY", "addr:postcode": "99701", "addr:state": "AK", "brand": "USPS", "collection_times": "Mo-Fr 17:00; Sa 14:45", "name": "USPS COLLECTION BOX - BLUE BOX", "note": "ON 12/24 AND 12/31, THIS BOX MAY BE COLLECTED AS EARLY AS 12 NOON.", "ref": "9970100072"}, "type": "Feature"}
{"geometry": {"coordinates": [-147.724373, 64.842737], "type": "Point"}, "id": "-8aVjkrlIV4D0loc2oNmXLSuw_0=", "properties": {"@spider": "usps_collection_boxes", "addr:city": "FAIRBANKS", "addr:country": "US", "addr:full": "315 BARNETTE ST", "addr:postcode": "99701", "addr:state": "AK", "brand": "USPS", "collection_times": "Mo-Fr 17:00; Sa 13:00", "name": "USPS COLLECTION BOX - PO LOBBY", "note": "ON 12/24 AND 12/31, THIS BOX MAY BE COLLECTED AS EARLY AS 12 NOON.", "ref": "9970100074"}, "type": "Feature"}
{"geometry": {"coordinates": [-147.722959, 64.842685], "type": "Point"}, "id": "ToccpXApu8Re7YpMmy7dAACPJFo=", "properties": {"@spider": "usps_collection_boxes", "addr:city": "FAIRBANKS", "addr:country": "US", "addr:full": "315 BARNETTE ST", "addr:postcode": "99701", "addr:state": "AK", "brand": "USPS", "collection_times": "Mo-Fr 17:00; Sa 14:30", "name": "USPS COLLECTION BOX - BLUE BOX", "note": "ON 12/24 AND 12/31, THIS BOX MAY BE COLLECTED AS EARLY AS 12 NOON.", "ref": "9970100076"}, "type": "Feature"}
{"geometry": {"coordinates": [-147.095447, 64.678096], "type": "Point"}, "id": "ApKqG-3KeZl3G9hbSzpfmcGizww=", "properties": {"@spider": "usps_collection_boxes", "addr:city": "FAIRBANKS", "addr:country": "US", "addr:full": "365 KODIAK ST", "addr:postcode": "99702", "addr:state": "AK", "brand": "USPS", "collection_times": "Mo-Fr 14:00; Sa 13:00", "name": "USPS COLLECTION BOX - BLUE BOX", "note": "ON 12/24 AND 12/31, THIS BOX MAY BE COLLECTED AS EARLY AS 12 NOON.", "ref": "9970200000"}, "type": "Feature"}
{"geometry": {"coordinates": [-147.095999, 64.677199], "type": "Point"}, "id": "k74cbRGOzkCJKBV0zz7I399o8v8=", "properties": {"@spider": "usps_collection_boxes", "addr:city": "FAIRBANKS", "addr:country": "US", "addr:full": "365 KODIAK ST", "addr:postcode": "99702", "addr:state": "AK", "brand": "USPS", "collection_times": "Mo-Fr 14:00", "name": "USPS COLLECTION BOX - PO LOBBY", "note": "ON 12/24 AND 12/31, THIS BOX MAY BE COLLECTED AS EARLY AS 12 NOON.", "ref": "9970200001"}, "type": "Feature"}
{"geometry": {"coordinates": [-147.642511, 64.827446], "type": "Point"}, "id": "nMvP1bHGoH7V0uUYbGmnPxZIc1o=", "properties": {"@spider": "usps_collection_boxes", "addr:city": "FAIRBANKS", "addr:country": "US", "addr:full": "3726 NEELY RD", "addr:postcode": "99703", "addr:state": "AK", "brand": "USPS", "collection_times": "Mo-Fr 16:00; Sa 12:00", "name": "USPS COLLECTION BOX - BLUE BOX", "note": "ON 12/24 AND 12/31, THIS BOX MAY BE COLLECTED AS EARLY AS 12 NOON.", "ref": "9970300001"}, "type": "Feature"}
{"geometry": {"coordinates": [-147.638896, 64.827747], "type": "Point"}, "id": "vb1NYaLf9d9JQEECtzjuLi4G4G4=", "properties": {"@spider": "usps_collection_boxes", "addr:city": "FAIRBANKS", "addr:country": "US", "addr:full": "3726 NEELY RD", "addr:postcode": "99703", "addr:state": "AK", "brand": "USPS", "collection_times": "Mo-Fr 16:00", "name": "USPS COLLECTION BOX - PO LOBBY", "note": "ON 12/24 AND 12/31, THIS BOX MAY BE COLLECTED AS EARLY AS 12 NOON.", "ref": "9970300004"}, "type": "Feature"}
{"geometry": {"coordinates": [-147.638896, 64.827747], "type": "Point"}, "id": "LpR0AdevDs5GYaIDAzcdXD5JWnM=", "properties": {"@spider": "usps_collection_boxes", "addr:city": "FAIRBANKS", "addr:country": "US", "addr:full": "3726 NEELY RD", "addr:postcode": "99703", "addr:state": "AK", "brand": "USPS", "collection_times": "Mo-Fr 16:00; Sa 12:00", "name": "USPS COLLECTION BOX - BLUE BOX", "note": "ON 12/24 AND 12/31, THIS BOX MAY BE COLLECTED AS EARLY AS 12 NOON.", "ref": "9970300005"}, "type": "Feature"}
{"geometry": {"coordinates": [-149.161643119, 64.29124682], "type": "Point"}, "id": "uTDFd79osoyO4yv38_djRhlED4E=", "properties": {"@spider": "usps_collection_boxes", "addr:city": "CLEAR", "addr:country": "US", "addr:full": "202 A ST STOP 1047", "addr:postcode": "99704", "addr:state": "AK", "brand": "USPS", "collection_times": "Mo-Fr 10:00", "name": "USPS COLLECTION BOX - BLUE BOX", "ref": "9970400000"}, "type": "Feature"}
{"geometry": {"coordinates": [-149.161643119, 64.29124682], "type": "Point"}, "id": "EeC8i5XQRA36woHsXq64xNa43cM=", "properties": {"@spider": "usps_collection_boxes", "addr:city": "CLEAR", "addr:country": "US", "addr:full": "202 A ST STOP 1047", "addr:postcode": "99704", "addr:state": "AK", "brand": "USPS", "collection_times": "Mo-Fr 10:00", "name": "USPS COLLECTION BOX - PO LOBBY", "ref": "9970400001"}, "type": "Feature"}
{"geometry": {"coordinates": [-147.348044, 64.761934], "type": "Point"}, "id": "2-zd6P7jykLVO1unTq9d7WpaNhM=", "properties": {"@spider": "usps_collection_boxes", "addr:city": "NORTH POLE", "addr:country": "US", "addr:full": "3340 BADGER RD", "addr:postcode": "99705", "addr:state": "AK", "brand": "USPS", "collection_times": "Mo-Sa 11:00", "name": "USPS COLLECTION BOX - BLUE BOX", "ref": "9970500000"}, "type": "Feature"}
{"geometry": {"coordinates": [-147.352885, 64.752717], "type": "Point"}, "id": "LYG4oxKoFOX5q1Ls3FRaxQoS4EE=", "properties": {"@spider": "usps_collection_boxes", "addr:city": "NORTH POLE", "addr:country": "US", "addr:full": "325 S SANTA CLAUS LN", "addr:postcode": "99705", "addr:state": "AK", "brand": "USPS", "collection_times": "Mo-Fr 16:00; Sa 14:00", "name": "USPS COLLECTION BOX - BLUE BOX", "note": "ON 12/24 AND 12/31, THIS BOX MAY BE COLLECTED AS EARLY AS 12 NOON.", "ref": "9970500002"}, "type": "Feature"}
{"geometry": {"coordinates": [-147.352818, 64.752628], "type": "Point"}, "id": "zA9hM23-f8dowmi7h-F6THJVMbg=", "properties": {"@spider": "usps_collection_boxes", "addr:city": "NORTH POLE", "addr:country": "US", "addr:full": "325 S SANTA CLAUS LN", "addr:postcode": "99705", "addr:state": "AK", "brand": "USPS", "collection_times": "Mo-Fr 16:00; Sa 14:00", "name": "USPS COLLECTION BOX - BLUE BOX", "note": "ON 12/24 AND 12/31, THIS BOX MAY BE COLLECTED AS EARLY AS 12 NOON.", "ref": "9970500003"}, "type": "Feature"}
{"geometry": {"coordinates": [-147.352818, 64.752628], "type": "Point"}, "id": "a_9afk0gr8KoguK4dGE8MT46mEg=", "properties": {"@spider": "usps_collection_boxes", "addr:city": "NORTH POLE", "addr:country": "US", "addr:full": "325 S SANTA CLAUS LN", "addr:postcode": "99705", "addr:state": "AK", "brand": "USPS", "collection_times": "Mo-Fr 16:00; Sa 14:00", "name": "USPS COLLECTION BOX - PO LOBBY", "note": "ON 12/24 AND 12/31, THIS BOX MAY BE COLLECTED AS EARLY AS 12 NOON.", "ref": "9970500005"}, "type": "Feature"}
{"geometry": {"coordinates": [-147.352818, 64.752628], "type": "Point"}, "id": "aXIhHjMtrGq_qBnMvhDq4mShv8g=", "properties": {"@spider": "usps_collection_boxes", "addr:city": "NORTH POLE", "addr:country": "US", "addr:full": "325 S SANTA CLAUS LN", "addr:postcode": "99705", "addr:state": "AK", "brand": "USPS", "collection_times": "Mo-Fr 16:00; Sa 14:00", "name": "USPS COLLECTION BOX - PO LOBBY", "note": "ON 12/24 AND 12/31, THIS BOX MAY BE COLLECTED AS EARLY AS 12 NOON.", "ref": "9970500009"}, "type": "Feature"}
{"geometry": {"coordinates": [-147.82957, 64.848543], "type": "Point"}, "id": "ZkyJQNvjPlWzDUpHjm_vQaZByGE=", "properties": {"@spider": "usps_collection_boxes", "addr:city": "FAIRBANKS", "addr:country": "US", "addr:full": "755 FAIRBANKS ST", "addr:postcode": "99708", "addr:state": "AK", "brand": "USPS", "collection_times": "Mo-Fr 17:30; Sa 16:00", "name": "USPS COLLECTION BOX - EXPRESS", "note": "ON 12/24 AND 12/31, THIS BOX MAY BE COLLECTED AS EARLY AS 12 NOON.", "ref": "9970800008"}, "type": "Feature"}
{"geometry": {"coordinates": [-147.82957, 64.848549], "type": "Point"}, "id": "Ze0w6OLtHxVKvEbAgF3Jodrd1Y4=", "properties": {"@spider": "usps_collection_boxes", "addr:city": "FAIRBANKS", "addr:country": "US", "addr:full": "755 FAIRBANKS ST", "addr:postcode": "99708", "addr:state": "AK", "brand": "USPS", "collection_times": "Mo-Fr 17:30; Sa 16:00", "name": "USPS COLLECTION BOX - BLUE BOX", "note": "ON 12/24 AND 12/31, THIS BOX MAY BE COLLECTED AS EARLY AS 12 NOON.", "ref": "9970800009"}, "type": "Feature"}
{"geometry": {"coordinates": [-147.82957, 64.848549], "type": "Point"}, "id": "1Lj616PTKCWqnz5Ge9c21e3MgWk=", "properties": {"@spider": "usps_collection_boxes", "addr:city": "FAIRBANKS", "addr:country": "US", "addr:full": "755 FAIRBANKS ST", "addr:postcode": "99708", "addr:state": "AK", "brand": "USPS", "collection_times": "Mo-Fr 17:30; Sa 16:00", "name": "USPS COLLECTION BOX - BLUE BOX", "note": "ON 12/24 AND 12/31, THIS BOX MAY BE COLLECTED AS EARLY AS 12 NOON.", "ref": "9970800010"}, "type": "Feature"}
{"geometry": {"coordinates": [-147.82957, 64.848549], "type": "Point"}, "id": "hjrSuEkMTbPaIXUEkvVmN5edz-Y=", "properties": {"@spider": "usps_collection_boxes", "addr:city": "FAIRBANKS", "addr:country": "US", "addr:full": "755 FAIRBANKS ST", "addr:postcode": "99708", "addr:state": "AK", "brand": "USPS", "collection_times": "Mo-Fr 17:30; Sa 16:00", "name": "USPS COLLECTION BOX - BLUE BOX", "note": "ON 12/24 AND 12/31, THIS BOX MAY BE COLLECTED AS EARLY AS 12 NOON.", "ref": "9970800011"}, "type": "Feature"}
{"geometry": {"coordinates": [-147.82957, 64.848549], "type": "Point"}, "id": "mjPR8i3hyFLgJ-2hOKlmLB0LJi8=", "properties": {"@spider": "usps_collection_boxes", "addr:city": "FAIRBANKS", "addr:country": "US", "addr:full": "755 FAIRBANKS ST", "addr:postcode": "99708", "addr:state": "AK", "brand": "USPS", "collection_times": "Mo-Fr 17:30; Sa 16:00", "name": "USPS COLLECTION BOX - PO LOBBY", "note": "ON 12/24 AND 12/31, THIS BOX MAY BE COLLECTED AS EARLY AS 12 NOON.", "ref": "9970800012"}, "type": "Feature"}
{"geometry": {"coordinates": [-147.82957, 64.848549], "type": "Point"}, "id": "RKvr4bblHWudi92Qoh1W085Q_1w=", "properties": {"@spider": "usps_collection_boxes", "addr:city": "FAIRBANKS", "addr:country": "US", "addr:full": "755 FAIRBANKS ST", "addr:postcode": "99708", "addr:state": "AK", "brand": "USPS", "collection_times": "Mo-Fr 17:30; Sa 16:00", "name": "USPS COLLECTION BOX - PO LOBBY", "note": "ON 12/24 AND 12/31, THIS BOX MAY BE COLLECTED AS EARLY AS 12 NOON.", "ref": "9970800013"}, "type": "Feature"}
{"geometry": {"coordinates": [-147.82957, 64.848549], "type": "Point"}, "id": "H2MpI8pD7KgZEhvf3dxUsQ15wOE=", "properties": {"@spider": "usps_collection_boxes", "addr:city": "FAIRBANKS", "addr:country": "US", "addr:full": "755 FAIRBANKS ST", "addr:postcode": "99708", "addr:state": "AK", "brand": "USPS", "collection_times": "Mo-Fr 17:30; Sa 16:00", "name": "USPS COLLECTION BOX - APC", "note": "ON 12/24 AND 12/31, THIS BOX MAY BE COLLECTED AS EARLY AS 12 NOON.", "ref": "9970800014"}, "type": "Feature"}
{"geometry": {"coordinates": [-147.881411, 64.814867], "type": "Point"}, "id": "IBAe5t2Mm-CkrItbJQBr_Gv5AY8=", "properties": {"@spider": "usps_collection_boxes", "addr:city": "FAIRBANKS", "addr:country": "US", "addr:full": "5400 MAIL TRL", "addr:postcode": "99709", "addr:state": "AK", "brand": "USPS", "collection_times": "Mo-Fr 18:00; Sa 16:00", "name": "USPS COLLECTION BOX - BLUE BOX", "note": "ON 12/24 AND 12/31, THIS BOX MAY BE COLLECTED AS EARLY AS 12 NOON.", "ref": "9970900005"}, "type": "Feature"}
{"geometry": {"coordinates": [-147.881411, 64.814867], "type": "Point"}, "id": "YaL9SpduxiyImIcEJg1eUlMoIz8=", "properties": {"@spider": "usps_collection_boxes", "addr:city": "FAIRBANKS", "addr:country": "US", "addr:full": "5400 MAIL TRL", "addr:postcode": "99709", "addr:state": "AK", "brand": "USPS", "collection_times": "Mo-Fr 18:00; Sa 16:00", "name": "USPS COLLECTION BOX - EXPRESS", "note": "ON 12/24 AND 12/31, THIS BOX MAY BE COLLECTED AS EARLY AS 12 NOON.", "ref": "9970900006"}, "type": "Feature"}
{"geometry": {"coordinates": [-147.881411, 64.814867], "type": "Point"}, "id": "17-sdD_wOB8XnWHaEIN-H1Iqlbs=", "properties": {"@spider": "usps_collection_boxes", "addr:city": "FAIRBANKS", "addr:country": "US", "addr:full": "5400 MAIL TRL", "addr:postcode": "99709", "addr:state": "AK", "brand": "USPS", "collection_times": "Mo-Fr 18:00; Sa 16:00", "name": "USPS COLLECTION BOX - BLUE BOX", "note": "ON 12/24 AND 12/31, THIS BOX MAY BE COLLECTED AS EARLY AS 12 NOON.", "ref": "9970900007"}, "type": "Feature"}
{"geometry": {"coordinates": [-147.809008, 64.835952], "type": "Point"}, "id": "LHJD01JvO_3ZEU0vI4QiGd-rQak=", "properties": {"@spider": "usps_collection_boxes", "addr:city": "FAIRBANKS", "addr:country": "US", "addr:full": "3627 AIRPORT WAY", "addr:postcode": "99709", "addr:state": "AK", "brand": "USPS", "collection_times": "Mo-Fr 15:15; Sa 13:45", "name": "USPS COLLECTION BOX - BLUE BOX", "note": "ON 12/24 AND 12/31, THIS BOX MAY BE COLLECTED AS EARLY AS 12 NOON.", "ref": "9970900010"}, "type": "Feature"}
{"geometry": {"coordinates": [-147.817248, 64.835895], "type": "Point"}, "id": "uWtLy_JxuzBtil35xsQPhnoI-lA=", "properties": {"@spider": "usps_collection_boxes", "addr:city": "FAIRBANKS", "addr:country": "US", "addr:full": "3755 AIRPORT WAY", "addr:postcode": "99709", "addr:state": "AK", "brand": "USPS", "collection_times": "Mo-Fr 17:30; Sa 15:00", "name": "USPS COLLECTION BOX - BLUE BOX", "note": "ON 12/24 AND 12/31, THIS BOX MAY BE COLLECTED AS EARLY AS 12 NOON.", "ref": "9970900012"}, "type": "Feature"}
{"geometry": {"coordinates": [-147.868339, 64.817714], "type": "Point"}, "id": "bdP4TKBaVm9lziBvvpmgRUA8bxE=", "properties": {"@spider": "usps_collection_boxes", "addr:city": "FAIRBANKS", "addr:country": "US", "addr:full": "6450 AIRPORT WAY", "addr:postcode": "99709", "addr:state": "AK", "brand": "USPS", "collection_times": "Mo-Fr 17:30; Sa 15:00", "name": "USPS COLLECTION BOX - BLUE BOX", "note": "ON 12/24 AND 12/31, THIS BOX MAY BE COLLECTED AS EARLY AS 12 NOON.", "ref": "9970900013"}, "type": "Feature"}
{"geometry": {"coordinates": [-147.777311, 64.83206], "type": "Point"}, "id": "C2hDmT0mWCjF_skXa7opJRvA8kQ=", "properties": {"@spider": "usps_collection_boxes", "addr:city": "FAIRBANKS", "addr:country": "US", "addr:full": "1979 PEGER RD", "addr:postcode": "99709", "addr:state": "AK", "brand": "USPS", "collection_times": "Mo-Fr 15:15", "name": "USPS COLLECTION BOX - BLUE BOX", "note": "ON 12/24 AND 12/31, THIS BOX MAY BE COLLECTED AS EARLY AS 12 NOON.", "ref": "9970900015"}, "type": "Feature"}
{"geometry": {"coordinates": [-147.813079, 64.846996], "type": "Point"}, "id": "uRBBR84qRErNr4aO9jfKkGYCc5Q=", "properties": {"@spider": "usps_collection_boxes", "addr:city": "FAIRBANKS", "addr:country": "US", "addr:full": "590 UNIVERSITY AVE", "addr:postcode": "99709", "addr:state": "AK", "brand": "USPS", "collection_times": "Mo-Fr 15:00", "name": "USPS COLLECTION BOX - BLUE BOX", "note": "ON 12/24 AND 12/31, THIS BOX MAY BE COLLECTED AS EARLY AS 12 NOON.", "ref": "9970900016"}, "type": "Feature"}
{"geometry": {"coordinates": [-147.881411, 64.814867], "type": "Point"}, "id": "ZeTGZI0L7_jhZrCGnnOqkLv_F10=", "properties": {"@spider": "usps_collection_boxes", "addr:city": "FAIRBANKS", "addr:country": "US", "addr:full": "5400 MAIL TRL", "addr:postcode": "99709", "addr:state": "AK", "brand": "USPS", "collection_times": "Mo-Fr 18:00; Sa 16:00", "name": "USPS COLLECTION BOX - PO LOBBY", "note": "ON 12/24 AND 12/31, THIS BOX MAY BE COLLECTED AS EARLY AS 12 NOON.", "ref": "9970900018"}, "type": "Feature"}
{"geometry": {"coordinates": [-147.881411, 64.814867], "type": "Point"}, "id": "mntFlrHC5MUGwjZ1KSKteOncfZo=", "properties": {"@spider": "usps_collection_boxes", "addr:city": "FAIRBANKS", "addr:country": "US", "addr:full": "5400 MAIL TRL", "addr:postcode": "99709", "addr:state": "AK", "brand": "USPS", "collection_times": "Mo-Fr 18:00; Sa 16:00", "name": "USPS COLLECTION BOX - PO LOBBY", "note": "ON 12/24 AND 12/31, THIS BOX MAY BE COLLECTED AS EARLY AS 12 NOON.", "ref": "9970900019"}, "type": "Feature"}
{"geometry": {"coordinates": [-147.567995, 64.817796], "type": "Point"}, "id": "3NEhrNRsPCw0-yNTCvncbmXeSp8=", "properties": {"@spider": "usps_collection_boxes", "addr:city": "NORTH POLE", "addr:country": "US", "addr:full": "771 BADGER RD", "addr:postcode": "99711", "addr:state": "AK", "brand": "USPS", "collection_times": "Mo-Fr 16:00; Sa 14:00", "name": "USPS COLLECTION BOX - BLUE BOX", "note": "ON 12/24 AND 12/31, THIS BOX MAY BE COLLECTED AS EARLY AS 12 NOON.", "ref": "9971100000"}, "type": "Feature"}
{"geometry": {"coordinates": [-146.867548, 64.88236], "type": "Point"}, "id": "UubfUu341hruh3sWw8jliQv9zB0=", "properties": {"@spider": "usps_collection_boxes", "addr:city": "FAIRBANKS", "addr:country": "US", "addr:full": "7291 CHENA HOT SPRINGS RD", "addr:postcode": "99712", "addr:state": "AK", "brand": "USPS", "collection_times": "Mo-Fr 12:30; Sa 10:45", "name": "USPS COLLECTION BOX - BLUE BOX", "note": "ON 12/24 AND 12/31, THIS BOX MAY BE COLLECTED AS EARLY AS 12 NOON.", "ref": "9971200001"}, "type": "Feature"}
{"geometry": {"coordinates": [-146.914785, 64.454733], "type": "Point"}, "id": "9R4fbGHROzSSPpX6cwP8oliXpA0=", "properties": {"@spider": "usps_collection_boxes", "addr:city": "SALCHA", "addr:country": "US", "addr:full": "9162 RICHARDSON HWY", "addr:postcode": "99714", "addr:state": "AK", "brand": "USPS", "collection_times": "Mo-Sa 14:00", "name": "USPS COLLECTION BOX - PO LOBBY", "note": "ON 12/24 AND 12/31, THIS BOX MAY BE COLLECTED AS EARLY AS 12 NOON.", "ref": "9971400000"}, "type": "Feature"}
{"geometry": {"coordinates": [-148.019641, 64.84524], "type": "Point"}, "id": "zQsttM4Av8gpnU_HACvdbyDyvXg=", "properties": {"@spider": "usps_collection_boxes", "addr:city": "ESTER", "addr:country": "US", "addr:full": "501 VILLAGE RD", "addr:postcode": "99725", "addr:state": "AK", "brand": "USPS", "collection_times": "Mo-Fr 14:30; Sa 11:00", "name": "USPS COLLECTION BOX - BLUE BOX", "note": "ON 12/24 AND 12/31, THIS BOX MAY BE COLLECTED AS EARLY AS 12 NOON.", "ref": "9972500000"}, "type": "Feature"}
{"geometry": {"coordinates": [-148.019641, 64.84524], "type": "Point"}, "id": "N8JGJ8paIRUuOfcRgSkDVQW-yH4=", "properties": {"@spider": "usps_collection_boxes", "addr:city": "ESTER", "addr:country": "US", "addr:full": "501 VILLAGE RD", "addr:postcode": "99725", "addr:state": "AK", "brand": "USPS", "collection_times": "Mo-Fr 14:30; Sa 11:00", "name": "USPS COLLECTION BOX - PO LOBBY", "note": "ON 12/24 AND 12/31, THIS BOX MAY BE COLLECTED AS EARLY AS 12 NOON.", "ref": "9972500001"}, "type": "Feature"}
{"geometry": {"coordinates": [-144.8178748565, 65.5710260473], "type": "Point"}, "id": "GrTfk3CudYOnsMlGmkucBOiky_0=", "properties": {"@spider": "usps_collection_boxes", "addr:city": "CENTRAL", "addr:country": "US", "addr:full": "128 STEESE HWY", "addr:postcode": "99730", "addr:state": "AK", "brand": "USPS", "collection_times": "Mo-Fr 10:30", "name": "USPS COLLECTION BOX - PO LOBBY", "ref": "9973000003"}, "type": "Feature"}
{"geometry": {"coordinates": [-145.734074, 64.039681], "type": "Point"}, "id": "wnx7f5Vm6PHmGSVMzVG_QGHJjXI=", "properties": {"@spider": "usps_collection_boxes", "addr:city": "DELTA JUNCTION", "addr:country": "US", "addr:full": "266 RICHARDSON HWY", "addr:postcode": "99737", "addr:state": "AK", "brand": "USPS", "collection_times": "Mo-Fr 14:45; Sa 11:45", "name": "USPS COLLECTION BOX - BLUE BOX", "note": "ON 12/24 AND 12/31, THIS BOX MAY BE COLLECTED AS EARLY AS 12 NOON.", "ref": "9973700000"}, "type": "Feature"}
{"geometry": {"coordinates": [-145.734074, 64.039681], "type": "Point"}, "id": "P6NDIxT7AZQyJn_d6rJjqeaORTQ=", "properties": {"@spider": "usps_collection_boxes", "addr:city": "DELTA JUNCTION", "addr:country": "US", "addr:full": "266 RICHARDSON HWY", "addr:postcode": "99737", "addr:state": "AK", "brand": "USPS", "collection_times": "Mo-Fr 14:45; Sa 11:45", "name": "USPS COLLECTION BOX - PO LOBBY", "note": "ON 12/24 AND 12/31, THIS BOX MAY BE COLLECTED AS EARLY AS 12 NOON.", "ref": "9973700002"}, "type": "Feature"}
{"geometry": {"coordinates": [-145.734074, 64.039681], "type": "Point"}, "id": "klFHp3ayjxTPzptY-Ezaz6zEuXw=", "properties": {"@spider": "usps_collection_boxes", "addr:city": "DELTA JUNCTION", "addr:country": "US", "addr:full": "266 RICHARDSON HWY", "addr:postcode": "99737", "addr:state": "AK", "brand": "USPS", "collection_times": "Mo-Fr 14:45; Sa 11:45", "name": "USPS COLLECTION BOX - PO LOBBY", "note": "ON 12/24 AND 12/31, THIS BOX MAY BE COLLECTED AS EARLY AS 12 NOON.", "ref": "9973700003"}, "type": "Feature"}
{"geometry": {"coordinates": [-141.202145281, 64.7871968149], "type": "Point"}, "id": "rdkeo1upiLvcZGbrwFjWrb2fpYg=", "properties": {"@spider": "usps_collection_boxes", "addr:city": "EAGLE", "addr:country": "US", "addr:full": "200 JEFFERSON ST", "addr:postcode": "99738", "addr:state": "AK", "brand": "USPS", "collection_times": "Mo-Fr 10:00", "name": "USPS COLLECTION BOX - PO LOBBY", "ref": "9973800001"}, "type": "Feature"}
{"geometry": {"coordinates": [-145.2566628699, 66.5657986533], "type": "Point"}, "id": "9cwQR9hgrETNqatbbriiQOfa7wY=", "properties": {"@spider": "usps_collection_boxes", "addr:city": "FORT YUKON", "addr:country": "US", "addr:full": "9998 E 3RD AVE", "addr:postcode": "99740", "addr:state": "AK", "brand": "USPS", "collection_times": "Mo-Fr 10:00", "name": "USPS COLLECTION BOX - PO LOBBY", "ref": "9974000001"}, "type": "Feature"}
{"geometry": {"coordinates": [-149.017829274, 63.871451642], "type": "Point"}, "id": "VNpz4e60-0juNmZdnR7AWsALxEM=", "properties": {"@spider": "usps_collection_boxes", "addr:city": "HEALY", "addr:country": "US", "addr:full": "9998 COAL ST", "addr:postcode": "99743", "addr:state": "AK", "brand": "USPS", "collection_times": "Mo-Sa 11:00", "name": "USPS COLLECTION BOX - BLUE BOX", "ref": "9974300000"}, "type": "Feature"}
{"geometry": {"coordinates": [-149.017829274, 63.871451642], "type": "Point"}, "id": "pws2lOP_T6l0-0uvONWw7x7p-EM=", "properties": {"@spider": "usps_collection_boxes", "addr:city": "HEALY", "addr:country": "US", "addr:full": "9998 COAL ST", "addr:postcode": "99743", "addr:state": "AK", "brand": "USPS", "collection_times": "Mo-Sa 11:00", "name": "USPS COLLECTION BOX - PO LOBBY", "ref": "9974300001"}, "type": "Feature"}
{"geometry": {"coordinates": [-149.1792701876, 64.3434979254], "type": "Point"}, "id": "6OaL9drmJGTuNNNgKZL4l_6LgVs=", "properties": {"@spider": "usps_collection_boxes", "addr:city": "ANDERSON", "addr:country": "US", "addr:full": "260 W 1ST ST", "addr:postcode": "99744", "addr:state": "AK", "brand": "USPS", "collection_times": "Mo-Fr 12:00", "name": "USPS COLLECTION BOX - BLUE BOX", "ref": "9974400003"}, "type": "Feature"}
{"geometry": {"coordinates": [-149.179270188, 64.343497925], "type": "Point"}, "id": "_Zi9MTRSWZMf7LuOFY8hstA3oLE=", "properties": {"@spider": "usps_collection_boxes", "addr:city": "ANDERSON", "addr:country": "US", "addr:full": "260 W 1ST ST", "addr:postcode": "99744", "addr:state": "AK", "brand": "USPS", "collection_times": "Mo-Fr 12:00", "name": "USPS COLLECTION BOX - PO LOBBY", "ref": "9974400004"}, "type": "Feature"}
{"geometry": {"coordinates": [-149.3482421614, 65.1498129764], "type": "Point"}, "id": "jCafbgNesn_BbU8U2QdWpw0Sq4g=", "properties": {"@spider": "usps_collection_boxes", "addr:city": "MINTO", "addr:country": "US", "addr:full": "100 3RD ST", "addr:postcode": "99758", "addr:state": "AK", "brand": "USPS", "collection_times": "Mo-Fr 09:00", "name": "USPS COLLECTION BOX - PO LOBBY", "ref": "9975800001"}, "type": "Feature"}
{"geometry": {"coordinates": [-149.094034, 64.563535], "type": "Point"}, "id": "uoY8VQ7eIsRu_mIVPmdzUAN3dCE=", "properties": {"@spider": "usps_collection_boxes", "addr:city": "NENANA", "addr:country": "US", "addr:full": "803 MARKET ST", "addr:postcode": "99760", "addr:state": "AK", "brand": "USPS", "collection_times": "Sa 09:45", "name": "USPS COLLECTION BOX - BLUE BOX", "ref": "9976000000"}, "type": "Feature"}
{"geometry": {"coordinates": [-149.094034, 64.563535], "type": "Point"}, "id": "qddClYa-_AUGmx23HdMsn7PGvKA=", "properties": {"@spider": "usps_collection_boxes", "addr:city": "NENANA", "addr:country": "US", "addr:full": "803 MARKET ST", "addr:postcode": "99760", "addr:state": "AK", "brand": "USPS", "collection_times": "Sa 09:45", "name": "USPS COLLECTION BOX - PO LOBBY", "ref": "9976000001"}, "type": "Feature"}
{"geometry": {"coordinates": [-149.094034, 64.563535], "type": "Point"}, "id": "2ZXOxVFkOKolHrB8KQGMYE0RD5c=", "properties": {"@spider": "usps_collection_boxes", "addr:city": "NENANA", "addr:country": "US", "addr:full": "803 MARKET ST", "addr:postcode": "99760", "addr:state": "AK", "brand": "USPS", "collection_times": "Sa 09:45", "name": "USPS COLLECTION BOX - PO LOBBY", "ref": "9976000002"}, "type": "Feature"}
{"geometry": {"coordinates": [-141.928952286, 62.963326643], "type": "Point"}, "id": "-yItwy4Yb_2GFPe7N6UKoR8io2Y=", "properties": {"@spider": "usps_collection_boxes", "addr:city": "NORTHWAY", "addr:country": "US", "addr:full": "6650 NORTHWAY RD", "addr:postcode": "99764", "addr:state": "AK", "brand": "USPS", "collection_times": "Mo-Fr 10:00", "name": "USPS COLLECTION BOX - PO LOBBY", "ref": "9976400001"}, "type": "Feature"}
{"geometry": {"coordinates": [-147.821143, 64.855871], "type": "Point"}, "id": "nd3cJrxC3uMRHtniM6ql0io5Sv8=", "properties": {"@spider": "usps_collection_boxes", "addr:city": "FAIRBANKS", "addr:country": "US", "addr:full": "500 SALCHA ST", "addr:postcode": "99775", "addr:state": "AK", "brand": "USPS", "collection_times": "Mo-Fr 14:45; Sa 13:15", "name": "USPS COLLECTION BOX - BLUE BOX", "note": "ON 12/24 AND 12/31, THIS BOX MAY BE COLLECTED AS EARLY AS 12 NOON.", "ref": "9977500001"}, "type": "Feature"}
{"geometry": {"coordinates": [-147.830691, 64.858082], "type": "Point"}, "id": "5kV0X1WvZlAmezpqJSEflqIotAE=", "properties": {"@spider": "usps_collection_boxes", "addr:city": "FAIRBANKS", "addr:country": "US", "addr:full": "500 YUKON DR", "addr:postcode": "99775", "addr:state": "AK", "brand": "USPS", "collection_times": "Mo-Fr 15:00; Sa 13:30", "name": "USPS COLLECTION BOX - BLUE BOX", "note": "ON 12/24 AND 12/31, THIS BOX MAY BE COLLECTED AS EARLY AS 12 NOON.", "ref": "9977500008"}, "type": "Feature"}
{"geometry": {"coordinates": [-142.2462980595, 63.9193253501], "type": "Point"}, "id": "5ReV0gime2TvSs4Kdo26dCJgcbA=", "properties": {"@spider": "usps_collection_boxes", "addr:city": "TOK", "addr:country": "US", "addr:full": "1314.3 ALASKA HWY", "addr:postcode": "99780", "addr:state": "AK", "brand": "USPS", "collection_times": "Mo-Sa 10:00", "name": "USPS COLLECTION BOX - BLUE BOX", "ref": "9978000000"}, "type": "Feature"}
{"geometry": {"coordinates": [-142.2462980595, 63.9193253501], "type": "Point"}, "id": "UtXmvGUJZbh63DZZiBqOS_ZaDVA=", "properties": {"@spider": "usps_collection_boxes", "addr:city": "TOK", "addr:country": "US", "addr:full": "1314.3 ALASKA HWY", "addr:postcode": "99780", "addr:state": "AK", "brand": "USPS", "collection_times": "Mo-Sa 10:00", "name": "USPS COLLECTION BOX - PO LOBBY", "ref": "9978000001"}, "type": "Feature"}
{"geometry": {"coordinates": [-142.2462980595, 63.9193253501], "type": "Point"}, "id": "RpT1cGEPoWhKWDtXxlhy5-Mgxp4=", "properties": {"@spider": "usps_collection_boxes", "addr:city": "TOK", "addr:country": "US", "addr:full": "1314.3 ALASKA HWY", "addr:postcode": "99780", "addr:state": "AK", "brand": "USPS", "collection_times": "Mo-Sa 10:00", "name": "USPS COLLECTION BOX - PO LOBBY", "ref": "9978000002"}, "type": "Feature"}
