{"dataset_attributes": {"@spider": "usps_collection_boxes"}, "geometry": {"coordinates": [-135.443984, 59.230494], "type": "Point"}, "id": "8VkAhj2MoD69Ca6BrhUbK-5pXa0=", "properties": {"@spider": "usps_collection_boxes", "addr:city": "HAINES", "addr:country": "US", "addr:full": "55 HAINES HWY", "addr:postcode": "99827", "addr:state": "AK", "amenity": "post_box", "brand": "United States Postal Service", "brand:wikidata": "Q668687", "collection_times": "Mo-Sa 12:00", "name": "USPS COLLECTION BOX - BLUE BOX", "nsi_id": "unitedstatespostalservice-a77078", "operator": "United States Postal Service", "operator:short": "USPS", "operator:type": "public", "operator:wikidata": "Q668687", "ref": "9982700000"}, "type": "Feature"}
{"dataset_attributes": {"@spider": "usps_collection_boxes"}, "geometry": {"coordinates": [-135.443984, 59.230494], "type": "Point"}, "id": "SLNVRzxqq0irL4SvL4aHtBhPabs=", "properties": {"@spider": "usps_collection_boxes", "addr:city": "HAINES", "addr:country": "US", "addr:full": "55 HAINES HWY", "addr:postcode": "99827", "addr:state": "AK", "amenity": "post_box", "brand": "United States Postal Service", "brand:wikidata": "Q668687", "collection_times": "Mo-Sa 12:00", "name": "USPS COLLECTION BOX - PO LOBBY", "nsi_id": "unitedstatespostalservice-a77078", "operator": "United States Postal Service", "operator:short": "USPS", "operator:type": "public", "operator:wikidata": "Q668687", "ref": "9982700001"}, "type": "Feature"}
{"dataset_attributes": {"@spider": "usps_collection_boxes"}, "geometry": {"coordinates": [-135.443984, 59.230494], "type": "Point"}, "id": "vjyZXDIsoGHTJtGPUfXFjYbGML0=", "properties": {"@spider": "usps_collection_boxes", "addr:city": "HAINES", "addr:country": "US", "addr:full": "55 HAINES HWY", "addr:postcode": "99827", "addr:state": "AK", "amenity": "post_box", "brand": "United States Postal Service", "brand:wikidata": "Q668687", "collection_times": "Mo-Sa 12:00", "name": "USPS COLLECTION BOX - PO LOBBY", "nsi_id": "unitedstatespostalservice-a77078", "operator": "United States Postal Service", "operator:short": "USPS", "operator:type": "public", "operator:wikidata": "Q668687", "ref": "9982700002"}, "type": "Feature"}
{"dataset_attributes": {"@spider": "usps_collection_boxes"}, "geometry": {"coordinates": [-132.957349, 56.811118], "type": "Point"}, "id": "5J-rIHflk7qyQQ4ErQmmDN-PwJA=", "properties": {"@spider": "usps_collection_boxes", "addr:city": "PETERSBURG", "addr:country": "US", "addr:full": "1201 HAUGEN DR", "addr:postcode": "99833", "addr:state": "AK", "amenity": "post_box", "brand": "United States Postal Service", "brand:wikidata": "Q668687", "collection_times": "Mo-Sa 08:30", "name": "USPS COLLECTION BOX - PO LOBBY", "nsi_id": "unitedstatespostalservice-a77078", "operator": "United States Postal Service", "operator:short": "USPS", "operator:type": "public", "operator:wikidata": "Q668687", "ref": "9983300001"}, "type": "Feature"}
{"dataset_attributes": {"@spider": "usps_collection_boxes"}, "geometry": {"coordinates": [-132.957349, 56.811118], "type": "Point"}, "id": "p6QROtu7XbDgbcoVT8masVegdgk=", "properties": {"@spider": "usps_collection_boxes", "addr:city": "PETERSBURG", "addr:country": "US", "addr:full": "1201 HAUGEN DR", "addr:postcode": "99833", "addr:state": "AK", "amenity": "post_box", "brand": "United States Postal Service", "brand:wikidata": "Q668687", "collection_times": "Mo-Sa 08:30", "name": "USPS COLLECTION BOX - PO LOBBY", "nsi_id": "unitedstatespostalservice-a77078", "operator": "United States Postal Service", "operator:short": "USPS", "operator:type": "public", "operator:wikidata": "Q668687", "ref": "9983300002"}, "type": "Feature"}
{"dataset_attributes": {"@spider": "usps_collection_boxes"}, "geometry": {"coordinates": [-132.957349, 56.811118], "type": "Point"}, "id": "GGQo7AFaoSSOgwh7plbQEtWz-v4=", "properties": {"@spider": "usps_collection_boxes", "addr:city": "PETERSBURG", "addr:country": "US", "addr:full": "1201 HAUGEN DR", "addr:postcode": "99833", "addr:state": "AK", "amenity": "post_box", "brand": "United States Postal Service", "brand:wikidata": "Q668687", "collection_times": "Mo-Sa 08:30", "name": "USPS COLLECTION BOX - PO LOBBY", "nsi_id": "unitedstatespostalservice-a77078", "operator": "United States Postal Service", "operator:short": "USPS", "operator:type": "public", "operator:wikidata": "Q668687", "ref": "9983300003"}, "type": "Feature"}
{"dataset_attributes": {"@spider": "usps_collection_boxes"}, "geometry": {"coordinates": [-135.313914, 59.456129], "type": "Point"}, "id": "IPvegytRJF1bCJ_2YyhKps_pSfM=", "properties": {"@spider": "usps_collection_boxes", "addr:city": "SKAGWAY", "addr:country": "US", "addr:full": "641 BROADWAY ST", "addr:postcode": "99840", "addr:state": "AK", "amenity": "post_box", "brand": "United States Postal Service", "brand:wikidata": "Q668687", "collection_times": "Mo-Sa 10:00", "name": "USPS COLLECTION BOX - BLUE BOX", "nsi_id": "unitedstatespostalservice-a77078", "operator": "United States Postal Service", "operator:short": "USPS", "operator:type": "public", "operator:wikidata": "Q668687", "ref": "9984000000"}, "type": "Feature"}
{"dataset_attributes": {"@spider": "usps_collection_boxes"}, "geometry": {"coordinates": [-135.313809, 59.456145], "type": "Point"}, "id": "dJ8tNKrEaBw9a5QuyRnfgesYvc4=", "properties": {"@spider": "usps_collection_boxes", "addr:city": "SKAGWAY", "addr:country": "US", "addr:full": "641 BROADWAY ST", "addr:postcode": "99840", "addr:state": "AK", "amenity": "post_box", "brand": "United States Postal Service", "brand:wikidata": "Q668687", "collection_times": "Mo-Sa 10:00", "name": "USPS COLLECTION BOX - PO LOBBY", "nsi_id": "unitedstatespostalservice-a77078", "operator": "United States Postal Service", "operator:short": "USPS", "operator:type": "public", "operator:wikidata": "Q668687", "ref": "9984000001"}, "type": "Feature"}
