{"dataset_attributes": {"@spider": "usps_collection_boxes"}, "geometry": {"coordinates": [-132.82445, 55.20441], "type": "Point"}, "id": "J3bH6dtJVP7Ds0KvtisJxBTrPgY=", "properties": {"@spider": "usps_collection_boxes", "addr:city": "HYDABURG", "addr:country": "US", "addr:full": "1 POSTAL WAY", "addr:postcode": "99922", "addr:state": "AK", "amenity": "post_box", "brand": "United States Postal Service", "brand:wikidata": "Q668687", "collection_times": "Mo-Sa 11:00", "name": "USPS COLLECTION BOX - PO LOBBY", "nsi_id": "unitedstatespostalservice-a77078", "operator": "United States Postal Service", "operator:short": "USPS", "operator:type": "public", "operator:wikidata": "Q668687", "ref": "9992200001"}, "type": "Feature"}
{"dataset_attributes": {"@spider": "usps_collection_boxes"}, "geometry": {"coordinates": [-131.578389, 55.125118], "type": "Point"}, "id": "V3ZWAEuF7QTVMRdq-ipcHHEu0Ek=", "properties": {"@spider": "usps_collection_boxes", "addr:city": "METLAKATLA", "addr:country": "US", "addr:full": "352 8TH AVE", "addr:postcode": "99926", "addr:state": "AK", "amenity": "post_box", "brand": "United States Postal Service", "brand:wikidata": "Q668687", "collection_times": "Mo-Sa 12:00", "name": "USPS COLLECTION BOX - PO LOBBY", "nsi_id": "unitedstatespostalservice-a77078", "operator": "United States Postal Service", "operator:short": "USPS", "operator:type": "public", "operator:wikidata": "Q668687", "ref": "9992600001"}, "type": "Feature"}
